{
"type": "FeatureCollection",
"name": "alerts_20180414_0400Z",
"crs": { "type": "name", "properties": { "name": "urn:ogc:def:crs:OGC:1.3:CRS84" } },
"features": [
{ "type": "Feature", "properties": { "WFO": "FSD", "ISSUED": "201804140000", "EXPIRED": "201804150300", "INIT_ISS": "201804122045", "INIT_EXP": "201804150000", "PHENOM": "BZ", "GTYPE": "C", "SIG": "W", "ETN": 3, "STATUS": "EXP", "NWS_UGC": "SDZ066", "AREA_KM2": 1596.4334716796875, "UPDATED": "201804150250", "HV_NWSLI": null, "HV_SEV": null, "HV_CAUSE": null, "HV_REC": null, "EMERGENC": false, "POLY_BEG": null, "POLY_END": null, "WINDTAG": null, "HAILTAG": null, "TORNTAG": null, "DAMAGTAG": null, "PROD_ID": "201804122045-KFSD-WWUS43-WSWFSD", "FCSTER": null }, "geometry": { "type": "Polygon", "coordinates": [ [ [ -96.93, 43.5 ], [ -96.92, 43.5 ], [ -96.92, 43.44 ], [ -96.92, 43.4 ], [ -96.92, 43.25 ], [ -96.92, 43.22 ], [ -96.92, 43.19 ], [ -96.92, 43.18 ], [ -96.92, 43.17 ], [ -96.92, 43.08 ], [ -96.98, 43.08 ], [ -96.99, 43.08 ], [ -97.01, 43.08 ], [ -97.11, 43.08 ], [ -97.15, 43.08 ], [ -97.16, 43.08 ], [ -97.16, 43.09 ], [ -97.16, 43.11 ], [ -97.16, 43.17 ], [ -97.27, 43.17 ], [ -97.4, 43.17 ], [ -97.4, 43.24 ], [ -97.4, 43.26 ], [ -97.4, 43.27 ], [ -97.4, 43.3 ], [ -97.4, 43.34 ], [ -97.4, 43.37 ], [ -97.4, 43.39 ], [ -97.4, 43.4 ], [ -97.4, 43.42 ], [ -97.4, 43.43 ], [ -97.4, 43.45 ], [ -97.4, 43.5 ], [ -97.39, 43.5 ], [ -97.38, 43.5 ], [ -97.37, 43.5 ], [ -97.33, 43.5 ], [ -97.14, 43.5 ], [ -97.13, 43.5 ], [ -97.12, 43.5 ], [ -97.08, 43.5 ], [ -97.02, 43.5 ], [ -96.98, 43.5 ], [ -96.97, 43.5 ], [ -96.94, 43.5 ], [ -96.93, 43.5 ] ] ] } },
{ "type": "Feature", "properties": { "WFO": "MPX", "ISSUED": "201804140000", "EXPIRED": "201804140843", "INIT_ISS": "201804130234", "INIT_EXP": "201804150600", "PHENOM": "WS", "GTYPE": "C", "SIG": "W", "ETN": 8, "STATUS": "UPG", "NWS_UGC": "MNZ058", "AREA_KM2": 1666.9088134765625, "UPDATED": "201804140843", "HV_NWSLI": null, "HV_SEV": null, "HV_CAUSE": null, "HV_REC": null, "EMERGENC": false, "POLY_BEG": null, "POLY_END": null, "WINDTAG": null, "HAILTAG": null, "TORNTAG": null, "DAMAGTAG": null, "PROD_ID": "201804130234-KMPX-WWUS43-WSWMPX", "FCSTER": "Borghoff" }, "geometry": { "type": "Polygon", "coordinates": [ [ [ -94.26, 45.28 ], [ -94.26, 45.27 ], [ -94.26, 45.26 ], [ -94.26, 45.25 ], [ -94.26, 45.24 ], [ -94.26, 45.23 ], [ -94.26, 45.2 ], [ -94.26, 45.12 ], [ -94.26, 45.08 ], [ -94.26, 45.03 ], [ -94.26, 44.99 ], [ -94.26, 44.98 ], [ -94.3, 44.98 ], [ -94.37, 44.98 ], [ -94.4, 44.98 ], [ -94.41, 44.98 ], [ -94.45, 44.98 ], [ -94.5, 44.98 ], [ -94.5, 44.97 ], [ -94.5, 44.94 ], [ -94.5, 44.9 ], [ -94.5, 44.89 ], [ -94.54, 44.89 ], [ -94.57, 44.89 ], [ -94.58, 44.89 ], [ -94.61, 44.89 ], [ -94.67, 44.89 ], [ -94.7, 44.89 ], [ -94.76, 44.89 ], [ -94.76, 44.94 ], [ -94.76, 44.96 ], [ -94.76, 45.03 ], [ -94.76, 45.05 ], [ -94.76, 45.11 ], [ -94.76, 45.13 ], [ -94.76, 45.14 ], [ -94.76, 45.19 ], [ -94.76, 45.21 ], [ -94.76, 45.23 ], [ -94.76, 45.24 ], [ -94.76, 45.25 ], [ -94.76, 45.28 ], [ -94.76, 45.3 ], [ -94.76, 45.31 ], [ -94.76, 45.33 ], [ -94.74, 45.33 ], [ -94.71, 45.33 ], [ -94.64, 45.33 ], [ -94.61, 45.33 ], [ -94.59, 45.33 ], [ -94.53, 45.33 ], [ -94.51, 45.33 ], [ -94.43, 45.33 ], [ -94.38, 45.33 ], [ -94.38, 45.32 ], [ -94.38, 45.28 ], [ -94.36, 45.28 ], [ -94.32, 45.28 ], [ -94.31, 45.28 ], [ -94.29, 45.28 ], [ -94.26, 45.28 ] ] ] } },
{ "type": "Feature", "properties": { "WFO": "FSD", "ISSUED": "201804140000", "EXPIRED": "201804150300", "INIT_ISS": "201804122045", "INIT_EXP": "201804150000", "PHENOM": "BZ", "GTYPE": "C", "SIG": "W", "ETN": 3, "STATUS": "EXP", "NWS_UGC": "SDZ039", "AREA_KM2": 2232.25, "UPDATED": "201804150250", "HV_NWSLI": null, "HV_SEV": null, "HV_CAUSE": null, "HV_REC": null, "EMERGENC": false, "POLY_BEG": null, "POLY_END": null, "WINDTAG": null, "HAILTAG": null, "TORNTAG": null, "DAMAGTAG": null, "PROD_ID": "201804122045-KFSD-WWUS43-WSWFSD", "FCSTER": null }, "geometry": { "type": "Polygon", "coordinates": [ [ [ -97.49, 44.54 ], [ -97.39, 44.54 ], [ -97.35, 44.54 ], [ -97.28, 44.54 ], [ -97.21, 44.54 ], [ -97.13, 44.54 ], [ -97.13, 44.53 ], [ -97.13, 44.46 ], [ -97.13, 44.43 ], [ -97.13, 44.38 ], [ -97.13, 44.37 ], [ -97.13, 44.36 ], [ -97.13, 44.33 ], [ -97.13, 44.32 ], [ -97.13, 44.28 ], [ -97.13, 44.26 ], [ -97.13, 44.23 ], [ -97.13, 44.21 ], [ -97.13, 44.2 ], [ -97.23, 44.2 ], [ -97.27, 44.2 ], [ -97.37, 44.2 ], [ -97.42, 44.19 ], [ -97.45, 44.2 ], [ -97.53, 44.19 ], [ -97.58, 44.2 ], [ -97.64, 44.19 ], [ -97.65, 44.19 ], [ -97.67, 44.19 ], [ -97.69, 44.19 ], [ -97.77, 44.2 ], [ -97.81, 44.2 ], [ -97.83, 44.2 ], [ -97.85, 44.2 ], [ -97.85, 44.24 ], [ -97.85, 44.25 ], [ -97.85, 44.31 ], [ -97.85, 44.36 ], [ -97.85, 44.37 ], [ -97.85, 44.4 ], [ -97.85, 44.41 ], [ -97.85, 44.46 ], [ -97.85, 44.48 ], [ -97.85, 44.5 ], [ -97.85, 44.51 ], [ -97.85, 44.54 ], [ -97.83, 44.54 ], [ -97.73, 44.54 ], [ -97.69, 44.54 ], [ -97.6, 44.54 ], [ -97.59, 44.54 ], [ -97.49, 44.54 ] ] ] } },
{ "type": "Feature", "properties": { "WFO": "FSD", "ISSUED": "201804140000", "EXPIRED": "201804150300", "INIT_ISS": "201804122045", "INIT_EXP": "201804150000", "PHENOM": "BZ", "GTYPE": "C", "SIG": "W", "ETN": 3, "STATUS": "EXP", "NWS_UGC": "SDZ069", "AREA_KM2": 1376.9483642578125, "UPDATED": "201804150250", "HV_NWSLI": null, "HV_SEV": null, "HV_CAUSE": null, "HV_REC": null, "EMERGENC": false, "POLY_BEG": null, "POLY_END": null, "WINDTAG": null, "HAILTAG": null, "TORNTAG": null, "DAMAGTAG": null, "PROD_ID": "201804122045-KFSD-WWUS43-WSWFSD", "FCSTER": null }, "geometry": { "type": "Polygon", "coordinates": [ [ [ -97.16, 43.17 ], [ -97.16, 43.11 ], [ -97.16, 43.09 ], [ -97.16, 43.08 ], [ -97.16, 43.04 ], [ -97.16, 43.01 ], [ -97.16, 43.0 ], [ -97.16, 42.95 ], [ -97.16, 42.93 ], [ -97.16, 42.92 ], [ -97.16, 42.89 ], [ -97.16, 42.88 ], [ -97.16, 42.84 ], [ -97.16, 42.83 ], [ -97.16, 42.81 ], [ -97.16, 42.8 ], [ -97.17, 42.8 ], [ -97.18, 42.8 ], [ -97.19, 42.8 ], [ -97.19, 42.81 ], [ -97.2, 42.81 ], [ -97.21, 42.81 ], [ -97.21, 42.82 ], [ -97.22, 42.83 ], [ -97.22, 42.84 ], [ -97.22, 42.85 ], [ -97.23, 42.85 ], [ -97.24, 42.85 ], [ -97.25, 42.86 ], [ -97.26, 42.85 ], [ -97.27, 42.85 ], [ -97.28, 42.85 ], [ -97.29, 42.86 ], [ -97.3, 42.86 ], [ -97.31, 42.87 ], [ -97.32, 42.86 ], [ -97.33, 42.86 ], [ -97.34, 42.86 ], [ -97.35, 42.86 ], [ -97.36, 42.86 ], [ -97.37, 42.86 ], [ -97.38, 42.86 ], [ -97.38, 42.87 ], [ -97.39, 42.86 ], [ -97.4, 42.87 ], [ -97.41, 42.87 ], [ -97.42, 42.87 ], [ -97.42, 42.86 ], [ -97.43, 42.86 ], [ -97.43, 42.85 ], [ -97.44, 42.85 ], [ -97.45, 42.85 ], [ -97.46, 42.85 ], [ -97.47, 42.85 ], [ -97.48, 42.85 ], [ -97.49, 42.85 ], [ -97.5, 42.85 ], [ -97.5, 42.86 ], [ -97.51, 42.86 ], [ -97.52, 42.85 ], [ -97.53, 42.85 ], [ -97.54, 42.85 ], [ -97.55, 42.85 ], [ -97.56, 42.85 ], [ -97.57, 42.85 ], [ -97.58, 42.85 ], [ -97.59, 42.85 ], [ -97.6, 42.86 ], [ -97.61, 42.86 ], [ -97.62, 42.86 ], [ -97.62, 42.85 ], [ -97.63, 42.85 ], [ -97.64, 42.85 ], [ -97.64, 42.87 ], [ -97.63, 42.89 ], [ -97.64, 42.9 ], [ -97.64, 42.93 ], [ -97.64, 43.0 ], [ -97.64, 43.01 ], [ -97.64, 43.02 ], [ -97.64, 43.04 ], [ -97.64, 43.06 ], [ -97.64, 43.1 ], [ -97.64, 43.11 ], [ -97.64, 43.15 ], [ -97.64, 43.17 ], [ -97.6, 43.17 ], [ -97.58, 43.17 ], [ -97.5, 43.17 ], [ -97.43, 43.17 ], [ -97.41, 43.17 ], [ -97.4, 43.17 ], [ -97.27, 43.17 ], [ -97.16, 43.17 ] ] ] } },
{ "type": "Feature", "properties": { "WFO": "FSD", "ISSUED": "201804140000", "EXPIRED": "201804150300", "INIT_ISS": "201804122045", "INIT_EXP": "201804150000", "PHENOM": "BZ", "GTYPE": "C", "SIG": "W", "ETN": 3, "STATUS": "EXP", "NWS_UGC": "SDZ055", "AREA_KM2": 1486.412109375, "UPDATED": "201804150250", "HV_NWSLI": null, "HV_SEV": null, "HV_CAUSE": null, "HV_REC": null, "EMERGENC": false, "POLY_BEG": null, "POLY_END": null, "WINDTAG": null, "HAILTAG": null, "TORNTAG": null, "DAMAGTAG": null, "PROD_ID": "201804122045-KFSD-WWUS43-WSWFSD", "FCSTER": null }, "geometry": { "type": "Polygon", "coordinates": [ [ [ -97.13, 44.2 ], [ -97.02, 44.2 ], [ -96.99, 44.2 ], [ -96.97, 44.2 ], [ -96.89, 44.2 ], [ -96.89, 44.19 ], [ -96.89, 44.18 ], [ -96.89, 44.17 ], [ -96.89, 44.16 ], [ -96.89, 44.14 ], [ -96.89, 44.08 ], [ -96.89, 44.04 ], [ -96.89, 44.02 ], [ -96.89, 43.96 ], [ -96.89, 43.91 ], [ -96.89, 43.89 ], [ -96.89, 43.87 ], [ -96.89, 43.86 ], [ -96.89, 43.85 ], [ -96.96, 43.85 ], [ -96.99, 43.85 ], [ -97.12, 43.85 ], [ -97.13, 43.85 ], [ -97.19, 43.85 ], [ -97.28, 43.85 ], [ -97.37, 43.85 ], [ -97.37, 43.88 ], [ -97.37, 43.89 ], [ -97.37, 43.94 ], [ -97.37, 43.98 ], [ -97.37, 44.0 ], [ -97.37, 44.14 ], [ -97.37, 44.15 ], [ -97.37, 44.19 ], [ -97.37, 44.2 ], [ -97.27, 44.2 ], [ -97.23, 44.2 ], [ -97.13, 44.2 ] ] ] } },
{ "type": "Feature", "properties": { "WFO": "FSD", "ISSUED": "201804140000", "EXPIRED": "201804150300", "INIT_ISS": "201804122045", "INIT_EXP": "201804150000", "PHENOM": "BZ", "GTYPE": "C", "SIG": "W", "ETN": 3, "STATUS": "EXP", "NWS_UGC": "SDZ065", "AREA_KM2": 2105.405517578125, "UPDATED": "201804150250", "HV_NWSLI": null, "HV_SEV": null, "HV_CAUSE": null, "HV_REC": null, "EMERGENC": false, "POLY_BEG": null, "POLY_END": null, "WINDTAG": null, "HAILTAG": null, "TORNTAG": null, "DAMAGTAG": null, "PROD_ID": "201804122045-KFSD-WWUS43-WSWFSD", "FCSTER": null }, "geometry": { "type": "Polygon", "coordinates": [ [ [ -97.61, 43.5 ], [ -97.4, 43.5 ], [ -97.4, 43.45 ], [ -97.4, 43.43 ], [ -97.4, 43.42 ], [ -97.4, 43.4 ], [ -97.4, 43.39 ], [ -97.4, 43.37 ], [ -97.4, 43.34 ], [ -97.4, 43.3 ], [ -97.4, 43.27 ], [ -97.4, 43.26 ], [ -97.4, 43.24 ], [ -97.4, 43.17 ], [ -97.41, 43.17 ], [ -97.43, 43.17 ], [ -97.5, 43.17 ], [ -97.58, 43.17 ], [ -97.6, 43.17 ], [ -97.64, 43.17 ], [ -97.66, 43.17 ], [ -97.67, 43.17 ], [ -97.69, 43.17 ], [ -97.72, 43.17 ], [ -97.76, 43.17 ], [ -97.82, 43.17 ], [ -97.93, 43.17 ], [ -97.96, 43.17 ], [ -98.02, 43.17 ], [ -98.08, 43.17 ], [ -98.07, 43.18 ], [ -98.09, 43.19 ], [ -98.11, 43.2 ], [ -98.11, 43.26 ], [ -98.11, 43.27 ], [ -98.11, 43.35 ], [ -98.11, 43.36 ], [ -98.11, 43.37 ], [ -98.11, 43.38 ], [ -98.11, 43.4 ], [ -98.11, 43.42 ], [ -98.11, 43.44 ], [ -98.11, 43.47 ], [ -98.11, 43.48 ], [ -98.11, 43.49 ], [ -98.11, 43.5 ], [ -98.1, 43.5 ], [ -98.08, 43.5 ], [ -98.06, 43.5 ], [ -98.02, 43.5 ], [ -98.01, 43.5 ], [ -98.0, 43.5 ], [ -97.98, 43.5 ], [ -97.96, 43.5 ], [ -97.94, 43.5 ], [ -97.91, 43.5 ], [ -97.79, 43.5 ], [ -97.76, 43.5 ], [ -97.75, 43.5 ], [ -97.74, 43.5 ], [ -97.64, 43.5 ], [ -97.63, 43.5 ], [ -97.61, 43.5 ] ] ] } },
{ "type": "Feature", "properties": { "WFO": "FSD", "ISSUED": "201804140000", "EXPIRED": "201804150300", "INIT_ISS": "201804122045", "INIT_EXP": "201804150000", "PHENOM": "BZ", "GTYPE": "C", "SIG": "W", "ETN": 3, "STATUS": "EXP", "NWS_UGC": "SDZ060", "AREA_KM2": 1126.008056640625, "UPDATED": "201804150250", "HV_NWSLI": null, "HV_SEV": null, "HV_CAUSE": null, "HV_REC": null, "EMERGENC": false, "POLY_BEG": null, "POLY_END": null, "WINDTAG": null, "HAILTAG": null, "TORNTAG": null, "DAMAGTAG": null, "PROD_ID": "201804122045-KFSD-WWUS43-WSWFSD", "FCSTER": null }, "geometry": { "type": "Polygon", "coordinates": [ [ [ -97.85, 43.85 ], [ -97.83, 43.85 ], [ -97.79, 43.85 ], [ -97.74, 43.85 ], [ -97.66, 43.85 ], [ -97.64, 43.85 ], [ -97.61, 43.85 ], [ -97.61, 43.83 ], [ -97.61, 43.8 ], [ -97.61, 43.76 ], [ -97.61, 43.75 ], [ -97.61, 43.74 ], [ -97.61, 43.72 ], [ -97.61, 43.71 ], [ -97.61, 43.67 ], [ -97.61, 43.66 ], [ -97.61, 43.6 ], [ -97.61, 43.54 ], [ -97.61, 43.52 ], [ -97.61, 43.5 ], [ -97.63, 43.5 ], [ -97.64, 43.5 ], [ -97.74, 43.5 ], [ -97.75, 43.5 ], [ -97.76, 43.5 ], [ -97.79, 43.5 ], [ -97.91, 43.5 ], [ -97.94, 43.5 ], [ -97.96, 43.5 ], [ -97.96, 43.51 ], [ -97.97, 43.58 ], [ -97.97, 43.6 ], [ -97.97, 43.63 ], [ -97.97, 43.64 ], [ -97.97, 43.65 ], [ -97.97, 43.68 ], [ -97.97, 43.75 ], [ -97.97, 43.76 ], [ -97.97, 43.77 ], [ -97.97, 43.78 ], [ -97.97, 43.79 ], [ -97.97, 43.81 ], [ -97.97, 43.82 ], [ -97.97, 43.83 ], [ -97.97, 43.85 ], [ -97.95, 43.85 ], [ -97.91, 43.85 ], [ -97.85, 43.85 ] ] ] } },
{ "type": "Feature", "properties": { "WFO": "FSD", "ISSUED": "201804140000", "EXPIRED": "201804150300", "INIT_ISS": "201804122045", "INIT_EXP": "201804150000", "PHENOM": "BZ", "GTYPE": "C", "SIG": "W", "ETN": 3, "STATUS": "EXP", "NWS_UGC": "SDZ068", "AREA_KM2": 1502.986328125, "UPDATED": "201804150250", "HV_NWSLI": null, "HV_SEV": null, "HV_CAUSE": null, "HV_REC": null, "EMERGENC": false, "POLY_BEG": null, "POLY_END": null, "WINDTAG": null, "HAILTAG": null, "TORNTAG": null, "DAMAGTAG": null, "PROD_ID": "201804122045-KFSD-WWUS43-WSWFSD", "FCSTER": null }, "geometry": { "type": "Polygon", "coordinates": [ [ [ -98.15, 42.85 ], [ -98.14, 42.86 ], [ -98.13, 42.87 ], [ -98.12, 42.87 ], [ -98.12, 42.88 ], [ -98.11, 42.88 ], [ -98.11, 42.89 ], [ -98.11, 42.9 ], [ -98.12, 42.9 ], [ -98.12, 42.91 ], [ -98.11, 42.91 ], [ -98.11, 42.92 ], [ -98.11, 42.93 ], [ -98.11, 42.94 ], [ -98.11, 42.95 ], [ -98.1, 42.95 ], [ -98.1, 42.96 ], [ -98.1, 42.97 ], [ -98.09, 42.97 ], [ -98.1, 42.98 ], [ -98.1, 42.99 ], [ -98.11, 42.99 ], [ -98.11, 43.0 ], [ -98.11, 43.01 ], [ -98.11, 43.02 ], [ -98.11, 43.03 ], [ -98.1, 43.03 ], [ -98.1, 43.04 ], [ -98.1, 43.05 ], [ -98.1, 43.06 ], [ -98.11, 43.06 ], [ -98.11, 43.07 ], [ -98.11, 43.08 ], [ -98.11, 43.09 ], [ -98.11, 43.1 ], [ -98.1, 43.11 ], [ -98.1, 43.12 ], [ -98.09, 43.12 ], [ -98.09, 43.13 ], [ -98.09, 43.14 ], [ -98.09, 43.15 ], [ -98.08, 43.17 ], [ -98.02, 43.17 ], [ -97.96, 43.17 ], [ -97.93, 43.17 ], [ -97.82, 43.17 ], [ -97.76, 43.17 ], [ -97.72, 43.17 ], [ -97.69, 43.17 ], [ -97.67, 43.17 ], [ -97.66, 43.17 ], [ -97.64, 43.17 ], [ -97.64, 43.15 ], [ -97.64, 43.11 ], [ -97.64, 43.1 ], [ -97.64, 43.06 ], [ -97.64, 43.04 ], [ -97.64, 43.02 ], [ -97.64, 43.01 ], [ -97.64, 43.0 ], [ -97.64, 42.93 ], [ -97.64, 42.9 ], [ -97.63, 42.89 ], [ -97.64, 42.87 ], [ -97.64, 42.85 ], [ -97.65, 42.85 ], [ -97.66, 42.84 ], [ -97.67, 42.84 ], [ -97.69, 42.84 ], [ -97.7, 42.84 ], [ -97.72, 42.85 ], [ -97.75, 42.85 ], [ -97.76, 42.85 ], [ -97.77, 42.85 ], [ -97.78, 42.85 ], [ -97.79, 42.85 ], [ -97.8, 42.86 ], [ -97.81, 42.86 ], [ -97.82, 42.86 ], [ -97.83, 42.87 ], [ -97.84, 42.87 ], [ -97.85, 42.87 ], [ -97.86, 42.87 ], [ -97.87, 42.86 ], [ -97.88, 42.86 ], [ -97.88, 42.85 ], [ -97.88, 42.84 ], [ -97.88, 42.83 ], [ -97.89, 42.83 ], [ -97.89, 42.82 ], [ -97.89, 42.81 ], [ -97.9, 42.81 ], [ -97.9, 42.8 ], [ -97.91, 42.79 ], [ -97.92, 42.79 ], [ -97.93, 42.78 ], [ -97.94, 42.78 ], [ -97.94, 42.77 ], [ -97.95, 42.77 ], [ -97.96, 42.77 ], [ -97.97, 42.77 ], [ -97.98, 42.77 ], [ -97.99, 42.77 ], [ -98.0, 42.76 ], [ -98.01, 42.76 ], [ -98.02, 42.76 ], [ -98.03, 42.76 ], [ -98.04, 42.77 ], [ -98.05, 42.77 ], [ -98.06, 42.77 ], [ -98.06, 42.78 ], [ -98.07, 42.79 ], [ -98.08, 42.79 ], [ -98.09, 42.8 ], [ -98.1, 42.8 ], [ -98.1, 42.81 ], [ -98.11, 42.81 ], [ -98.12, 42.82 ], [ -98.13, 42.82 ], [ -98.14, 42.83 ], [ -98.15, 42.84 ], [ -98.15, 42.85 ] ] ] } },
{ "type": "Feature", "properties": { "WFO": "MPX", "ISSUED": "201804140000", "EXPIRED": "201804160500", "INIT_ISS": "201804130859", "INIT_EXP": "201804150600", "PHENOM": "WS", "GTYPE": "C", "SIG": "W", "ETN": 8, "STATUS": "EXP", "NWS_UGC": "MNZ053", "AREA_KM2": 1143.2257080078125, "UPDATED": "201804160457", "HV_NWSLI": null, "HV_SEV": null, "HV_CAUSE": null, "HV_REC": null, "EMERGENC": false, "POLY_BEG": null, "POLY_END": null, "WINDTAG": null, "HAILTAG": null, "TORNTAG": null, "DAMAGTAG": null, "PROD_ID": "201804130859-KMPX-WWUS43-WSWMPX", "FCSTER": null }, "geometry": { "type": "Polygon", "coordinates": [ [ [ -93.06, 45.73 ], [ -93.05, 45.73 ], [ -93.04, 45.73 ], [ -93.0, 45.73 ], [ -92.98, 45.73 ], [ -92.93, 45.73 ], [ -92.91, 45.73 ], [ -92.85, 45.73 ], [ -92.85, 45.72 ], [ -92.86, 45.72 ], [ -92.87, 45.72 ], [ -92.87, 45.71 ], [ -92.87, 45.7 ], [ -92.87, 45.69 ], [ -92.88, 45.69 ], [ -92.88, 45.68 ], [ -92.88, 45.67 ], [ -92.88, 45.66 ], [ -92.88, 45.65 ], [ -92.89, 45.65 ], [ -92.89, 45.64 ], [ -92.89, 45.63 ], [ -92.89, 45.62 ], [ -92.88, 45.61 ], [ -92.89, 45.6 ], [ -92.89, 45.59 ], [ -92.88, 45.59 ], [ -92.88, 45.58 ], [ -92.88, 45.57 ], [ -92.87, 45.57 ], [ -92.86, 45.57 ], [ -92.85, 45.57 ], [ -92.84, 45.57 ], [ -92.83, 45.56 ], [ -92.82, 45.56 ], [ -92.81, 45.56 ], [ -92.8, 45.56 ], [ -92.79, 45.57 ], [ -92.78, 45.57 ], [ -92.77, 45.57 ], [ -92.77, 45.56 ], [ -92.76, 45.56 ], [ -92.75, 45.55 ], [ -92.74, 45.55 ], [ -92.73, 45.54 ], [ -92.73, 45.53 ], [ -92.73, 45.52 ], [ -92.72, 45.51 ], [ -92.71, 45.5 ], [ -92.7, 45.49 ], [ -92.7, 45.48 ], [ -92.69, 45.48 ], [ -92.69, 45.47 ], [ -92.68, 45.47 ], [ -92.68, 45.46 ], [ -92.67, 45.46 ], [ -92.66, 45.46 ], [ -92.65, 45.46 ], [ -92.65, 45.45 ], [ -92.65, 45.44 ], [ -92.65, 45.43 ], [ -92.65, 45.42 ], [ -92.65, 45.41 ], [ -92.65, 45.4 ], [ -92.66, 45.4 ], [ -92.66, 45.39 ], [ -92.67, 45.39 ], [ -92.68, 45.38 ], [ -92.68, 45.37 ], [ -92.69, 45.37 ], [ -92.7, 45.36 ], [ -92.7, 45.35 ], [ -92.7, 45.34 ], [ -92.7, 45.33 ], [ -92.71, 45.33 ], [ -92.71, 45.32 ], [ -92.72, 45.31 ], [ -92.73, 45.31 ], [ -92.73, 45.3 ], [ -92.74, 45.3 ], [ -92.75, 45.3 ], [ -92.77, 45.3 ], [ -92.8, 45.3 ], [ -92.82, 45.3 ], [ -92.86, 45.3 ], [ -92.87, 45.3 ], [ -92.88, 45.3 ], [ -92.93, 45.3 ], [ -92.96, 45.3 ], [ -93.02, 45.3 ], [ -93.02, 45.33 ], [ -93.02, 45.34 ], [ -93.02, 45.38 ], [ -93.02, 45.39 ], [ -93.02, 45.41 ], [ -93.02, 45.44 ], [ -93.02, 45.45 ], [ -93.02, 45.47 ], [ -93.02, 45.49 ], [ -93.02, 45.5 ], [ -93.02, 45.56 ], [ -93.04, 45.56 ], [ -93.07, 45.56 ], [ -93.11, 45.56 ], [ -93.13, 45.56 ], [ -93.14, 45.56 ], [ -93.14, 45.57 ], [ -93.14, 45.58 ], [ -93.14, 45.59 ], [ -93.14, 45.61 ], [ -93.14, 45.62 ], [ -93.14, 45.7 ], [ -93.14, 45.72 ], [ -93.14, 45.73 ], [ -93.12, 45.73 ], [ -93.06, 45.73 ] ] ] } },
{ "type": "Feature", "properties": { "WFO": "FSD", "ISSUED": "201804140000", "EXPIRED": "201804150300", "INIT_ISS": "201804122045", "INIT_EXP": "201804150000", "PHENOM": "BZ", "GTYPE": "C", "SIG": "W", "ETN": 3, "STATUS": "EXP", "NWS_UGC": "SDZ054", "AREA_KM2": 1478.5631103515625, "UPDATED": "201804150250", "HV_NWSLI": null, "HV_SEV": null, "HV_CAUSE": null, "HV_REC": null, "EMERGENC": false, "POLY_BEG": null, "POLY_END": null, "WINDTAG": null, "HAILTAG": null, "TORNTAG": null, "DAMAGTAG": null, "PROD_ID": "201804122045-KFSD-WWUS43-WSWFSD", "FCSTER": null }, "geometry": { "type": "Polygon", "coordinates": [ [ [ -97.37, 44.2 ], [ -97.37, 44.19 ], [ -97.37, 44.15 ], [ -97.37, 44.14 ], [ -97.37, 44.0 ], [ -97.37, 43.98 ], [ -97.37, 43.94 ], [ -97.37, 43.89 ], [ -97.37, 43.88 ], [ -97.37, 43.85 ], [ -97.43, 43.85 ], [ -97.5, 43.85 ], [ -97.53, 43.85 ], [ -97.61, 43.85 ], [ -97.64, 43.85 ], [ -97.66, 43.85 ], [ -97.74, 43.85 ], [ -97.79, 43.85 ], [ -97.83, 43.85 ], [ -97.85, 43.85 ], [ -97.85, 43.87 ], [ -97.85, 43.88 ], [ -97.85, 43.89 ], [ -97.85, 43.94 ], [ -97.85, 43.95 ], [ -97.85, 43.97 ], [ -97.85, 44.05 ], [ -97.85, 44.08 ], [ -97.85, 44.1 ], [ -97.85, 44.12 ], [ -97.85, 44.13 ], [ -97.85, 44.15 ], [ -97.85, 44.17 ], [ -97.85, 44.2 ], [ -97.83, 44.2 ], [ -97.81, 44.2 ], [ -97.77, 44.2 ], [ -97.69, 44.19 ], [ -97.67, 44.19 ], [ -97.65, 44.19 ], [ -97.64, 44.19 ], [ -97.58, 44.2 ], [ -97.53, 44.19 ], [ -97.45, 44.2 ], [ -97.42, 44.19 ], [ -97.37, 44.2 ] ] ] } },
{ "type": "Feature", "properties": { "WFO": "FSD", "ISSUED": "201804140000", "EXPIRED": "201804150300", "INIT_ISS": "201804122045", "INIT_EXP": "201804150000", "PHENOM": "BZ", "GTYPE": "C", "SIG": "W", "ETN": 3, "STATUS": "EXP", "NWS_UGC": "SDZ061", "AREA_KM2": 1491.802490234375, "UPDATED": "201804150250", "HV_NWSLI": null, "HV_SEV": null, "HV_CAUSE": null, "HV_REC": null, "EMERGENC": false, "POLY_BEG": null, "POLY_END": null, "WINDTAG": null, "HAILTAG": null, "TORNTAG": null, "DAMAGTAG": null, "PROD_ID": "201804122045-KFSD-WWUS43-WSWFSD", "FCSTER": null }, "geometry": { "type": "Polygon", "coordinates": [ [ [ -97.37, 43.85 ], [ -97.28, 43.85 ], [ -97.19, 43.85 ], [ -97.13, 43.85 ], [ -97.13, 43.8 ], [ -97.13, 43.75 ], [ -97.13, 43.73 ], [ -97.13, 43.71 ], [ -97.13, 43.61 ], [ -97.13, 43.59 ], [ -97.13, 43.56 ], [ -97.13, 43.53 ], [ -97.13, 43.51 ], [ -97.13, 43.5 ], [ -97.14, 43.5 ], [ -97.33, 43.5 ], [ -97.37, 43.5 ], [ -97.38, 43.5 ], [ -97.39, 43.5 ], [ -97.4, 43.5 ], [ -97.61, 43.5 ], [ -97.61, 43.52 ], [ -97.61, 43.54 ], [ -97.61, 43.6 ], [ -97.61, 43.66 ], [ -97.61, 43.67 ], [ -97.61, 43.71 ], [ -97.61, 43.72 ], [ -97.61, 43.74 ], [ -97.61, 43.75 ], [ -97.61, 43.76 ], [ -97.61, 43.8 ], [ -97.61, 43.83 ], [ -97.61, 43.85 ], [ -97.53, 43.85 ], [ -97.5, 43.85 ], [ -97.43, 43.85 ], [ -97.37, 43.85 ] ] ] } },
{ "type": "Feature", "properties": { "WFO": "MPX", "ISSUED": "201804140000", "EXPIRED": "201804160500", "INIT_ISS": "201804130859", "INIT_EXP": "201804150600", "PHENOM": "WS", "GTYPE": "C", "SIG": "W", "ETN": 8, "STATUS": "EXP", "NWS_UGC": "MNZ052", "AREA_KM2": 1167.6832275390625, "UPDATED": "201804160457", "HV_NWSLI": null, "HV_SEV": null, "HV_CAUSE": null, "HV_REC": null, "EMERGENC": false, "POLY_BEG": null, "POLY_END": null, "WINDTAG": null, "HAILTAG": null, "TORNTAG": null, "DAMAGTAG": null, "PROD_ID": "201804130859-KMPX-WWUS43-WSWMPX", "FCSTER": null }, "geometry": { "type": "Polygon", "coordinates": [ [ [ -93.39, 45.73 ], [ -93.37, 45.73 ], [ -93.33, 45.73 ], [ -93.3, 45.73 ], [ -93.25, 45.73 ], [ -93.23, 45.73 ], [ -93.2, 45.73 ], [ -93.18, 45.73 ], [ -93.14, 45.73 ], [ -93.14, 45.72 ], [ -93.14, 45.7 ], [ -93.14, 45.62 ], [ -93.14, 45.61 ], [ -93.14, 45.59 ], [ -93.14, 45.58 ], [ -93.14, 45.57 ], [ -93.14, 45.56 ], [ -93.13, 45.56 ], [ -93.11, 45.56 ], [ -93.07, 45.56 ], [ -93.04, 45.56 ], [ -93.02, 45.56 ], [ -93.02, 45.5 ], [ -93.02, 45.49 ], [ -93.02, 45.47 ], [ -93.02, 45.45 ], [ -93.02, 45.44 ], [ -93.02, 45.41 ], [ -93.03, 45.41 ], [ -93.05, 45.41 ], [ -93.07, 45.41 ], [ -93.08, 45.41 ], [ -93.09, 45.41 ], [ -93.13, 45.41 ], [ -93.14, 45.41 ], [ -93.16, 45.41 ], [ -93.23, 45.41 ], [ -93.25, 45.41 ], [ -93.27, 45.41 ], [ -93.3, 45.41 ], [ -93.36, 45.41 ], [ -93.43, 45.41 ], [ -93.45, 45.41 ], [ -93.47, 45.41 ], [ -93.49, 45.41 ], [ -93.51, 45.42 ], [ -93.51, 45.43 ], [ -93.51, 45.44 ], [ -93.51, 45.47 ], [ -93.51, 45.55 ], [ -93.51, 45.56 ], [ -93.51, 45.63 ], [ -93.51, 45.68 ], [ -93.51, 45.69 ], [ -93.51, 45.71 ], [ -93.51, 45.72 ], [ -93.51, 45.74 ], [ -93.5, 45.73 ], [ -93.47, 45.73 ], [ -93.39, 45.73 ] ] ] } },
{ "type": "Feature", "properties": { "WFO": "MPX", "ISSUED": "201804140000", "EXPIRED": "201804141737", "INIT_ISS": "201804130234", "INIT_EXP": "201804150600", "PHENOM": "WS", "GTYPE": "C", "SIG": "W", "ETN": 8, "STATUS": "UPG", "NWS_UGC": "MNZ059", "AREA_KM2": 1846.21337890625, "UPDATED": "201804141737", "HV_NWSLI": null, "HV_SEV": null, "HV_CAUSE": null, "HV_REC": null, "EMERGENC": false, "POLY_BEG": null, "POLY_END": null, "WINDTAG": null, "HAILTAG": null, "TORNTAG": null, "DAMAGTAG": null, "PROD_ID": "201804130234-KMPX-WWUS43-WSWMPX", "FCSTER": "Borghoff" }, "geometry": { "type": "Polygon", "coordinates": [ [ [ -94.09, 45.35 ], [ -94.09, 45.36 ], [ -94.08, 45.36 ], [ -94.08, 45.37 ], [ -94.09, 45.37 ], [ -94.08, 45.38 ], [ -94.08, 45.39 ], [ -94.07, 45.39 ], [ -94.07, 45.4 ], [ -94.07, 45.41 ], [ -94.06, 45.41 ], [ -94.06, 45.42 ], [ -94.05, 45.42 ], [ -94.04, 45.42 ], [ -94.04, 45.41 ], [ -94.03, 45.41 ], [ -94.02, 45.4 ], [ -94.01, 45.4 ], [ -94.01, 45.39 ], [ -94.0, 45.39 ], [ -94.0, 45.4 ], [ -93.99, 45.4 ], [ -93.98, 45.4 ], [ -93.98, 45.39 ], [ -93.97, 45.39 ], [ -93.96, 45.38 ], [ -93.95, 45.38 ], [ -93.94, 45.38 ], [ -93.93, 45.38 ], [ -93.93, 45.39 ], [ -93.92, 45.38 ], [ -93.91, 45.38 ], [ -93.91, 45.37 ], [ -93.9, 45.37 ], [ -93.89, 45.36 ], [ -93.88, 45.35 ], [ -93.87, 45.34 ], [ -93.85, 45.34 ], [ -93.84, 45.34 ], [ -93.83, 45.33 ], [ -93.82, 45.32 ], [ -93.81, 45.32 ], [ -93.81, 45.31 ], [ -93.8, 45.31 ], [ -93.79, 45.31 ], [ -93.78, 45.31 ], [ -93.78, 45.3 ], [ -93.77, 45.3 ], [ -93.76, 45.3 ], [ -93.76, 45.29 ], [ -93.75, 45.3 ], [ -93.74, 45.3 ], [ -93.73, 45.3 ], [ -93.72, 45.3 ], [ -93.7, 45.3 ], [ -93.69, 45.3 ], [ -93.68, 45.3 ], [ -93.67, 45.3 ], [ -93.66, 45.3 ], [ -93.65, 45.3 ], [ -93.64, 45.3 ], [ -93.63, 45.3 ], [ -93.62, 45.29 ], [ -93.61, 45.29 ], [ -93.6, 45.29 ], [ -93.59, 45.29 ], [ -93.58, 45.29 ], [ -93.57, 45.29 ], [ -93.57, 45.3 ], [ -93.56, 45.3 ], [ -93.56, 45.29 ], [ -93.56, 45.28 ], [ -93.55, 45.28 ], [ -93.55, 45.27 ], [ -93.55, 45.26 ], [ -93.54, 45.26 ], [ -93.53, 45.25 ], [ -93.52, 45.25 ], [ -93.52, 45.24 ], [ -93.52, 45.23 ], [ -93.53, 45.23 ], [ -93.54, 45.23 ], [ -93.55, 45.23 ], [ -93.56, 45.23 ], [ -93.56, 45.22 ], [ -93.57, 45.22 ], [ -93.58, 45.22 ], [ -93.59, 45.21 ], [ -93.6, 45.21 ], [ -93.61, 45.21 ], [ -93.62, 45.21 ], [ -93.62, 45.2 ], [ -93.63, 45.2 ], [ -93.63, 45.21 ], [ -93.64, 45.21 ], [ -93.64, 45.2 ], [ -93.65, 45.2 ], [ -93.66, 45.2 ], [ -93.66, 45.19 ], [ -93.65, 45.19 ], [ -93.65, 45.18 ], [ -93.64, 45.18 ], [ -93.64, 45.17 ], [ -93.64, 45.16 ], [ -93.65, 45.16 ], [ -93.66, 45.16 ], [ -93.66, 45.15 ], [ -93.67, 45.15 ], [ -93.68, 45.15 ], [ -93.69, 45.14 ], [ -93.7, 45.14 ], [ -93.7, 45.13 ], [ -93.71, 45.13 ], [ -93.71, 45.12 ], [ -93.72, 45.12 ], [ -93.72, 45.11 ], [ -93.73, 45.1 ], [ -93.73, 45.09 ], [ -93.74, 45.08 ], [ -93.75, 45.08 ], [ -93.76, 45.08 ], [ -93.76, 45.07 ], [ -93.77, 45.07 ], [ -93.77, 45.06 ], [ -93.77, 45.05 ], [ -93.77, 45.01 ], [ -93.77, 45.0 ], [ -93.77, 44.99 ], [ -93.77, 44.98 ], [ -93.78, 44.98 ], [ -93.86, 44.98 ], [ -93.88, 44.98 ], [ -93.89, 44.98 ], [ -93.98, 44.98 ], [ -94.01, 44.98 ], [ -94.14, 44.98 ], [ -94.17, 44.98 ], [ -94.26, 44.98 ], [ -94.26, 44.99 ], [ -94.26, 45.03 ], [ -94.26, 45.08 ], [ -94.26, 45.12 ], [ -94.26, 45.2 ], [ -94.26, 45.23 ], [ -94.26, 45.24 ], [ -94.26, 45.25 ], [ -94.26, 45.26 ], [ -94.26, 45.27 ], [ -94.26, 45.28 ], [ -94.26, 45.3 ], [ -94.26, 45.31 ], [ -94.25, 45.31 ], [ -94.24, 45.31 ], [ -94.23, 45.31 ], [ -94.22, 45.31 ], [ -94.22, 45.32 ], [ -94.21, 45.32 ], [ -94.2, 45.32 ], [ -94.19, 45.32 ], [ -94.18, 45.31 ], [ -94.18, 45.3 ], [ -94.17, 45.3 ], [ -94.16, 45.3 ], [ -94.14, 45.32 ], [ -94.12, 45.33 ], [ -94.11, 45.33 ], [ -94.11, 45.34 ], [ -94.1, 45.34 ], [ -94.09, 45.34 ], [ -94.09, 45.35 ] ] ] } },
{ "type": "Feature", "properties": { "WFO": "MPX", "ISSUED": "201804140000", "EXPIRED": "201804141737", "INIT_ISS": "201804130234", "INIT_EXP": "201804150600", "PHENOM": "WS", "GTYPE": "C", "SIG": "W", "ETN": 8, "STATUS": "UPG", "NWS_UGC": "MNZ061", "AREA_KM2": 1152.9273681640625, "UPDATED": "201804141737", "HV_NWSLI": null, "HV_SEV": null, "HV_CAUSE": null, "HV_REC": null, "EMERGENC": false, "POLY_BEG": null, "POLY_END": null, "WINDTAG": null, "HAILTAG": null, "TORNTAG": null, "DAMAGTAG": null, "PROD_ID": "201804130234-KMPX-WWUS43-WSWMPX", "FCSTER": "Borghoff" }, "geometry": { "type": "Polygon", "coordinates": [ [ [ -93.47, 45.41 ], [ -93.45, 45.41 ], [ -93.43, 45.41 ], [ -93.36, 45.41 ], [ -93.3, 45.41 ], [ -93.27, 45.41 ], [ -93.25, 45.41 ], [ -93.23, 45.41 ], [ -93.16, 45.41 ], [ -93.14, 45.41 ], [ -93.13, 45.41 ], [ -93.09, 45.41 ], [ -93.08, 45.41 ], [ -93.07, 45.41 ], [ -93.05, 45.41 ], [ -93.03, 45.41 ], [ -93.02, 45.41 ], [ -93.02, 45.39 ], [ -93.02, 45.38 ], [ -93.02, 45.34 ], [ -93.02, 45.33 ], [ -93.02, 45.3 ], [ -93.02, 45.27 ], [ -93.02, 45.23 ], [ -93.02, 45.15 ], [ -93.02, 45.12 ], [ -93.04, 45.12 ], [ -93.05, 45.12 ], [ -93.11, 45.12 ], [ -93.13, 45.12 ], [ -93.14, 45.12 ], [ -93.15, 45.12 ], [ -93.2, 45.12 ], [ -93.23, 45.12 ], [ -93.23, 45.11 ], [ -93.23, 45.1 ], [ -93.23, 45.09 ], [ -93.23, 45.07 ], [ -93.23, 45.06 ], [ -93.23, 45.04 ], [ -93.24, 45.04 ], [ -93.28, 45.04 ], [ -93.28, 45.05 ], [ -93.29, 45.06 ], [ -93.28, 45.07 ], [ -93.28, 45.08 ], [ -93.28, 45.09 ], [ -93.28, 45.1 ], [ -93.28, 45.11 ], [ -93.29, 45.11 ], [ -93.29, 45.12 ], [ -93.3, 45.12 ], [ -93.3, 45.13 ], [ -93.31, 45.14 ], [ -93.32, 45.15 ], [ -93.33, 45.15 ], [ -93.35, 45.16 ], [ -93.36, 45.18 ], [ -93.37, 45.18 ], [ -93.38, 45.18 ], [ -93.39, 45.19 ], [ -93.4, 45.19 ], [ -93.41, 45.2 ], [ -93.42, 45.2 ], [ -93.42, 45.21 ], [ -93.43, 45.21 ], [ -93.43, 45.22 ], [ -93.44, 45.22 ], [ -93.45, 45.22 ], [ -93.46, 45.22 ], [ -93.47, 45.23 ], [ -93.48, 45.23 ], [ -93.49, 45.23 ], [ -93.5, 45.23 ], [ -93.5, 45.24 ], [ -93.51, 45.25 ], [ -93.51, 45.33 ], [ -93.51, 45.34 ], [ -93.51, 45.35 ], [ -93.51, 45.36 ], [ -93.51, 45.39 ], [ -93.51, 45.41 ], [ -93.51, 45.42 ], [ -93.49, 45.41 ], [ -93.47, 45.41 ] ] ] } },
{ "type": "Feature", "properties": { "WFO": "MPX", "ISSUED": "201804140300", "EXPIRED": "201804141604", "INIT_ISS": "201804130234", "INIT_EXP": "201804150600", "PHENOM": "WS", "GTYPE": "C", "SIG": "W", "ETN": 8, "STATUS": "UPG", "NWS_UGC": "MNZ069", "AREA_KM2": 952.00262451171875, "UPDATED": "201804141604", "HV_NWSLI": null, "HV_SEV": null, "HV_CAUSE": null, "HV_REC": null, "EMERGENC": false, "POLY_BEG": null, "POLY_END": null, "WINDTAG": null, "HAILTAG": null, "TORNTAG": null, "DAMAGTAG": null, "PROD_ID": "201804130234-KMPX-WWUS43-WSWMPX", "FCSTER": "Borghoff" }, "geometry": { "type": "MultiPolygon", "coordinates": [ [ [ [ -93.9, 44.54 ], [ -93.89, 44.55 ], [ -93.9, 44.55 ], [ -93.9, 44.56 ], [ -93.89, 44.56 ], [ -93.89, 44.57 ], [ -93.9, 44.57 ], [ -93.89, 44.58 ], [ -93.89, 44.59 ], [ -93.89, 44.6 ], [ -93.88, 44.6 ], [ -93.88, 44.61 ], [ -93.87, 44.6 ], [ -93.86, 44.6 ], [ -93.86, 44.61 ], [ -93.86, 44.62 ], [ -93.85, 44.62 ], [ -93.84, 44.63 ], [ -93.84, 44.62 ], [ -93.82, 44.63 ], [ -93.81, 44.63 ], [ -93.8, 44.63 ], [ -93.79, 44.63 ], [ -93.78, 44.63 ], [ -93.78, 44.64 ], [ -93.77, 44.64 ], [ -93.76, 44.64 ], [ -93.75, 44.64 ], [ -93.75, 44.65 ], [ -93.74, 44.65 ], [ -93.73, 44.65 ], [ -93.73, 44.66 ], [ -93.72, 44.65 ], [ -93.72, 44.66 ], [ -93.71, 44.67 ], [ -93.7, 44.67 ], [ -93.69, 44.68 ], [ -93.68, 44.68 ], [ -93.68, 44.69 ], [ -93.67, 44.69 ], [ -93.67, 44.7 ], [ -93.66, 44.7 ], [ -93.66, 44.69 ], [ -93.65, 44.69 ], [ -93.64, 44.69 ], [ -93.64, 44.7 ], [ -93.63, 44.7 ], [ -93.62, 44.71 ], [ -93.63, 44.71 ], [ -93.63, 44.72 ], [ -93.63, 44.73 ], [ -93.63, 44.74 ], [ -93.62, 44.74 ], [ -93.62, 44.75 ], [ -93.61, 44.75 ], [ -93.61, 44.76 ], [ -93.62, 44.76 ], [ -93.61, 44.77 ], [ -93.6, 44.77 ], [ -93.59, 44.78 ], [ -93.58, 44.78 ], [ -93.58, 44.79 ], [ -93.57, 44.8 ], [ -93.56, 44.8 ], [ -93.55, 44.8 ], [ -93.54, 44.8 ], [ -93.52, 44.8 ], [ -93.51, 44.8 ], [ -93.5, 44.8 ], [ -93.5, 44.81 ], [ -93.49, 44.8 ], [ -93.48, 44.81 ], [ -93.48, 44.8 ], [ -93.47, 44.8 ], [ -93.46, 44.81 ], [ -93.46, 44.8 ], [ -93.45, 44.8 ], [ -93.44, 44.81 ], [ -93.43, 44.81 ], [ -93.42, 44.81 ], [ -93.41, 44.81 ], [ -93.41, 44.8 ], [ -93.4, 44.8 ], [ -93.39, 44.8 ], [ -93.38, 44.8 ], [ -93.38, 44.79 ], [ -93.36, 44.79 ], [ -93.35, 44.79 ], [ -93.34, 44.79 ], [ -93.33, 44.79 ], [ -93.33, 44.78 ], [ -93.33, 44.77 ], [ -93.33, 44.73 ], [ -93.33, 44.72 ], [ -93.32, 44.72 ], [ -93.32, 44.7 ], [ -93.32, 44.69 ], [ -93.32, 44.68 ], [ -93.32, 44.65 ], [ -93.32, 44.63 ], [ -93.28, 44.63 ], [ -93.28, 44.57 ], [ -93.28, 44.56 ], [ -93.28, 44.54 ], [ -93.36, 44.54 ], [ -93.41, 44.54 ], [ -93.46, 44.54 ], [ -93.5, 44.54 ], [ -93.52, 44.54 ], [ -93.57, 44.54 ], [ -93.58, 44.54 ], [ -93.63, 44.54 ], [ -93.67, 44.54 ], [ -93.73, 44.54 ], [ -93.76, 44.54 ], [ -93.78, 44.54 ], [ -93.79, 44.54 ], [ -93.88, 44.54 ], [ -93.89, 44.54 ], [ -93.9, 44.54 ] ], [ [ -93.77, 44.64 ], [ -93.77, 44.63 ], [ -93.76, 44.63 ], [ -93.77, 44.64 ] ] ], [ [ [ -93.9, 44.54 ], [ -93.91, 44.54 ], [ -93.91, 44.55 ], [ -93.9, 44.55 ], [ -93.9, 44.54 ] ] ] ] } },
{ "type": "Feature", "properties": { "WFO": "MPX", "ISSUED": "201804140300", "EXPIRED": "201804141737", "INIT_ISS": "201804130234", "INIT_EXP": "201804150600", "PHENOM": "WS", "GTYPE": "C", "SIG": "W", "ETN": 8, "STATUS": "UPG", "NWS_UGC": "MNZ062", "AREA_KM2": 439.62399291992188, "UPDATED": "201804141737", "HV_NWSLI": null, "HV_SEV": null, "HV_CAUSE": null, "HV_REC": null, "EMERGENC": false, "POLY_BEG": null, "POLY_END": null, "WINDTAG": null, "HAILTAG": null, "TORNTAG": null, "DAMAGTAG": null, "PROD_ID": "201804130234-KMPX-WWUS43-WSWMPX", "FCSTER": "Borghoff" }, "geometry": { "type": "Polygon", "coordinates": [ [ [ -93.2, 45.12 ], [ -93.15, 45.12 ], [ -93.14, 45.12 ], [ -93.13, 45.12 ], [ -93.11, 45.12 ], [ -93.05, 45.12 ], [ -93.04, 45.12 ], [ -93.02, 45.12 ], [ -92.99, 45.12 ], [ -92.98, 45.12 ], [ -92.98, 45.09 ], [ -92.98, 45.03 ], [ -92.98, 45.0 ], [ -92.98, 44.96 ], [ -92.98, 44.95 ], [ -92.98, 44.93 ], [ -92.98, 44.92 ], [ -92.98, 44.9 ], [ -92.98, 44.89 ], [ -92.99, 44.89 ], [ -93.02, 44.89 ], [ -93.03, 44.9 ], [ -93.04, 44.9 ], [ -93.04, 44.91 ], [ -93.05, 44.92 ], [ -93.09, 44.92 ], [ -93.1, 44.92 ], [ -93.13, 44.92 ], [ -93.13, 44.91 ], [ -93.14, 44.91 ], [ -93.14, 44.9 ], [ -93.15, 44.9 ], [ -93.15, 44.89 ], [ -93.16, 44.89 ], [ -93.17, 44.89 ], [ -93.18, 44.89 ], [ -93.19, 44.89 ], [ -93.19, 44.9 ], [ -93.19, 44.91 ], [ -93.2, 44.91 ], [ -93.2, 44.92 ], [ -93.2, 44.93 ], [ -93.2, 44.94 ], [ -93.2, 44.95 ], [ -93.21, 44.95 ], [ -93.21, 44.96 ], [ -93.21, 45.01 ], [ -93.21, 45.02 ], [ -93.21, 45.03 ], [ -93.21, 45.04 ], [ -93.22, 45.04 ], [ -93.23, 45.04 ], [ -93.23, 45.06 ], [ -93.23, 45.07 ], [ -93.23, 45.09 ], [ -93.23, 45.1 ], [ -93.23, 45.11 ], [ -93.23, 45.12 ], [ -93.2, 45.12 ] ] ] } },
{ "type": "Feature", "properties": { "WFO": "MPX", "ISSUED": "201804140300", "EXPIRED": "201804141737", "INIT_ISS": "201804130234", "INIT_EXP": "201804150600", "PHENOM": "WS", "GTYPE": "C", "SIG": "W", "ETN": 8, "STATUS": "UPG", "NWS_UGC": "MNZ070", "AREA_KM2": 1515.3702392578125, "UPDATED": "201804141737", "HV_NWSLI": null, "HV_SEV": null, "HV_CAUSE": null, "HV_REC": null, "EMERGENC": false, "POLY_BEG": null, "POLY_END": null, "WINDTAG": null, "HAILTAG": null, "TORNTAG": null, "DAMAGTAG": null, "PROD_ID": "201804130234-KMPX-WWUS43-WSWMPX", "FCSTER": "Borghoff" }, "geometry": { "type": "Polygon", "coordinates": [ [ [ -93.09, 44.92 ], [ -93.05, 44.92 ], [ -93.04, 44.91 ], [ -93.04, 44.9 ], [ -93.03, 44.9 ], [ -93.02, 44.89 ], [ -93.02, 44.88 ], [ -93.01, 44.87 ], [ -93.01, 44.86 ], [ -93.01, 44.85 ], [ -93.01, 44.84 ], [ -93.01, 44.83 ], [ -93.01, 44.82 ], [ -93.0, 44.82 ], [ -93.01, 44.81 ], [ -93.02, 44.8 ], [ -93.02, 44.79 ], [ -93.02, 44.78 ], [ -93.01, 44.77 ], [ -93.0, 44.77 ], [ -92.99, 44.77 ], [ -92.99, 44.78 ], [ -92.98, 44.77 ], [ -92.97, 44.77 ], [ -92.96, 44.77 ], [ -92.95, 44.77 ], [ -92.94, 44.77 ], [ -92.94, 44.78 ], [ -92.93, 44.78 ], [ -92.92, 44.78 ], [ -92.91, 44.77 ], [ -92.9, 44.77 ], [ -92.89, 44.77 ], [ -92.88, 44.78 ], [ -92.88, 44.77 ], [ -92.87, 44.76 ], [ -92.86, 44.76 ], [ -92.86, 44.75 ], [ -92.85, 44.75 ], [ -92.84, 44.75 ], [ -92.83, 44.75 ], [ -92.82, 44.75 ], [ -92.81, 44.75 ], [ -92.8, 44.75 ], [ -92.8, 44.74 ], [ -92.79, 44.74 ], [ -92.78, 44.74 ], [ -92.78, 44.73 ], [ -92.77, 44.73 ], [ -92.76, 44.73 ], [ -92.76, 44.72 ], [ -92.75, 44.72 ], [ -92.74, 44.72 ], [ -92.73, 44.71 ], [ -92.73, 44.65 ], [ -92.73, 44.63 ], [ -92.78, 44.63 ], [ -92.79, 44.63 ], [ -92.79, 44.6 ], [ -92.79, 44.57 ], [ -92.79, 44.55 ], [ -92.79, 44.54 ], [ -92.8, 44.54 ], [ -92.83, 44.54 ], [ -92.91, 44.54 ], [ -92.92, 44.54 ], [ -92.92, 44.52 ], [ -92.93, 44.51 ], [ -92.94, 44.51 ], [ -92.95, 44.51 ], [ -92.96, 44.51 ], [ -92.96, 44.52 ], [ -92.97, 44.52 ], [ -92.98, 44.51 ], [ -92.98, 44.52 ], [ -92.99, 44.52 ], [ -93.0, 44.52 ], [ -93.01, 44.52 ], [ -93.02, 44.52 ], [ -93.03, 44.52 ], [ -93.03, 44.51 ], [ -93.04, 44.51 ], [ -93.04, 44.5 ], [ -93.04, 44.49 ], [ -93.04, 44.47 ], [ -93.05, 44.47 ], [ -93.08, 44.47 ], [ -93.1, 44.47 ], [ -93.13, 44.47 ], [ -93.16, 44.47 ], [ -93.19, 44.47 ], [ -93.22, 44.47 ], [ -93.24, 44.47 ], [ -93.25, 44.47 ], [ -93.26, 44.47 ], [ -93.28, 44.47 ], [ -93.28, 44.49 ], [ -93.28, 44.54 ], [ -93.28, 44.56 ], [ -93.28, 44.57 ], [ -93.28, 44.63 ], [ -93.32, 44.63 ], [ -93.32, 44.65 ], [ -93.32, 44.68 ], [ -93.32, 44.69 ], [ -93.32, 44.7 ], [ -93.32, 44.72 ], [ -93.33, 44.72 ], [ -93.33, 44.73 ], [ -93.33, 44.77 ], [ -93.33, 44.78 ], [ -93.33, 44.79 ], [ -93.32, 44.79 ], [ -93.31, 44.79 ], [ -93.3, 44.8 ], [ -93.29, 44.8 ], [ -93.28, 44.81 ], [ -93.27, 44.81 ], [ -93.25, 44.81 ], [ -93.24, 44.82 ], [ -93.23, 44.82 ], [ -93.23, 44.83 ], [ -93.22, 44.83 ], [ -93.22, 44.84 ], [ -93.21, 44.84 ], [ -93.21, 44.85 ], [ -93.2, 44.85 ], [ -93.2, 44.86 ], [ -93.2, 44.87 ], [ -93.19, 44.87 ], [ -93.19, 44.88 ], [ -93.18, 44.88 ], [ -93.18, 44.89 ], [ -93.17, 44.89 ], [ -93.16, 44.89 ], [ -93.15, 44.89 ], [ -93.15, 44.9 ], [ -93.14, 44.9 ], [ -93.14, 44.91 ], [ -93.13, 44.91 ], [ -93.13, 44.92 ], [ -93.1, 44.92 ], [ -93.09, 44.92 ] ] ] } },
{ "type": "Feature", "properties": { "WFO": "MPX", "ISSUED": "201804140300", "EXPIRED": "201804140843", "INIT_ISS": "201804130234", "INIT_EXP": "201804150600", "PHENOM": "WS", "GTYPE": "C", "SIG": "W", "ETN": 8, "STATUS": "UPG", "NWS_UGC": "MNZ066", "AREA_KM2": 1306.6568603515625, "UPDATED": "201804140843", "HV_NWSLI": null, "HV_SEV": null, "HV_CAUSE": null, "HV_REC": null, "EMERGENC": false, "POLY_BEG": null, "POLY_END": null, "WINDTAG": null, "HAILTAG": null, "TORNTAG": null, "DAMAGTAG": null, "PROD_ID": "201804130234-KMPX-WWUS43-WSWMPX", "FCSTER": "Borghoff" }, "geometry": { "type": "Polygon", "coordinates": [ [ [ -94.26, 44.98 ], [ -94.17, 44.98 ], [ -94.14, 44.98 ], [ -94.01, 44.98 ], [ -94.01, 44.95 ], [ -94.01, 44.94 ], [ -94.01, 44.91 ], [ -94.01, 44.9 ], [ -94.01, 44.89 ], [ -94.01, 44.88 ], [ -94.01, 44.86 ], [ -94.01, 44.78 ], [ -94.01, 44.74 ], [ -94.01, 44.72 ], [ -94.12, 44.72 ], [ -94.23, 44.72 ], [ -94.25, 44.72 ], [ -94.25, 44.7 ], [ -94.25, 44.65 ], [ -94.25, 44.64 ], [ -94.25, 44.63 ], [ -94.26, 44.63 ], [ -94.33, 44.63 ], [ -94.39, 44.63 ], [ -94.42, 44.63 ], [ -94.46, 44.63 ], [ -94.5, 44.63 ], [ -94.5, 44.72 ], [ -94.5, 44.76 ], [ -94.5, 44.8 ], [ -94.5, 44.83 ], [ -94.5, 44.87 ], [ -94.5, 44.89 ], [ -94.5, 44.9 ], [ -94.5, 44.94 ], [ -94.5, 44.97 ], [ -94.5, 44.98 ], [ -94.45, 44.98 ], [ -94.41, 44.98 ], [ -94.4, 44.98 ], [ -94.37, 44.98 ], [ -94.3, 44.98 ], [ -94.26, 44.98 ] ] ] } },
{ "type": "Feature", "properties": { "WFO": "MPX", "ISSUED": "201804140300", "EXPIRED": "201804140843", "INIT_ISS": "201804130234", "INIT_EXP": "201804150600", "PHENOM": "WS", "GTYPE": "C", "SIG": "W", "ETN": 8, "STATUS": "UPG", "NWS_UGC": "MNZ067", "AREA_KM2": 1552.0018310546875, "UPDATED": "201804140843", "HV_NWSLI": null, "HV_SEV": null, "HV_CAUSE": null, "HV_REC": null, "EMERGENC": false, "POLY_BEG": null, "POLY_END": null, "WINDTAG": null, "HAILTAG": null, "TORNTAG": null, "DAMAGTAG": null, "PROD_ID": "201804130234-KMPX-WWUS43-WSWMPX", "FCSTER": "Borghoff" }, "geometry": { "type": "MultiPolygon", "coordinates": [ [ [ [ -94.01, 44.72 ], [ -93.96, 44.72 ], [ -93.89, 44.72 ], [ -93.89, 44.69 ], [ -93.89, 44.67 ], [ -93.87, 44.67 ], [ -93.84, 44.67 ], [ -93.83, 44.67 ], [ -93.77, 44.67 ], [ -93.77, 44.64 ], [ -93.78, 44.64 ], [ -93.78, 44.63 ], [ -93.79, 44.63 ], [ -93.8, 44.63 ], [ -93.81, 44.63 ], [ -93.82, 44.63 ], [ -93.84, 44.62 ], [ -93.84, 44.63 ], [ -93.85, 44.62 ], [ -93.86, 44.62 ], [ -93.86, 44.61 ], [ -93.86, 44.6 ], [ -93.87, 44.6 ], [ -93.88, 44.61 ], [ -93.88, 44.6 ], [ -93.89, 44.6 ], [ -93.89, 44.59 ], [ -93.89, 44.58 ], [ -93.9, 44.57 ], [ -93.89, 44.57 ], [ -93.89, 44.56 ], [ -93.9, 44.56 ], [ -93.9, 44.55 ], [ -93.91, 44.55 ], [ -93.91, 44.54 ], [ -93.9, 44.54 ], [ -93.9, 44.53 ], [ -93.89, 44.53 ], [ -93.89, 44.52 ], [ -93.89, 44.51 ], [ -93.89, 44.5 ], [ -93.89, 44.49 ], [ -93.9, 44.49 ], [ -93.9, 44.48 ], [ -93.91, 44.47 ], [ -93.92, 44.47 ], [ -93.92, 44.46 ], [ -93.93, 44.46 ], [ -93.94, 44.46 ], [ -93.96, 44.46 ], [ -94.02, 44.46 ], [ -94.12, 44.46 ], [ -94.15, 44.46 ], [ -94.17, 44.46 ], [ -94.18, 44.46 ], [ -94.2, 44.46 ], [ -94.21, 44.46 ], [ -94.23, 44.46 ], [ -94.29, 44.46 ], [ -94.34, 44.46 ], [ -94.37, 44.46 ], [ -94.45, 44.46 ], [ -94.5, 44.46 ], [ -94.52, 44.46 ], [ -94.57, 44.46 ], [ -94.62, 44.46 ], [ -94.62, 44.47 ], [ -94.62, 44.5 ], [ -94.62, 44.53 ], [ -94.62, 44.54 ], [ -94.63, 44.54 ], [ -94.63, 44.63 ], [ -94.63, 44.67 ], [ -94.63, 44.72 ], [ -94.6, 44.72 ], [ -94.5, 44.72 ], [ -94.5, 44.63 ], [ -94.46, 44.63 ], [ -94.42, 44.63 ], [ -94.39, 44.63 ], [ -94.33, 44.63 ], [ -94.26, 44.63 ], [ -94.25, 44.63 ], [ -94.25, 44.64 ], [ -94.25, 44.65 ], [ -94.25, 44.7 ], [ -94.25, 44.72 ], [ -94.23, 44.72 ], [ -94.12, 44.72 ], [ -94.01, 44.72 ] ] ], [ [ [ -93.9, 44.54 ], [ -93.9, 44.55 ], [ -93.89, 44.55 ], [ -93.9, 44.54 ] ] ], [ [ [ -93.77, 44.64 ], [ -93.76, 44.63 ], [ -93.77, 44.63 ], [ -93.77, 44.64 ] ] ] ] } },
{ "type": "Feature", "properties": { "WFO": "MPX", "ISSUED": "201804140300", "EXPIRED": "201804141604", "INIT_ISS": "201804130234", "INIT_EXP": "201804150600", "PHENOM": "WS", "GTYPE": "C", "SIG": "W", "ETN": 8, "STATUS": "UPG", "NWS_UGC": "MNZ068", "AREA_KM2": 972.08282470703125, "UPDATED": "201804141604", "HV_NWSLI": null, "HV_SEV": null, "HV_CAUSE": null, "HV_REC": null, "EMERGENC": false, "POLY_BEG": null, "POLY_END": null, "WINDTAG": null, "HAILTAG": null, "TORNTAG": null, "DAMAGTAG": null, "PROD_ID": "201804130234-KMPX-WWUS43-WSWMPX", "FCSTER": "Borghoff" }, "geometry": { "type": "Polygon", "coordinates": [ [ [ -93.77, 44.98 ], [ -93.77, 44.93 ], [ -93.77, 44.91 ], [ -93.77, 44.89 ], [ -93.75, 44.89 ], [ -93.71, 44.89 ], [ -93.68, 44.89 ], [ -93.65, 44.89 ], [ -93.61, 44.89 ], [ -93.6, 44.89 ], [ -93.56, 44.89 ], [ -93.52, 44.89 ], [ -93.52, 44.86 ], [ -93.52, 44.85 ], [ -93.52, 44.82 ], [ -93.52, 44.8 ], [ -93.54, 44.8 ], [ -93.55, 44.8 ], [ -93.56, 44.8 ], [ -93.57, 44.8 ], [ -93.58, 44.79 ], [ -93.58, 44.78 ], [ -93.59, 44.78 ], [ -93.6, 44.77 ], [ -93.61, 44.77 ], [ -93.62, 44.76 ], [ -93.61, 44.76 ], [ -93.61, 44.75 ], [ -93.62, 44.75 ], [ -93.62, 44.74 ], [ -93.63, 44.74 ], [ -93.63, 44.73 ], [ -93.63, 44.72 ], [ -93.63, 44.71 ], [ -93.62, 44.71 ], [ -93.63, 44.7 ], [ -93.64, 44.7 ], [ -93.64, 44.69 ], [ -93.65, 44.69 ], [ -93.66, 44.69 ], [ -93.66, 44.7 ], [ -93.67, 44.7 ], [ -93.67, 44.69 ], [ -93.68, 44.69 ], [ -93.68, 44.68 ], [ -93.69, 44.68 ], [ -93.7, 44.67 ], [ -93.71, 44.67 ], [ -93.72, 44.66 ], [ -93.72, 44.65 ], [ -93.73, 44.66 ], [ -93.73, 44.65 ], [ -93.74, 44.65 ], [ -93.75, 44.65 ], [ -93.75, 44.64 ], [ -93.76, 44.64 ], [ -93.77, 44.64 ], [ -93.77, 44.67 ], [ -93.83, 44.67 ], [ -93.84, 44.67 ], [ -93.87, 44.67 ], [ -93.89, 44.67 ], [ -93.89, 44.69 ], [ -93.89, 44.72 ], [ -93.96, 44.72 ], [ -94.01, 44.72 ], [ -94.01, 44.74 ], [ -94.01, 44.78 ], [ -94.01, 44.86 ], [ -94.01, 44.88 ], [ -94.01, 44.89 ], [ -94.01, 44.9 ], [ -94.01, 44.91 ], [ -94.01, 44.94 ], [ -94.01, 44.95 ], [ -94.01, 44.98 ], [ -93.98, 44.98 ], [ -93.89, 44.98 ], [ -93.88, 44.98 ], [ -93.86, 44.98 ], [ -93.78, 44.98 ], [ -93.77, 44.98 ] ] ] } },
{ "type": "Feature", "properties": { "WFO": "MPX", "ISSUED": "201804140300", "EXPIRED": "201804140843", "INIT_ISS": "201804130234", "INIT_EXP": "201804150600", "PHENOM": "WS", "GTYPE": "C", "SIG": "W", "ETN": 8, "STATUS": "UPG", "NWS_UGC": "MNZ075", "AREA_KM2": 1207.33642578125, "UPDATED": "201804140843", "HV_NWSLI": null, "HV_SEV": null, "HV_CAUSE": null, "HV_REC": null, "EMERGENC": false, "POLY_BEG": null, "POLY_END": null, "WINDTAG": null, "HAILTAG": null, "TORNTAG": null, "DAMAGTAG": null, "PROD_ID": "201804130234-KMPX-WWUS43-WSWMPX", "FCSTER": "Borghoff" }, "geometry": { "type": "MultiPolygon", "coordinates": [ [ [ [ -94.78, 44.45 ], [ -94.78, 44.46 ], [ -94.76, 44.46 ], [ -94.71, 44.46 ], [ -94.64, 44.46 ], [ -94.62, 44.46 ], [ -94.57, 44.46 ], [ -94.52, 44.46 ], [ -94.5, 44.46 ], [ -94.45, 44.46 ], [ -94.37, 44.46 ], [ -94.34, 44.46 ], [ -94.29, 44.46 ], [ -94.23, 44.46 ], [ -94.21, 44.46 ], [ -94.2, 44.46 ], [ -94.18, 44.46 ], [ -94.17, 44.46 ], [ -94.15, 44.46 ], [ -94.12, 44.46 ], [ -94.02, 44.46 ], [ -93.96, 44.46 ], [ -93.94, 44.46 ], [ -93.93, 44.46 ], [ -93.93, 44.45 ], [ -93.93, 44.44 ], [ -93.93, 44.43 ], [ -93.94, 44.42 ], [ -93.94, 44.41 ], [ -93.95, 44.41 ], [ -93.95, 44.4 ], [ -93.95, 44.39 ], [ -93.95, 44.38 ], [ -93.96, 44.38 ], [ -93.96, 44.37 ], [ -93.96, 44.36 ], [ -93.95, 44.36 ], [ -93.94, 44.36 ], [ -93.94, 44.35 ], [ -93.93, 44.34 ], [ -93.94, 44.34 ], [ -93.95, 44.34 ], [ -93.94, 44.33 ], [ -93.95, 44.33 ], [ -93.95, 44.32 ], [ -93.96, 44.31 ], [ -93.97, 44.31 ], [ -93.97, 44.3 ], [ -93.98, 44.3 ], [ -93.99, 44.3 ], [ -93.99, 44.29 ], [ -94.0, 44.29 ], [ -94.0, 44.28 ], [ -94.01, 44.28 ], [ -94.01, 44.27 ], [ -94.02, 44.26 ], [ -94.01, 44.25 ], [ -94.02, 44.25 ], [ -94.02, 44.24 ], [ -94.02, 44.23 ], [ -94.01, 44.23 ], [ -94.01, 44.22 ], [ -94.02, 44.22 ], [ -94.03, 44.22 ], [ -94.03, 44.21 ], [ -94.02, 44.21 ], [ -94.01, 44.2 ], [ -94.01, 44.19 ], [ -94.02, 44.19 ], [ -94.02, 44.18 ], [ -94.01, 44.18 ], [ -94.0, 44.18 ], [ -94.0, 44.17 ], [ -94.01, 44.17 ], [ -94.02, 44.17 ], [ -94.03, 44.17 ], [ -94.04, 44.16 ], [ -94.05, 44.15 ], [ -94.06, 44.15 ], [ -94.06, 44.16 ], [ -94.07, 44.16 ], [ -94.08, 44.16 ], [ -94.09, 44.16 ], [ -94.09, 44.17 ], [ -94.1, 44.17 ], [ -94.11, 44.17 ], [ -94.11, 44.18 ], [ -94.12, 44.18 ], [ -94.13, 44.18 ], [ -94.13, 44.19 ], [ -94.14, 44.19 ], [ -94.15, 44.19 ], [ -94.16, 44.19 ], [ -94.17, 44.19 ], [ -94.17, 44.2 ], [ -94.18, 44.2 ], [ -94.19, 44.2 ], [ -94.2, 44.2 ], [ -94.21, 44.2 ], [ -94.22, 44.21 ], [ -94.23, 44.21 ], [ -94.24, 44.21 ], [ -94.25, 44.21 ], [ -94.25, 44.22 ], [ -94.26, 44.22 ], [ -94.27, 44.22 ], [ -94.27, 44.23 ], [ -94.28, 44.23 ], [ -94.29, 44.24 ], [ -94.3, 44.24 ], [ -94.31, 44.24 ], [ -94.32, 44.25 ], [ -94.33, 44.25 ], [ -94.33, 44.26 ], [ -94.34, 44.26 ], [ -94.35, 44.26 ], [ -94.36, 44.26 ], [ -94.37, 44.26 ], [ -94.38, 44.27 ], [ -94.39, 44.27 ], [ -94.4, 44.27 ], [ -94.41, 44.27 ], [ -94.41, 44.28 ], [ -94.41, 44.29 ], [ -94.42, 44.29 ], [ -94.43, 44.29 ], [ -94.43, 44.3 ], [ -94.44, 44.3 ], [ -94.44, 44.31 ], [ -94.45, 44.32 ], [ -94.45, 44.33 ], [ -94.46, 44.33 ], [ -94.47, 44.34 ], [ -94.48, 44.35 ], [ -94.49, 44.35 ], [ -94.49, 44.36 ], [ -94.5, 44.36 ], [ -94.51, 44.36 ], [ -94.52, 44.36 ], [ -94.52, 44.37 ], [ -94.53, 44.37 ], [ -94.54, 44.37 ], [ -94.54, 44.36 ], [ -94.55, 44.37 ], [ -94.56, 44.38 ], [ -94.57, 44.38 ], [ -94.58, 44.37 ], [ -94.58, 44.38 ], [ -94.59, 44.37 ], [ -94.59, 44.38 ], [ -94.6, 44.38 ], [ -94.6, 44.39 ], [ -94.61, 44.38 ], [ -94.61, 44.39 ], [ -94.62, 44.39 ], [ -94.62, 44.38 ], [ -94.63, 44.38 ], [ -94.63, 44.39 ], [ -94.64, 44.39 ], [ -94.64, 44.4 ], [ -94.65, 44.4 ], [ -94.66, 44.39 ], [ -94.66, 44.4 ], [ -94.67, 44.39 ], [ -94.67, 44.4 ], [ -94.67, 44.41 ], [ -94.68, 44.41 ], [ -94.69, 44.41 ], [ -94.69, 44.42 ], [ -94.7, 44.42 ], [ -94.69, 44.43 ], [ -94.7, 44.43 ], [ -94.71, 44.43 ], [ -94.72, 44.43 ], [ -94.73, 44.44 ], [ -94.74, 44.44 ], [ -94.74, 44.45 ], [ -94.75, 44.45 ], [ -94.76, 44.45 ], [ -94.76, 44.44 ], [ -94.77, 44.44 ], [ -94.77, 44.45 ], [ -94.78, 44.45 ] ], [ [ -94.22, 44.21 ], [ -94.22, 44.22 ], [ -94.23, 44.22 ], [ -94.22, 44.21 ] ] ], [ [ [ -94.69, 44.41 ], [ -94.7, 44.41 ], [ -94.7, 44.42 ], [ -94.69, 44.41 ] ] ] ] } },
{ "type": "Feature", "properties": { "WFO": "MPX", "ISSUED": "201804140300", "EXPIRED": "201804141737", "INIT_ISS": "201804130234", "INIT_EXP": "201804150600", "PHENOM": "WS", "GTYPE": "C", "SIG": "W", "ETN": 8, "STATUS": "UPG", "NWS_UGC": "MNZ060", "AREA_KM2": 1567.1907958984375, "UPDATED": "201804141737", "HV_NWSLI": null, "HV_SEV": null, "HV_CAUSE": null, "HV_REC": null, "EMERGENC": false, "POLY_BEG": null, "POLY_END": null, "WINDTAG": null, "HAILTAG": null, "TORNTAG": null, "DAMAGTAG": null, "PROD_ID": "201804130234-KMPX-WWUS43-WSWMPX", "FCSTER": "Borghoff" }, "geometry": { "type": "Polygon", "coordinates": [ [ [ -93.63, 45.21 ], [ -93.63, 45.2 ], [ -93.62, 45.2 ], [ -93.62, 45.21 ], [ -93.61, 45.21 ], [ -93.6, 45.21 ], [ -93.59, 45.21 ], [ -93.58, 45.22 ], [ -93.57, 45.22 ], [ -93.56, 45.22 ], [ -93.56, 45.23 ], [ -93.55, 45.23 ], [ -93.54, 45.23 ], [ -93.53, 45.23 ], [ -93.52, 45.23 ], [ -93.52, 45.24 ], [ -93.52, 45.25 ], [ -93.51, 45.25 ], [ -93.5, 45.24 ], [ -93.5, 45.23 ], [ -93.49, 45.23 ], [ -93.48, 45.23 ], [ -93.47, 45.23 ], [ -93.46, 45.22 ], [ -93.45, 45.22 ], [ -93.44, 45.22 ], [ -93.43, 45.22 ], [ -93.43, 45.21 ], [ -93.42, 45.21 ], [ -93.42, 45.2 ], [ -93.41, 45.2 ], [ -93.4, 45.19 ], [ -93.39, 45.19 ], [ -93.38, 45.18 ], [ -93.37, 45.18 ], [ -93.36, 45.18 ], [ -93.35, 45.16 ], [ -93.33, 45.15 ], [ -93.32, 45.15 ], [ -93.31, 45.14 ], [ -93.3, 45.13 ], [ -93.3, 45.12 ], [ -93.29, 45.12 ], [ -93.29, 45.11 ], [ -93.28, 45.11 ], [ -93.28, 45.1 ], [ -93.28, 45.09 ], [ -93.28, 45.08 ], [ -93.28, 45.07 ], [ -93.29, 45.06 ], [ -93.28, 45.05 ], [ -93.28, 45.04 ], [ -93.24, 45.04 ], [ -93.23, 45.04 ], [ -93.22, 45.04 ], [ -93.21, 45.04 ], [ -93.21, 45.03 ], [ -93.21, 45.02 ], [ -93.21, 45.01 ], [ -93.21, 44.96 ], [ -93.21, 44.95 ], [ -93.2, 44.95 ], [ -93.2, 44.94 ], [ -93.2, 44.93 ], [ -93.2, 44.92 ], [ -93.2, 44.91 ], [ -93.19, 44.91 ], [ -93.19, 44.9 ], [ -93.19, 44.89 ], [ -93.18, 44.89 ], [ -93.18, 44.88 ], [ -93.19, 44.88 ], [ -93.19, 44.87 ], [ -93.2, 44.87 ], [ -93.2, 44.86 ], [ -93.2, 44.85 ], [ -93.21, 44.85 ], [ -93.21, 44.84 ], [ -93.22, 44.84 ], [ -93.22, 44.83 ], [ -93.23, 44.83 ], [ -93.23, 44.82 ], [ -93.24, 44.82 ], [ -93.25, 44.81 ], [ -93.27, 44.81 ], [ -93.28, 44.81 ], [ -93.29, 44.8 ], [ -93.3, 44.8 ], [ -93.31, 44.79 ], [ -93.32, 44.79 ], [ -93.33, 44.79 ], [ -93.34, 44.79 ], [ -93.35, 44.79 ], [ -93.36, 44.79 ], [ -93.38, 44.79 ], [ -93.38, 44.8 ], [ -93.39, 44.8 ], [ -93.4, 44.8 ], [ -93.41, 44.8 ], [ -93.41, 44.81 ], [ -93.42, 44.81 ], [ -93.43, 44.81 ], [ -93.44, 44.81 ], [ -93.45, 44.8 ], [ -93.46, 44.8 ], [ -93.46, 44.81 ], [ -93.47, 44.8 ], [ -93.48, 44.8 ], [ -93.48, 44.81 ], [ -93.49, 44.8 ], [ -93.5, 44.81 ], [ -93.5, 44.8 ], [ -93.51, 44.8 ], [ -93.52, 44.8 ], [ -93.52, 44.82 ], [ -93.52, 44.85 ], [ -93.52, 44.86 ], [ -93.52, 44.89 ], [ -93.56, 44.89 ], [ -93.6, 44.89 ], [ -93.61, 44.89 ], [ -93.65, 44.89 ], [ -93.68, 44.89 ], [ -93.71, 44.89 ], [ -93.75, 44.89 ], [ -93.77, 44.89 ], [ -93.77, 44.91 ], [ -93.77, 44.93 ], [ -93.77, 44.98 ], [ -93.77, 44.99 ], [ -93.77, 45.0 ], [ -93.77, 45.01 ], [ -93.77, 45.05 ], [ -93.77, 45.06 ], [ -93.77, 45.07 ], [ -93.76, 45.07 ], [ -93.76, 45.08 ], [ -93.75, 45.08 ], [ -93.74, 45.08 ], [ -93.73, 45.09 ], [ -93.73, 45.1 ], [ -93.72, 45.11 ], [ -93.72, 45.12 ], [ -93.71, 45.12 ], [ -93.71, 45.13 ], [ -93.7, 45.13 ], [ -93.7, 45.14 ], [ -93.69, 45.14 ], [ -93.68, 45.15 ], [ -93.67, 45.15 ], [ -93.66, 45.15 ], [ -93.66, 45.16 ], [ -93.65, 45.16 ], [ -93.64, 45.16 ], [ -93.64, 45.17 ], [ -93.64, 45.18 ], [ -93.65, 45.18 ], [ -93.65, 45.19 ], [ -93.66, 45.19 ], [ -93.66, 45.2 ], [ -93.65, 45.2 ], [ -93.64, 45.2 ], [ -93.64, 45.21 ], [ -93.63, 45.21 ] ] ] } },
{ "type": "Feature", "properties": { "WFO": "MPX", "ISSUED": "201804140300", "EXPIRED": "201804141737", "INIT_ISS": "201804130234", "INIT_EXP": "201804150600", "PHENOM": "WS", "GTYPE": "C", "SIG": "W", "ETN": 8, "STATUS": "UPG", "NWS_UGC": "MNZ063", "AREA_KM2": 1093.4844970703125, "UPDATED": "201804141737", "HV_NWSLI": null, "HV_SEV": null, "HV_CAUSE": null, "HV_REC": null, "EMERGENC": false, "POLY_BEG": null, "POLY_END": null, "WINDTAG": null, "HAILTAG": null, "TORNTAG": null, "DAMAGTAG": null, "PROD_ID": "201804130234-KMPX-WWUS43-WSWMPX", "FCSTER": "Borghoff" }, "geometry": { "type": "Polygon", "coordinates": [ [ [ -93.02, 45.3 ], [ -92.96, 45.3 ], [ -92.93, 45.3 ], [ -92.88, 45.3 ], [ -92.87, 45.3 ], [ -92.86, 45.3 ], [ -92.82, 45.3 ], [ -92.8, 45.3 ], [ -92.77, 45.3 ], [ -92.75, 45.3 ], [ -92.75, 45.29 ], [ -92.76, 45.29 ], [ -92.76, 45.28 ], [ -92.76, 45.27 ], [ -92.75, 45.27 ], [ -92.75, 45.26 ], [ -92.76, 45.25 ], [ -92.76, 45.24 ], [ -92.76, 45.23 ], [ -92.75, 45.22 ], [ -92.75, 45.21 ], [ -92.76, 45.21 ], [ -92.76, 45.2 ], [ -92.77, 45.2 ], [ -92.77, 45.19 ], [ -92.76, 45.18 ], [ -92.75, 45.17 ], [ -92.76, 45.17 ], [ -92.76, 45.16 ], [ -92.76, 45.15 ], [ -92.75, 45.15 ], [ -92.75, 45.14 ], [ -92.75, 45.13 ], [ -92.75, 45.12 ], [ -92.74, 45.12 ], [ -92.74, 45.11 ], [ -92.75, 45.11 ], [ -92.75, 45.1 ], [ -92.76, 45.1 ], [ -92.77, 45.1 ], [ -92.77, 45.09 ], [ -92.78, 45.08 ], [ -92.79, 45.08 ], [ -92.8, 45.07 ], [ -92.8, 45.06 ], [ -92.8, 45.05 ], [ -92.79, 45.05 ], [ -92.79, 45.04 ], [ -92.78, 45.04 ], [ -92.77, 45.03 ], [ -92.76, 45.03 ], [ -92.76, 45.02 ], [ -92.77, 45.01 ], [ -92.77, 45.0 ], [ -92.77, 44.99 ], [ -92.77, 44.98 ], [ -92.77, 44.97 ], [ -92.76, 44.97 ], [ -92.76, 44.96 ], [ -92.75, 44.96 ], [ -92.75, 44.95 ], [ -92.75, 44.94 ], [ -92.75, 44.93 ], [ -92.76, 44.92 ], [ -92.76, 44.91 ], [ -92.77, 44.9 ], [ -92.77, 44.89 ], [ -92.77, 44.88 ], [ -92.76, 44.88 ], [ -92.76, 44.87 ], [ -92.77, 44.87 ], [ -92.77, 44.86 ], [ -92.77, 44.85 ], [ -92.77, 44.84 ], [ -92.77, 44.83 ], [ -92.77, 44.82 ], [ -92.78, 44.82 ], [ -92.78, 44.81 ], [ -92.78, 44.8 ], [ -92.78, 44.79 ], [ -92.79, 44.79 ], [ -92.8, 44.78 ], [ -92.8, 44.77 ], [ -92.81, 44.77 ], [ -92.81, 44.76 ], [ -92.81, 44.75 ], [ -92.82, 44.75 ], [ -92.83, 44.75 ], [ -92.84, 44.75 ], [ -92.85, 44.75 ], [ -92.86, 44.75 ], [ -92.86, 44.76 ], [ -92.87, 44.76 ], [ -92.88, 44.77 ], [ -92.88, 44.78 ], [ -92.89, 44.77 ], [ -92.9, 44.77 ], [ -92.91, 44.77 ], [ -92.92, 44.78 ], [ -92.93, 44.78 ], [ -92.94, 44.78 ], [ -92.94, 44.77 ], [ -92.95, 44.77 ], [ -92.96, 44.77 ], [ -92.97, 44.77 ], [ -92.98, 44.77 ], [ -92.99, 44.78 ], [ -92.99, 44.77 ], [ -93.0, 44.77 ], [ -93.01, 44.77 ], [ -93.02, 44.78 ], [ -93.02, 44.79 ], [ -93.02, 44.8 ], [ -93.01, 44.81 ], [ -93.0, 44.82 ], [ -93.01, 44.82 ], [ -93.01, 44.83 ], [ -93.01, 44.84 ], [ -93.01, 44.85 ], [ -93.01, 44.86 ], [ -93.01, 44.87 ], [ -93.02, 44.88 ], [ -93.02, 44.89 ], [ -92.99, 44.89 ], [ -92.98, 44.89 ], [ -92.98, 44.9 ], [ -92.98, 44.92 ], [ -92.98, 44.93 ], [ -92.98, 44.95 ], [ -92.98, 44.96 ], [ -92.98, 45.0 ], [ -92.98, 45.03 ], [ -92.98, 45.09 ], [ -92.98, 45.12 ], [ -92.99, 45.12 ], [ -93.02, 45.12 ], [ -93.02, 45.15 ], [ -93.02, 45.23 ], [ -93.02, 45.27 ], [ -93.02, 45.3 ] ] ] } }
]
}
