{
"type": "FeatureCollection",
"name": "alerts_20180414_0100Z",
"crs": { "type": "name", "properties": { "name": "urn:ogc:def:crs:OGC:1.3:CRS84" } },
"features": [
{ "type": "Feature", "properties": { "WFO": "DMX", "ISSUED": "201804140059", "EXPIRED": "201804140135", "INIT_ISS": "201804140059", "INIT_EXP": "201804140145", "PHENOM": "SV", "GTYPE": "P", "SIG": "W", "ETN": 12, "STATUS": "NEW", "NWS_UGC": null, "AREA_KM2": 1600.0949641515188, "UPDATED": "201804140059", "HV_NWSLI": null, "HV_SEV": null, "HV_CAUSE": null, "HV_REC": null, "EMERGENC": false, "POLY_BEG": "201804140059", "POLY_END": "201804140113", "WINDTAG": 60.0, "HAILTAG": 1.0, "TORNTAG": null, "DAMAGTAG": null, "PROD_ID": "201804140059-KDMX-WUUS53-SVRDMX", "FCSTER": "Cogil" }, "geometry": { "type": "Polygon", "coordinates": [ [ [ -94.84, 40.57 ], [ -94.47, 41.16 ], [ -94.19, 41.16 ], [ -94.54, 40.57 ], [ -94.84, 40.57 ] ] ] } },
{ "type": "Feature", "properties": { "WFO": "ARX", "ISSUED": "201804140100", "EXPIRED": "201804140118", "INIT_ISS": "201804140100", "INIT_EXP": "201804140130", "PHENOM": "SV", "GTYPE": "P", "SIG": "W", "ETN": 4, "STATUS": "NEW", "NWS_UGC": null, "AREA_KM2": 772.25468223874589, "UPDATED": "201804140100", "HV_NWSLI": null, "HV_SEV": null, "HV_CAUSE": null, "HV_REC": null, "EMERGENC": false, "POLY_BEG": "201804140100", "POLY_END": "201804140108", "WINDTAG": 50.0, "HAILTAG": 1.0, "TORNTAG": null, "DAMAGTAG": null, "PROD_ID": "201804140100-KARX-WUUS53-SVRARX", "FCSTER": "Lawrence" }, "geometry": { "type": "Polygon", "coordinates": [ [ [ -92.72, 43.34 ], [ -92.55, 43.28 ], [ -92.55, 43.21 ], [ -92.58, 43.17 ], [ -92.77, 42.94 ], [ -92.97, 43.02 ], [ -92.72, 43.34 ] ] ] } },
{ "type": "Feature", "properties": { "WFO": "DMX", "ISSUED": "201804140049", "EXPIRED": "201804140130", "INIT_ISS": "201804140049", "INIT_EXP": "201804140130", "PHENOM": "SV", "GTYPE": "P", "SIG": "W", "ETN": 10, "STATUS": "NEW", "NWS_UGC": null, "AREA_KM2": 2370.182302142452, "UPDATED": "201804140049", "HV_NWSLI": null, "HV_SEV": null, "HV_CAUSE": null, "HV_REC": null, "EMERGENC": false, "POLY_BEG": "201804140049", "POLY_END": "201804140110", "WINDTAG": 60.0, "HAILTAG": 1.0, "TORNTAG": null, "DAMAGTAG": null, "PROD_ID": "201804140049-KDMX-WUUS53-SVRDMX", "FCSTER": "Cogil" }, "geometry": { "type": "Polygon", "coordinates": [ [ [ -94.78, 41.01 ], [ -94.75, 41.16 ], [ -94.7, 41.16 ], [ -94.7, 41.36 ], [ -94.67, 41.5 ], [ -94.04, 41.5 ], [ -94.47, 40.93 ], [ -94.78, 41.01 ] ] ] } },
{ "type": "Feature", "properties": { "WFO": "DMX", "ISSUED": "201804140023", "EXPIRED": "201804140115", "INIT_ISS": "201804140023", "INIT_EXP": "201804140115", "PHENOM": "SV", "GTYPE": "P", "SIG": "W", "ETN": 9, "STATUS": "NEW", "NWS_UGC": null, "AREA_KM2": 2758.6794394137441, "UPDATED": "201804140023", "HV_NWSLI": null, "HV_SEV": null, "HV_CAUSE": null, "HV_REC": null, "EMERGENC": false, "POLY_BEG": "201804140023", "POLY_END": "201804140033", "WINDTAG": 60.0, "HAILTAG": 0.75, "TORNTAG": null, "DAMAGTAG": null, "PROD_ID": "201804140023-KDMX-WUUS53-SVRDMX", "FCSTER": "MF" }, "geometry": { "type": "Polygon", "coordinates": [ [ [ -93.7, 41.89 ], [ -93.99, 42.21 ], [ -93.93, 42.21 ], [ -93.93, 42.24 ], [ -93.47, 42.47 ], [ -93.0, 42.29 ], [ -93.0, 42.22 ], [ -93.7, 41.89 ] ] ] } },
{ "type": "Feature", "properties": { "WFO": "DMX", "ISSUED": "201804140052", "EXPIRED": "201804140131", "INIT_ISS": "201804140052", "INIT_EXP": "201804140145", "PHENOM": "SV", "GTYPE": "P", "SIG": "W", "ETN": 11, "STATUS": "NEW", "NWS_UGC": null, "AREA_KM2": 3511.079295413118, "UPDATED": "201804140052", "HV_NWSLI": null, "HV_SEV": null, "HV_CAUSE": null, "HV_REC": null, "EMERGENC": false, "POLY_BEG": "201804140052", "POLY_END": "201804140111", "WINDTAG": 60.0, "HAILTAG": 0.75, "TORNTAG": null, "DAMAGTAG": null, "PROD_ID": "201804140052-KDMX-WUUS53-SVRDMX", "FCSTER": "MF" }, "geometry": { "type": "Polygon", "coordinates": [ [ [ -93.02, 42.57 ], [ -93.03, 42.47 ], [ -93.0, 42.47 ], [ -93.0, 42.21 ], [ -93.36, 42.05 ], [ -93.49, 42.27 ], [ -93.7, 42.45 ], [ -93.74, 42.65 ], [ -93.35, 42.89 ], [ -93.02, 42.57 ] ] ] } },
{ "type": "Feature", "properties": { "WFO": "FSD", "ISSUED": "201804140000", "EXPIRED": "201804150300", "INIT_ISS": "201804122045", "INIT_EXP": "201804150000", "PHENOM": "BZ", "GTYPE": "C", "SIG": "W", "ETN": 3, "STATUS": "EXP", "NWS_UGC": "SDZ066", "AREA_KM2": 1596.4334716796875, "UPDATED": "201804150250", "HV_NWSLI": null, "HV_SEV": null, "HV_CAUSE": null, "HV_REC": null, "EMERGENC": false, "POLY_BEG": null, "POLY_END": null, "WINDTAG": null, "HAILTAG": null, "TORNTAG": null, "DAMAGTAG": null, "PROD_ID": "201804122045-KFSD-WWUS43-WSWFSD", "FCSTER": null }, "geometry": { "type": "Polygon", "coordinates": [ [ [ -96.93, 43.5 ], [ -96.92, 43.5 ], [ -96.92, 43.44 ], [ -96.92, 43.4 ], [ -96.92, 43.25 ], [ -96.92, 43.22 ], [ -96.92, 43.19 ], [ -96.92, 43.18 ], [ -96.92, 43.17 ], [ -96.92, 43.08 ], [ -96.98, 43.08 ], [ -96.99, 43.08 ], [ -97.01, 43.08 ], [ -97.11, 43.08 ], [ -97.15, 43.08 ], [ -97.16, 43.08 ], [ -97.16, 43.09 ], [ -97.16, 43.11 ], [ -97.16, 43.17 ], [ -97.27, 43.17 ], [ -97.4, 43.17 ], [ -97.4, 43.24 ], [ -97.4, 43.26 ], [ -97.4, 43.27 ], [ -97.4, 43.3 ], [ -97.4, 43.34 ], [ -97.4, 43.37 ], [ -97.4, 43.39 ], [ -97.4, 43.4 ], [ -97.4, 43.42 ], [ -97.4, 43.43 ], [ -97.4, 43.45 ], [ -97.4, 43.5 ], [ -97.39, 43.5 ], [ -97.38, 43.5 ], [ -97.37, 43.5 ], [ -97.33, 43.5 ], [ -97.14, 43.5 ], [ -97.13, 43.5 ], [ -97.12, 43.5 ], [ -97.08, 43.5 ], [ -97.02, 43.5 ], [ -96.98, 43.5 ], [ -96.97, 43.5 ], [ -96.94, 43.5 ], [ -96.93, 43.5 ] ] ] } },
{ "type": "Feature", "properties": { "WFO": "MPX", "ISSUED": "201804140000", "EXPIRED": "201804140843", "INIT_ISS": "201804130234", "INIT_EXP": "201804150600", "PHENOM": "WS", "GTYPE": "C", "SIG": "W", "ETN": 8, "STATUS": "UPG", "NWS_UGC": "MNZ058", "AREA_KM2": 1666.9088134765625, "UPDATED": "201804140843", "HV_NWSLI": null, "HV_SEV": null, "HV_CAUSE": null, "HV_REC": null, "EMERGENC": false, "POLY_BEG": null, "POLY_END": null, "WINDTAG": null, "HAILTAG": null, "TORNTAG": null, "DAMAGTAG": null, "PROD_ID": "201804130234-KMPX-WWUS43-WSWMPX", "FCSTER": "Borghoff" }, "geometry": { "type": "Polygon", "coordinates": [ [ [ -94.26, 45.28 ], [ -94.26, 45.27 ], [ -94.26, 45.26 ], [ -94.26, 45.25 ], [ -94.26, 45.24 ], [ -94.26, 45.23 ], [ -94.26, 45.2 ], [ -94.26, 45.12 ], [ -94.26, 45.08 ], [ -94.26, 45.03 ], [ -94.26, 44.99 ], [ -94.26, 44.98 ], [ -94.3, 44.98 ], [ -94.37, 44.98 ], [ -94.4, 44.98 ], [ -94.41, 44.98 ], [ -94.45, 44.98 ], [ -94.5, 44.98 ], [ -94.5, 44.97 ], [ -94.5, 44.94 ], [ -94.5, 44.9 ], [ -94.5, 44.89 ], [ -94.54, 44.89 ], [ -94.57, 44.89 ], [ -94.58, 44.89 ], [ -94.61, 44.89 ], [ -94.67, 44.89 ], [ -94.7, 44.89 ], [ -94.76, 44.89 ], [ -94.76, 44.94 ], [ -94.76, 44.96 ], [ -94.76, 45.03 ], [ -94.76, 45.05 ], [ -94.76, 45.11 ], [ -94.76, 45.13 ], [ -94.76, 45.14 ], [ -94.76, 45.19 ], [ -94.76, 45.21 ], [ -94.76, 45.23 ], [ -94.76, 45.24 ], [ -94.76, 45.25 ], [ -94.76, 45.28 ], [ -94.76, 45.3 ], [ -94.76, 45.31 ], [ -94.76, 45.33 ], [ -94.74, 45.33 ], [ -94.71, 45.33 ], [ -94.64, 45.33 ], [ -94.61, 45.33 ], [ -94.59, 45.33 ], [ -94.53, 45.33 ], [ -94.51, 45.33 ], [ -94.43, 45.33 ], [ -94.38, 45.33 ], [ -94.38, 45.32 ], [ -94.38, 45.28 ], [ -94.36, 45.28 ], [ -94.32, 45.28 ], [ -94.31, 45.28 ], [ -94.29, 45.28 ], [ -94.26, 45.28 ] ] ] } },
{ "type": "Feature", "properties": { "WFO": "FSD", "ISSUED": "201804140000", "EXPIRED": "201804150300", "INIT_ISS": "201804122045", "INIT_EXP": "201804150000", "PHENOM": "BZ", "GTYPE": "C", "SIG": "W", "ETN": 3, "STATUS": "EXP", "NWS_UGC": "SDZ039", "AREA_KM2": 2232.25, "UPDATED": "201804150250", "HV_NWSLI": null, "HV_SEV": null, "HV_CAUSE": null, "HV_REC": null, "EMERGENC": false, "POLY_BEG": null, "POLY_END": null, "WINDTAG": null, "HAILTAG": null, "TORNTAG": null, "DAMAGTAG": null, "PROD_ID": "201804122045-KFSD-WWUS43-WSWFSD", "FCSTER": null }, "geometry": { "type": "Polygon", "coordinates": [ [ [ -97.49, 44.54 ], [ -97.39, 44.54 ], [ -97.35, 44.54 ], [ -97.28, 44.54 ], [ -97.21, 44.54 ], [ -97.13, 44.54 ], [ -97.13, 44.53 ], [ -97.13, 44.46 ], [ -97.13, 44.43 ], [ -97.13, 44.38 ], [ -97.13, 44.37 ], [ -97.13, 44.36 ], [ -97.13, 44.33 ], [ -97.13, 44.32 ], [ -97.13, 44.28 ], [ -97.13, 44.26 ], [ -97.13, 44.23 ], [ -97.13, 44.21 ], [ -97.13, 44.2 ], [ -97.23, 44.2 ], [ -97.27, 44.2 ], [ -97.37, 44.2 ], [ -97.42, 44.19 ], [ -97.45, 44.2 ], [ -97.53, 44.19 ], [ -97.58, 44.2 ], [ -97.64, 44.19 ], [ -97.65, 44.19 ], [ -97.67, 44.19 ], [ -97.69, 44.19 ], [ -97.77, 44.2 ], [ -97.81, 44.2 ], [ -97.83, 44.2 ], [ -97.85, 44.2 ], [ -97.85, 44.24 ], [ -97.85, 44.25 ], [ -97.85, 44.31 ], [ -97.85, 44.36 ], [ -97.85, 44.37 ], [ -97.85, 44.4 ], [ -97.85, 44.41 ], [ -97.85, 44.46 ], [ -97.85, 44.48 ], [ -97.85, 44.5 ], [ -97.85, 44.51 ], [ -97.85, 44.54 ], [ -97.83, 44.54 ], [ -97.73, 44.54 ], [ -97.69, 44.54 ], [ -97.6, 44.54 ], [ -97.59, 44.54 ], [ -97.49, 44.54 ] ] ] } },
{ "type": "Feature", "properties": { "WFO": "FSD", "ISSUED": "201804140000", "EXPIRED": "201804150300", "INIT_ISS": "201804122045", "INIT_EXP": "201804150000", "PHENOM": "BZ", "GTYPE": "C", "SIG": "W", "ETN": 3, "STATUS": "EXP", "NWS_UGC": "SDZ069", "AREA_KM2": 1376.9483642578125, "UPDATED": "201804150250", "HV_NWSLI": null, "HV_SEV": null, "HV_CAUSE": null, "HV_REC": null, "EMERGENC": false, "POLY_BEG": null, "POLY_END": null, "WINDTAG": null, "HAILTAG": null, "TORNTAG": null, "DAMAGTAG": null, "PROD_ID": "201804122045-KFSD-WWUS43-WSWFSD", "FCSTER": null }, "geometry": { "type": "Polygon", "coordinates": [ [ [ -97.16, 43.17 ], [ -97.16, 43.11 ], [ -97.16, 43.09 ], [ -97.16, 43.08 ], [ -97.16, 43.04 ], [ -97.16, 43.01 ], [ -97.16, 43.0 ], [ -97.16, 42.95 ], [ -97.16, 42.93 ], [ -97.16, 42.92 ], [ -97.16, 42.89 ], [ -97.16, 42.88 ], [ -97.16, 42.84 ], [ -97.16, 42.83 ], [ -97.16, 42.81 ], [ -97.16, 42.8 ], [ -97.17, 42.8 ], [ -97.18, 42.8 ], [ -97.19, 42.8 ], [ -97.19, 42.81 ], [ -97.2, 42.81 ], [ -97.21, 42.81 ], [ -97.21, 42.82 ], [ -97.22, 42.83 ], [ -97.22, 42.84 ], [ -97.22, 42.85 ], [ -97.23, 42.85 ], [ -97.24, 42.85 ], [ -97.25, 42.86 ], [ -97.26, 42.85 ], [ -97.27, 42.85 ], [ -97.28, 42.85 ], [ -97.29, 42.86 ], [ -97.3, 42.86 ], [ -97.31, 42.87 ], [ -97.32, 42.86 ], [ -97.33, 42.86 ], [ -97.34, 42.86 ], [ -97.35, 42.86 ], [ -97.36, 42.86 ], [ -97.37, 42.86 ], [ -97.38, 42.86 ], [ -97.38, 42.87 ], [ -97.39, 42.86 ], [ -97.4, 42.87 ], [ -97.41, 42.87 ], [ -97.42, 42.87 ], [ -97.42, 42.86 ], [ -97.43, 42.86 ], [ -97.43, 42.85 ], [ -97.44, 42.85 ], [ -97.45, 42.85 ], [ -97.46, 42.85 ], [ -97.47, 42.85 ], [ -97.48, 42.85 ], [ -97.49, 42.85 ], [ -97.5, 42.85 ], [ -97.5, 42.86 ], [ -97.51, 42.86 ], [ -97.52, 42.85 ], [ -97.53, 42.85 ], [ -97.54, 42.85 ], [ -97.55, 42.85 ], [ -97.56, 42.85 ], [ -97.57, 42.85 ], [ -97.58, 42.85 ], [ -97.59, 42.85 ], [ -97.6, 42.86 ], [ -97.61, 42.86 ], [ -97.62, 42.86 ], [ -97.62, 42.85 ], [ -97.63, 42.85 ], [ -97.64, 42.85 ], [ -97.64, 42.87 ], [ -97.63, 42.89 ], [ -97.64, 42.9 ], [ -97.64, 42.93 ], [ -97.64, 43.0 ], [ -97.64, 43.01 ], [ -97.64, 43.02 ], [ -97.64, 43.04 ], [ -97.64, 43.06 ], [ -97.64, 43.1 ], [ -97.64, 43.11 ], [ -97.64, 43.15 ], [ -97.64, 43.17 ], [ -97.6, 43.17 ], [ -97.58, 43.17 ], [ -97.5, 43.17 ], [ -97.43, 43.17 ], [ -97.41, 43.17 ], [ -97.4, 43.17 ], [ -97.27, 43.17 ], [ -97.16, 43.17 ] ] ] } },
{ "type": "Feature", "properties": { "WFO": "FSD", "ISSUED": "201804140000", "EXPIRED": "201804150300", "INIT_ISS": "201804122045", "INIT_EXP": "201804150000", "PHENOM": "BZ", "GTYPE": "C", "SIG": "W", "ETN": 3, "STATUS": "EXP", "NWS_UGC": "SDZ055", "AREA_KM2": 1486.412109375, "UPDATED": "201804150250", "HV_NWSLI": null, "HV_SEV": null, "HV_CAUSE": null, "HV_REC": null, "EMERGENC": false, "POLY_BEG": null, "POLY_END": null, "WINDTAG": null, "HAILTAG": null, "TORNTAG": null, "DAMAGTAG": null, "PROD_ID": "201804122045-KFSD-WWUS43-WSWFSD", "FCSTER": null }, "geometry": { "type": "Polygon", "coordinates": [ [ [ -97.13, 44.2 ], [ -97.02, 44.2 ], [ -96.99, 44.2 ], [ -96.97, 44.2 ], [ -96.89, 44.2 ], [ -96.89, 44.19 ], [ -96.89, 44.18 ], [ -96.89, 44.17 ], [ -96.89, 44.16 ], [ -96.89, 44.14 ], [ -96.89, 44.08 ], [ -96.89, 44.04 ], [ -96.89, 44.02 ], [ -96.89, 43.96 ], [ -96.89, 43.91 ], [ -96.89, 43.89 ], [ -96.89, 43.87 ], [ -96.89, 43.86 ], [ -96.89, 43.85 ], [ -96.96, 43.85 ], [ -96.99, 43.85 ], [ -97.12, 43.85 ], [ -97.13, 43.85 ], [ -97.19, 43.85 ], [ -97.28, 43.85 ], [ -97.37, 43.85 ], [ -97.37, 43.88 ], [ -97.37, 43.89 ], [ -97.37, 43.94 ], [ -97.37, 43.98 ], [ -97.37, 44.0 ], [ -97.37, 44.14 ], [ -97.37, 44.15 ], [ -97.37, 44.19 ], [ -97.37, 44.2 ], [ -97.27, 44.2 ], [ -97.23, 44.2 ], [ -97.13, 44.2 ] ] ] } },
{ "type": "Feature", "properties": { "WFO": "FSD", "ISSUED": "201804140000", "EXPIRED": "201804150300", "INIT_ISS": "201804122045", "INIT_EXP": "201804150000", "PHENOM": "BZ", "GTYPE": "C", "SIG": "W", "ETN": 3, "STATUS": "EXP", "NWS_UGC": "SDZ065", "AREA_KM2": 2105.405517578125, "UPDATED": "201804150250", "HV_NWSLI": null, "HV_SEV": null, "HV_CAUSE": null, "HV_REC": null, "EMERGENC": false, "POLY_BEG": null, "POLY_END": null, "WINDTAG": null, "HAILTAG": null, "TORNTAG": null, "DAMAGTAG": null, "PROD_ID": "201804122045-KFSD-WWUS43-WSWFSD", "FCSTER": null }, "geometry": { "type": "Polygon", "coordinates": [ [ [ -97.61, 43.5 ], [ -97.4, 43.5 ], [ -97.4, 43.45 ], [ -97.4, 43.43 ], [ -97.4, 43.42 ], [ -97.4, 43.4 ], [ -97.4, 43.39 ], [ -97.4, 43.37 ], [ -97.4, 43.34 ], [ -97.4, 43.3 ], [ -97.4, 43.27 ], [ -97.4, 43.26 ], [ -97.4, 43.24 ], [ -97.4, 43.17 ], [ -97.41, 43.17 ], [ -97.43, 43.17 ], [ -97.5, 43.17 ], [ -97.58, 43.17 ], [ -97.6, 43.17 ], [ -97.64, 43.17 ], [ -97.66, 43.17 ], [ -97.67, 43.17 ], [ -97.69, 43.17 ], [ -97.72, 43.17 ], [ -97.76, 43.17 ], [ -97.82, 43.17 ], [ -97.93, 43.17 ], [ -97.96, 43.17 ], [ -98.02, 43.17 ], [ -98.08, 43.17 ], [ -98.07, 43.18 ], [ -98.09, 43.19 ], [ -98.11, 43.2 ], [ -98.11, 43.26 ], [ -98.11, 43.27 ], [ -98.11, 43.35 ], [ -98.11, 43.36 ], [ -98.11, 43.37 ], [ -98.11, 43.38 ], [ -98.11, 43.4 ], [ -98.11, 43.42 ], [ -98.11, 43.44 ], [ -98.11, 43.47 ], [ -98.11, 43.48 ], [ -98.11, 43.49 ], [ -98.11, 43.5 ], [ -98.1, 43.5 ], [ -98.08, 43.5 ], [ -98.06, 43.5 ], [ -98.02, 43.5 ], [ -98.01, 43.5 ], [ -98.0, 43.5 ], [ -97.98, 43.5 ], [ -97.96, 43.5 ], [ -97.94, 43.5 ], [ -97.91, 43.5 ], [ -97.79, 43.5 ], [ -97.76, 43.5 ], [ -97.75, 43.5 ], [ -97.74, 43.5 ], [ -97.64, 43.5 ], [ -97.63, 43.5 ], [ -97.61, 43.5 ] ] ] } },
{ "type": "Feature", "properties": { "WFO": "FSD", "ISSUED": "201804140000", "EXPIRED": "201804150300", "INIT_ISS": "201804122045", "INIT_EXP": "201804150000", "PHENOM": "BZ", "GTYPE": "C", "SIG": "W", "ETN": 3, "STATUS": "EXP", "NWS_UGC": "SDZ060", "AREA_KM2": 1126.008056640625, "UPDATED": "201804150250", "HV_NWSLI": null, "HV_SEV": null, "HV_CAUSE": null, "HV_REC": null, "EMERGENC": false, "POLY_BEG": null, "POLY_END": null, "WINDTAG": null, "HAILTAG": null, "TORNTAG": null, "DAMAGTAG": null, "PROD_ID": "201804122045-KFSD-WWUS43-WSWFSD", "FCSTER": null }, "geometry": { "type": "Polygon", "coordinates": [ [ [ -97.85, 43.85 ], [ -97.83, 43.85 ], [ -97.79, 43.85 ], [ -97.74, 43.85 ], [ -97.66, 43.85 ], [ -97.64, 43.85 ], [ -97.61, 43.85 ], [ -97.61, 43.83 ], [ -97.61, 43.8 ], [ -97.61, 43.76 ], [ -97.61, 43.75 ], [ -97.61, 43.74 ], [ -97.61, 43.72 ], [ -97.61, 43.71 ], [ -97.61, 43.67 ], [ -97.61, 43.66 ], [ -97.61, 43.6 ], [ -97.61, 43.54 ], [ -97.61, 43.52 ], [ -97.61, 43.5 ], [ -97.63, 43.5 ], [ -97.64, 43.5 ], [ -97.74, 43.5 ], [ -97.75, 43.5 ], [ -97.76, 43.5 ], [ -97.79, 43.5 ], [ -97.91, 43.5 ], [ -97.94, 43.5 ], [ -97.96, 43.5 ], [ -97.96, 43.51 ], [ -97.97, 43.58 ], [ -97.97, 43.6 ], [ -97.97, 43.63 ], [ -97.97, 43.64 ], [ -97.97, 43.65 ], [ -97.97, 43.68 ], [ -97.97, 43.75 ], [ -97.97, 43.76 ], [ -97.97, 43.77 ], [ -97.97, 43.78 ], [ -97.97, 43.79 ], [ -97.97, 43.81 ], [ -97.97, 43.82 ], [ -97.97, 43.83 ], [ -97.97, 43.85 ], [ -97.95, 43.85 ], [ -97.91, 43.85 ], [ -97.85, 43.85 ] ] ] } },
{ "type": "Feature", "properties": { "WFO": "FSD", "ISSUED": "201804140000", "EXPIRED": "201804150300", "INIT_ISS": "201804122045", "INIT_EXP": "201804150000", "PHENOM": "BZ", "GTYPE": "C", "SIG": "W", "ETN": 3, "STATUS": "EXP", "NWS_UGC": "SDZ068", "AREA_KM2": 1502.986328125, "UPDATED": "201804150250", "HV_NWSLI": null, "HV_SEV": null, "HV_CAUSE": null, "HV_REC": null, "EMERGENC": false, "POLY_BEG": null, "POLY_END": null, "WINDTAG": null, "HAILTAG": null, "TORNTAG": null, "DAMAGTAG": null, "PROD_ID": "201804122045-KFSD-WWUS43-WSWFSD", "FCSTER": null }, "geometry": { "type": "Polygon", "coordinates": [ [ [ -98.15, 42.85 ], [ -98.14, 42.86 ], [ -98.13, 42.87 ], [ -98.12, 42.87 ], [ -98.12, 42.88 ], [ -98.11, 42.88 ], [ -98.11, 42.89 ], [ -98.11, 42.9 ], [ -98.12, 42.9 ], [ -98.12, 42.91 ], [ -98.11, 42.91 ], [ -98.11, 42.92 ], [ -98.11, 42.93 ], [ -98.11, 42.94 ], [ -98.11, 42.95 ], [ -98.1, 42.95 ], [ -98.1, 42.96 ], [ -98.1, 42.97 ], [ -98.09, 42.97 ], [ -98.1, 42.98 ], [ -98.1, 42.99 ], [ -98.11, 42.99 ], [ -98.11, 43.0 ], [ -98.11, 43.01 ], [ -98.11, 43.02 ], [ -98.11, 43.03 ], [ -98.1, 43.03 ], [ -98.1, 43.04 ], [ -98.1, 43.05 ], [ -98.1, 43.06 ], [ -98.11, 43.06 ], [ -98.11, 43.07 ], [ -98.11, 43.08 ], [ -98.11, 43.09 ], [ -98.11, 43.1 ], [ -98.1, 43.11 ], [ -98.1, 43.12 ], [ -98.09, 43.12 ], [ -98.09, 43.13 ], [ -98.09, 43.14 ], [ -98.09, 43.15 ], [ -98.08, 43.17 ], [ -98.02, 43.17 ], [ -97.96, 43.17 ], [ -97.93, 43.17 ], [ -97.82, 43.17 ], [ -97.76, 43.17 ], [ -97.72, 43.17 ], [ -97.69, 43.17 ], [ -97.67, 43.17 ], [ -97.66, 43.17 ], [ -97.64, 43.17 ], [ -97.64, 43.15 ], [ -97.64, 43.11 ], [ -97.64, 43.1 ], [ -97.64, 43.06 ], [ -97.64, 43.04 ], [ -97.64, 43.02 ], [ -97.64, 43.01 ], [ -97.64, 43.0 ], [ -97.64, 42.93 ], [ -97.64, 42.9 ], [ -97.63, 42.89 ], [ -97.64, 42.87 ], [ -97.64, 42.85 ], [ -97.65, 42.85 ], [ -97.66, 42.84 ], [ -97.67, 42.84 ], [ -97.69, 42.84 ], [ -97.7, 42.84 ], [ -97.72, 42.85 ], [ -97.75, 42.85 ], [ -97.76, 42.85 ], [ -97.77, 42.85 ], [ -97.78, 42.85 ], [ -97.79, 42.85 ], [ -97.8, 42.86 ], [ -97.81, 42.86 ], [ -97.82, 42.86 ], [ -97.83, 42.87 ], [ -97.84, 42.87 ], [ -97.85, 42.87 ], [ -97.86, 42.87 ], [ -97.87, 42.86 ], [ -97.88, 42.86 ], [ -97.88, 42.85 ], [ -97.88, 42.84 ], [ -97.88, 42.83 ], [ -97.89, 42.83 ], [ -97.89, 42.82 ], [ -97.89, 42.81 ], [ -97.9, 42.81 ], [ -97.9, 42.8 ], [ -97.91, 42.79 ], [ -97.92, 42.79 ], [ -97.93, 42.78 ], [ -97.94, 42.78 ], [ -97.94, 42.77 ], [ -97.95, 42.77 ], [ -97.96, 42.77 ], [ -97.97, 42.77 ], [ -97.98, 42.77 ], [ -97.99, 42.77 ], [ -98.0, 42.76 ], [ -98.01, 42.76 ], [ -98.02, 42.76 ], [ -98.03, 42.76 ], [ -98.04, 42.77 ], [ -98.05, 42.77 ], [ -98.06, 42.77 ], [ -98.06, 42.78 ], [ -98.07, 42.79 ], [ -98.08, 42.79 ], [ -98.09, 42.8 ], [ -98.1, 42.8 ], [ -98.1, 42.81 ], [ -98.11, 42.81 ], [ -98.12, 42.82 ], [ -98.13, 42.82 ], [ -98.14, 42.83 ], [ -98.15, 42.84 ], [ -98.15, 42.85 ] ] ] } },
{ "type": "Feature", "properties": { "WFO": "MPX", "ISSUED": "201804140000", "EXPIRED": "201804160500", "INIT_ISS": "201804130859", "INIT_EXP": "201804150600", "PHENOM": "WS", "GTYPE": "C", "SIG": "W", "ETN": 8, "STATUS": "EXP", "NWS_UGC": "MNZ053", "AREA_KM2": 1143.2257080078125, "UPDATED": "201804160457", "HV_NWSLI": null, "HV_SEV": null, "HV_CAUSE": null, "HV_REC": null, "EMERGENC": false, "POLY_BEG": null, "POLY_END": null, "WINDTAG": null, "HAILTAG": null, "TORNTAG": null, "DAMAGTAG": null, "PROD_ID": "201804130859-KMPX-WWUS43-WSWMPX", "FCSTER": null }, "geometry": { "type": "Polygon", "coordinates": [ [ [ -93.06, 45.73 ], [ -93.05, 45.73 ], [ -93.04, 45.73 ], [ -93.0, 45.73 ], [ -92.98, 45.73 ], [ -92.93, 45.73 ], [ -92.91, 45.73 ], [ -92.85, 45.73 ], [ -92.85, 45.72 ], [ -92.86, 45.72 ], [ -92.87, 45.72 ], [ -92.87, 45.71 ], [ -92.87, 45.7 ], [ -92.87, 45.69 ], [ -92.88, 45.69 ], [ -92.88, 45.68 ], [ -92.88, 45.67 ], [ -92.88, 45.66 ], [ -92.88, 45.65 ], [ -92.89, 45.65 ], [ -92.89, 45.64 ], [ -92.89, 45.63 ], [ -92.89, 45.62 ], [ -92.88, 45.61 ], [ -92.89, 45.6 ], [ -92.89, 45.59 ], [ -92.88, 45.59 ], [ -92.88, 45.58 ], [ -92.88, 45.57 ], [ -92.87, 45.57 ], [ -92.86, 45.57 ], [ -92.85, 45.57 ], [ -92.84, 45.57 ], [ -92.83, 45.56 ], [ -92.82, 45.56 ], [ -92.81, 45.56 ], [ -92.8, 45.56 ], [ -92.79, 45.57 ], [ -92.78, 45.57 ], [ -92.77, 45.57 ], [ -92.77, 45.56 ], [ -92.76, 45.56 ], [ -92.75, 45.55 ], [ -92.74, 45.55 ], [ -92.73, 45.54 ], [ -92.73, 45.53 ], [ -92.73, 45.52 ], [ -92.72, 45.51 ], [ -92.71, 45.5 ], [ -92.7, 45.49 ], [ -92.7, 45.48 ], [ -92.69, 45.48 ], [ -92.69, 45.47 ], [ -92.68, 45.47 ], [ -92.68, 45.46 ], [ -92.67, 45.46 ], [ -92.66, 45.46 ], [ -92.65, 45.46 ], [ -92.65, 45.45 ], [ -92.65, 45.44 ], [ -92.65, 45.43 ], [ -92.65, 45.42 ], [ -92.65, 45.41 ], [ -92.65, 45.4 ], [ -92.66, 45.4 ], [ -92.66, 45.39 ], [ -92.67, 45.39 ], [ -92.68, 45.38 ], [ -92.68, 45.37 ], [ -92.69, 45.37 ], [ -92.7, 45.36 ], [ -92.7, 45.35 ], [ -92.7, 45.34 ], [ -92.7, 45.33 ], [ -92.71, 45.33 ], [ -92.71, 45.32 ], [ -92.72, 45.31 ], [ -92.73, 45.31 ], [ -92.73, 45.3 ], [ -92.74, 45.3 ], [ -92.75, 45.3 ], [ -92.77, 45.3 ], [ -92.8, 45.3 ], [ -92.82, 45.3 ], [ -92.86, 45.3 ], [ -92.87, 45.3 ], [ -92.88, 45.3 ], [ -92.93, 45.3 ], [ -92.96, 45.3 ], [ -93.02, 45.3 ], [ -93.02, 45.33 ], [ -93.02, 45.34 ], [ -93.02, 45.38 ], [ -93.02, 45.39 ], [ -93.02, 45.41 ], [ -93.02, 45.44 ], [ -93.02, 45.45 ], [ -93.02, 45.47 ], [ -93.02, 45.49 ], [ -93.02, 45.5 ], [ -93.02, 45.56 ], [ -93.04, 45.56 ], [ -93.07, 45.56 ], [ -93.11, 45.56 ], [ -93.13, 45.56 ], [ -93.14, 45.56 ], [ -93.14, 45.57 ], [ -93.14, 45.58 ], [ -93.14, 45.59 ], [ -93.14, 45.61 ], [ -93.14, 45.62 ], [ -93.14, 45.7 ], [ -93.14, 45.72 ], [ -93.14, 45.73 ], [ -93.12, 45.73 ], [ -93.06, 45.73 ] ] ] } },
{ "type": "Feature", "properties": { "WFO": "FSD", "ISSUED": "201804140000", "EXPIRED": "201804150300", "INIT_ISS": "201804122045", "INIT_EXP": "201804150000", "PHENOM": "BZ", "GTYPE": "C", "SIG": "W", "ETN": 3, "STATUS": "EXP", "NWS_UGC": "SDZ054", "AREA_KM2": 1478.5631103515625, "UPDATED": "201804150250", "HV_NWSLI": null, "HV_SEV": null, "HV_CAUSE": null, "HV_REC": null, "EMERGENC": false, "POLY_BEG": null, "POLY_END": null, "WINDTAG": null, "HAILTAG": null, "TORNTAG": null, "DAMAGTAG": null, "PROD_ID": "201804122045-KFSD-WWUS43-WSWFSD", "FCSTER": null }, "geometry": { "type": "Polygon", "coordinates": [ [ [ -97.37, 44.2 ], [ -97.37, 44.19 ], [ -97.37, 44.15 ], [ -97.37, 44.14 ], [ -97.37, 44.0 ], [ -97.37, 43.98 ], [ -97.37, 43.94 ], [ -97.37, 43.89 ], [ -97.37, 43.88 ], [ -97.37, 43.85 ], [ -97.43, 43.85 ], [ -97.5, 43.85 ], [ -97.53, 43.85 ], [ -97.61, 43.85 ], [ -97.64, 43.85 ], [ -97.66, 43.85 ], [ -97.74, 43.85 ], [ -97.79, 43.85 ], [ -97.83, 43.85 ], [ -97.85, 43.85 ], [ -97.85, 43.87 ], [ -97.85, 43.88 ], [ -97.85, 43.89 ], [ -97.85, 43.94 ], [ -97.85, 43.95 ], [ -97.85, 43.97 ], [ -97.85, 44.05 ], [ -97.85, 44.08 ], [ -97.85, 44.1 ], [ -97.85, 44.12 ], [ -97.85, 44.13 ], [ -97.85, 44.15 ], [ -97.85, 44.17 ], [ -97.85, 44.2 ], [ -97.83, 44.2 ], [ -97.81, 44.2 ], [ -97.77, 44.2 ], [ -97.69, 44.19 ], [ -97.67, 44.19 ], [ -97.65, 44.19 ], [ -97.64, 44.19 ], [ -97.58, 44.2 ], [ -97.53, 44.19 ], [ -97.45, 44.2 ], [ -97.42, 44.19 ], [ -97.37, 44.2 ] ] ] } },
{ "type": "Feature", "properties": { "WFO": "FSD", "ISSUED": "201804140000", "EXPIRED": "201804150300", "INIT_ISS": "201804122045", "INIT_EXP": "201804150000", "PHENOM": "BZ", "GTYPE": "C", "SIG": "W", "ETN": 3, "STATUS": "EXP", "NWS_UGC": "SDZ061", "AREA_KM2": 1491.802490234375, "UPDATED": "201804150250", "HV_NWSLI": null, "HV_SEV": null, "HV_CAUSE": null, "HV_REC": null, "EMERGENC": false, "POLY_BEG": null, "POLY_END": null, "WINDTAG": null, "HAILTAG": null, "TORNTAG": null, "DAMAGTAG": null, "PROD_ID": "201804122045-KFSD-WWUS43-WSWFSD", "FCSTER": null }, "geometry": { "type": "Polygon", "coordinates": [ [ [ -97.37, 43.85 ], [ -97.28, 43.85 ], [ -97.19, 43.85 ], [ -97.13, 43.85 ], [ -97.13, 43.8 ], [ -97.13, 43.75 ], [ -97.13, 43.73 ], [ -97.13, 43.71 ], [ -97.13, 43.61 ], [ -97.13, 43.59 ], [ -97.13, 43.56 ], [ -97.13, 43.53 ], [ -97.13, 43.51 ], [ -97.13, 43.5 ], [ -97.14, 43.5 ], [ -97.33, 43.5 ], [ -97.37, 43.5 ], [ -97.38, 43.5 ], [ -97.39, 43.5 ], [ -97.4, 43.5 ], [ -97.61, 43.5 ], [ -97.61, 43.52 ], [ -97.61, 43.54 ], [ -97.61, 43.6 ], [ -97.61, 43.66 ], [ -97.61, 43.67 ], [ -97.61, 43.71 ], [ -97.61, 43.72 ], [ -97.61, 43.74 ], [ -97.61, 43.75 ], [ -97.61, 43.76 ], [ -97.61, 43.8 ], [ -97.61, 43.83 ], [ -97.61, 43.85 ], [ -97.53, 43.85 ], [ -97.5, 43.85 ], [ -97.43, 43.85 ], [ -97.37, 43.85 ] ] ] } },
{ "type": "Feature", "properties": { "WFO": "MPX", "ISSUED": "201804140000", "EXPIRED": "201804160500", "INIT_ISS": "201804130859", "INIT_EXP": "201804150600", "PHENOM": "WS", "GTYPE": "C", "SIG": "W", "ETN": 8, "STATUS": "EXP", "NWS_UGC": "MNZ052", "AREA_KM2": 1167.6832275390625, "UPDATED": "201804160457", "HV_NWSLI": null, "HV_SEV": null, "HV_CAUSE": null, "HV_REC": null, "EMERGENC": false, "POLY_BEG": null, "POLY_END": null, "WINDTAG": null, "HAILTAG": null, "TORNTAG": null, "DAMAGTAG": null, "PROD_ID": "201804130859-KMPX-WWUS43-WSWMPX", "FCSTER": null }, "geometry": { "type": "Polygon", "coordinates": [ [ [ -93.39, 45.73 ], [ -93.37, 45.73 ], [ -93.33, 45.73 ], [ -93.3, 45.73 ], [ -93.25, 45.73 ], [ -93.23, 45.73 ], [ -93.2, 45.73 ], [ -93.18, 45.73 ], [ -93.14, 45.73 ], [ -93.14, 45.72 ], [ -93.14, 45.7 ], [ -93.14, 45.62 ], [ -93.14, 45.61 ], [ -93.14, 45.59 ], [ -93.14, 45.58 ], [ -93.14, 45.57 ], [ -93.14, 45.56 ], [ -93.13, 45.56 ], [ -93.11, 45.56 ], [ -93.07, 45.56 ], [ -93.04, 45.56 ], [ -93.02, 45.56 ], [ -93.02, 45.5 ], [ -93.02, 45.49 ], [ -93.02, 45.47 ], [ -93.02, 45.45 ], [ -93.02, 45.44 ], [ -93.02, 45.41 ], [ -93.03, 45.41 ], [ -93.05, 45.41 ], [ -93.07, 45.41 ], [ -93.08, 45.41 ], [ -93.09, 45.41 ], [ -93.13, 45.41 ], [ -93.14, 45.41 ], [ -93.16, 45.41 ], [ -93.23, 45.41 ], [ -93.25, 45.41 ], [ -93.27, 45.41 ], [ -93.3, 45.41 ], [ -93.36, 45.41 ], [ -93.43, 45.41 ], [ -93.45, 45.41 ], [ -93.47, 45.41 ], [ -93.49, 45.41 ], [ -93.51, 45.42 ], [ -93.51, 45.43 ], [ -93.51, 45.44 ], [ -93.51, 45.47 ], [ -93.51, 45.55 ], [ -93.51, 45.56 ], [ -93.51, 45.63 ], [ -93.51, 45.68 ], [ -93.51, 45.69 ], [ -93.51, 45.71 ], [ -93.51, 45.72 ], [ -93.51, 45.74 ], [ -93.5, 45.73 ], [ -93.47, 45.73 ], [ -93.39, 45.73 ] ] ] } },
{ "type": "Feature", "properties": { "WFO": "MPX", "ISSUED": "201804140000", "EXPIRED": "201804141737", "INIT_ISS": "201804130234", "INIT_EXP": "201804150600", "PHENOM": "WS", "GTYPE": "C", "SIG": "W", "ETN": 8, "STATUS": "UPG", "NWS_UGC": "MNZ059", "AREA_KM2": 1846.21337890625, "UPDATED": "201804141737", "HV_NWSLI": null, "HV_SEV": null, "HV_CAUSE": null, "HV_REC": null, "EMERGENC": false, "POLY_BEG": null, "POLY_END": null, "WINDTAG": null, "HAILTAG": null, "TORNTAG": null, "DAMAGTAG": null, "PROD_ID": "201804130234-KMPX-WWUS43-WSWMPX", "FCSTER": "Borghoff" }, "geometry": { "type": "Polygon", "coordinates": [ [ [ -94.09, 45.35 ], [ -94.09, 45.36 ], [ -94.08, 45.36 ], [ -94.08, 45.37 ], [ -94.09, 45.37 ], [ -94.08, 45.38 ], [ -94.08, 45.39 ], [ -94.07, 45.39 ], [ -94.07, 45.4 ], [ -94.07, 45.41 ], [ -94.06, 45.41 ], [ -94.06, 45.42 ], [ -94.05, 45.42 ], [ -94.04, 45.42 ], [ -94.04, 45.41 ], [ -94.03, 45.41 ], [ -94.02, 45.4 ], [ -94.01, 45.4 ], [ -94.01, 45.39 ], [ -94.0, 45.39 ], [ -94.0, 45.4 ], [ -93.99, 45.4 ], [ -93.98, 45.4 ], [ -93.98, 45.39 ], [ -93.97, 45.39 ], [ -93.96, 45.38 ], [ -93.95, 45.38 ], [ -93.94, 45.38 ], [ -93.93, 45.38 ], [ -93.93, 45.39 ], [ -93.92, 45.38 ], [ -93.91, 45.38 ], [ -93.91, 45.37 ], [ -93.9, 45.37 ], [ -93.89, 45.36 ], [ -93.88, 45.35 ], [ -93.87, 45.34 ], [ -93.85, 45.34 ], [ -93.84, 45.34 ], [ -93.83, 45.33 ], [ -93.82, 45.32 ], [ -93.81, 45.32 ], [ -93.81, 45.31 ], [ -93.8, 45.31 ], [ -93.79, 45.31 ], [ -93.78, 45.31 ], [ -93.78, 45.3 ], [ -93.77, 45.3 ], [ -93.76, 45.3 ], [ -93.76, 45.29 ], [ -93.75, 45.3 ], [ -93.74, 45.3 ], [ -93.73, 45.3 ], [ -93.72, 45.3 ], [ -93.7, 45.3 ], [ -93.69, 45.3 ], [ -93.68, 45.3 ], [ -93.67, 45.3 ], [ -93.66, 45.3 ], [ -93.65, 45.3 ], [ -93.64, 45.3 ], [ -93.63, 45.3 ], [ -93.62, 45.29 ], [ -93.61, 45.29 ], [ -93.6, 45.29 ], [ -93.59, 45.29 ], [ -93.58, 45.29 ], [ -93.57, 45.29 ], [ -93.57, 45.3 ], [ -93.56, 45.3 ], [ -93.56, 45.29 ], [ -93.56, 45.28 ], [ -93.55, 45.28 ], [ -93.55, 45.27 ], [ -93.55, 45.26 ], [ -93.54, 45.26 ], [ -93.53, 45.25 ], [ -93.52, 45.25 ], [ -93.52, 45.24 ], [ -93.52, 45.23 ], [ -93.53, 45.23 ], [ -93.54, 45.23 ], [ -93.55, 45.23 ], [ -93.56, 45.23 ], [ -93.56, 45.22 ], [ -93.57, 45.22 ], [ -93.58, 45.22 ], [ -93.59, 45.21 ], [ -93.6, 45.21 ], [ -93.61, 45.21 ], [ -93.62, 45.21 ], [ -93.62, 45.2 ], [ -93.63, 45.2 ], [ -93.63, 45.21 ], [ -93.64, 45.21 ], [ -93.64, 45.2 ], [ -93.65, 45.2 ], [ -93.66, 45.2 ], [ -93.66, 45.19 ], [ -93.65, 45.19 ], [ -93.65, 45.18 ], [ -93.64, 45.18 ], [ -93.64, 45.17 ], [ -93.64, 45.16 ], [ -93.65, 45.16 ], [ -93.66, 45.16 ], [ -93.66, 45.15 ], [ -93.67, 45.15 ], [ -93.68, 45.15 ], [ -93.69, 45.14 ], [ -93.7, 45.14 ], [ -93.7, 45.13 ], [ -93.71, 45.13 ], [ -93.71, 45.12 ], [ -93.72, 45.12 ], [ -93.72, 45.11 ], [ -93.73, 45.1 ], [ -93.73, 45.09 ], [ -93.74, 45.08 ], [ -93.75, 45.08 ], [ -93.76, 45.08 ], [ -93.76, 45.07 ], [ -93.77, 45.07 ], [ -93.77, 45.06 ], [ -93.77, 45.05 ], [ -93.77, 45.01 ], [ -93.77, 45.0 ], [ -93.77, 44.99 ], [ -93.77, 44.98 ], [ -93.78, 44.98 ], [ -93.86, 44.98 ], [ -93.88, 44.98 ], [ -93.89, 44.98 ], [ -93.98, 44.98 ], [ -94.01, 44.98 ], [ -94.14, 44.98 ], [ -94.17, 44.98 ], [ -94.26, 44.98 ], [ -94.26, 44.99 ], [ -94.26, 45.03 ], [ -94.26, 45.08 ], [ -94.26, 45.12 ], [ -94.26, 45.2 ], [ -94.26, 45.23 ], [ -94.26, 45.24 ], [ -94.26, 45.25 ], [ -94.26, 45.26 ], [ -94.26, 45.27 ], [ -94.26, 45.28 ], [ -94.26, 45.3 ], [ -94.26, 45.31 ], [ -94.25, 45.31 ], [ -94.24, 45.31 ], [ -94.23, 45.31 ], [ -94.22, 45.31 ], [ -94.22, 45.32 ], [ -94.21, 45.32 ], [ -94.2, 45.32 ], [ -94.19, 45.32 ], [ -94.18, 45.31 ], [ -94.18, 45.3 ], [ -94.17, 45.3 ], [ -94.16, 45.3 ], [ -94.14, 45.32 ], [ -94.12, 45.33 ], [ -94.11, 45.33 ], [ -94.11, 45.34 ], [ -94.1, 45.34 ], [ -94.09, 45.34 ], [ -94.09, 45.35 ] ] ] } },
{ "type": "Feature", "properties": { "WFO": "MPX", "ISSUED": "201804140000", "EXPIRED": "201804141737", "INIT_ISS": "201804130234", "INIT_EXP": "201804150600", "PHENOM": "WS", "GTYPE": "C", "SIG": "W", "ETN": 8, "STATUS": "UPG", "NWS_UGC": "MNZ061", "AREA_KM2": 1152.9273681640625, "UPDATED": "201804141737", "HV_NWSLI": null, "HV_SEV": null, "HV_CAUSE": null, "HV_REC": null, "EMERGENC": false, "POLY_BEG": null, "POLY_END": null, "WINDTAG": null, "HAILTAG": null, "TORNTAG": null, "DAMAGTAG": null, "PROD_ID": "201804130234-KMPX-WWUS43-WSWMPX", "FCSTER": "Borghoff" }, "geometry": { "type": "Polygon", "coordinates": [ [ [ -93.47, 45.41 ], [ -93.45, 45.41 ], [ -93.43, 45.41 ], [ -93.36, 45.41 ], [ -93.3, 45.41 ], [ -93.27, 45.41 ], [ -93.25, 45.41 ], [ -93.23, 45.41 ], [ -93.16, 45.41 ], [ -93.14, 45.41 ], [ -93.13, 45.41 ], [ -93.09, 45.41 ], [ -93.08, 45.41 ], [ -93.07, 45.41 ], [ -93.05, 45.41 ], [ -93.03, 45.41 ], [ -93.02, 45.41 ], [ -93.02, 45.39 ], [ -93.02, 45.38 ], [ -93.02, 45.34 ], [ -93.02, 45.33 ], [ -93.02, 45.3 ], [ -93.02, 45.27 ], [ -93.02, 45.23 ], [ -93.02, 45.15 ], [ -93.02, 45.12 ], [ -93.04, 45.12 ], [ -93.05, 45.12 ], [ -93.11, 45.12 ], [ -93.13, 45.12 ], [ -93.14, 45.12 ], [ -93.15, 45.12 ], [ -93.2, 45.12 ], [ -93.23, 45.12 ], [ -93.23, 45.11 ], [ -93.23, 45.1 ], [ -93.23, 45.09 ], [ -93.23, 45.07 ], [ -93.23, 45.06 ], [ -93.23, 45.04 ], [ -93.24, 45.04 ], [ -93.28, 45.04 ], [ -93.28, 45.05 ], [ -93.29, 45.06 ], [ -93.28, 45.07 ], [ -93.28, 45.08 ], [ -93.28, 45.09 ], [ -93.28, 45.1 ], [ -93.28, 45.11 ], [ -93.29, 45.11 ], [ -93.29, 45.12 ], [ -93.3, 45.12 ], [ -93.3, 45.13 ], [ -93.31, 45.14 ], [ -93.32, 45.15 ], [ -93.33, 45.15 ], [ -93.35, 45.16 ], [ -93.36, 45.18 ], [ -93.37, 45.18 ], [ -93.38, 45.18 ], [ -93.39, 45.19 ], [ -93.4, 45.19 ], [ -93.41, 45.2 ], [ -93.42, 45.2 ], [ -93.42, 45.21 ], [ -93.43, 45.21 ], [ -93.43, 45.22 ], [ -93.44, 45.22 ], [ -93.45, 45.22 ], [ -93.46, 45.22 ], [ -93.47, 45.23 ], [ -93.48, 45.23 ], [ -93.49, 45.23 ], [ -93.5, 45.23 ], [ -93.5, 45.24 ], [ -93.51, 45.25 ], [ -93.51, 45.33 ], [ -93.51, 45.34 ], [ -93.51, 45.35 ], [ -93.51, 45.36 ], [ -93.51, 45.39 ], [ -93.51, 45.41 ], [ -93.51, 45.42 ], [ -93.49, 45.41 ], [ -93.47, 45.41 ] ] ] } },
{ "type": "Feature", "properties": { "WFO": "DMX", "ISSUED": "201804140023", "EXPIRED": "201804140115", "INIT_ISS": "201804140023", "INIT_EXP": "201804140115", "PHENOM": "SV", "GTYPE": "C", "SIG": "W", "ETN": 9, "STATUS": "EXP", "NWS_UGC": "IAC127", "AREA_KM2": 1481.873291015625, "UPDATED": "201804140109", "HV_NWSLI": null, "HV_SEV": null, "HV_CAUSE": null, "HV_REC": null, "EMERGENC": false, "POLY_BEG": null, "POLY_END": null, "WINDTAG": null, "HAILTAG": null, "TORNTAG": null, "DAMAGTAG": null, "PROD_ID": "201804140023-KDMX-WUUS53-SVRDMX", "FCSTER": "MF" }, "geometry": { "type": "Polygon", "coordinates": [ [ [ -92.77, 42.21 ], [ -92.77, 42.13 ], [ -92.77, 42.11 ], [ -92.77, 42.05 ], [ -92.77, 42.01 ], [ -92.77, 42.0 ], [ -92.77, 41.99 ], [ -92.77, 41.96 ], [ -92.77, 41.86 ], [ -92.79, 41.86 ], [ -92.84, 41.86 ], [ -92.91, 41.86 ], [ -93.0, 41.86 ], [ -93.04, 41.86 ], [ -93.15, 41.86 ], [ -93.19, 41.86 ], [ -93.23, 41.86 ], [ -93.23, 41.87 ], [ -93.23, 41.88 ], [ -93.23, 41.9 ], [ -93.23, 41.91 ], [ -93.23, 41.98 ], [ -93.23, 42.01 ], [ -93.23, 42.12 ], [ -93.23, 42.14 ], [ -93.23, 42.15 ], [ -93.23, 42.17 ], [ -93.23, 42.21 ], [ -93.11, 42.21 ], [ -93.06, 42.21 ], [ -93.03, 42.21 ], [ -93.02, 42.21 ], [ -93.0, 42.21 ], [ -92.98, 42.21 ], [ -92.89, 42.21 ], [ -92.78, 42.21 ], [ -92.77, 42.21 ] ] ] } },
{ "type": "Feature", "properties": { "WFO": "DMX", "ISSUED": "201804140023", "EXPIRED": "201804140115", "INIT_ISS": "201804140023", "INIT_EXP": "201804140115", "PHENOM": "SV", "GTYPE": "C", "SIG": "W", "ETN": 9, "STATUS": "EXP", "NWS_UGC": "IAC169", "AREA_KM2": 1483.523193359375, "UPDATED": "201804140109", "HV_NWSLI": null, "HV_SEV": null, "HV_CAUSE": null, "HV_REC": null, "EMERGENC": false, "POLY_BEG": null, "POLY_END": null, "WINDTAG": null, "HAILTAG": null, "TORNTAG": null, "DAMAGTAG": null, "PROD_ID": "201804140023-KDMX-WUUS53-SVRDMX", "FCSTER": "MF" }, "geometry": { "type": "Polygon", "coordinates": [ [ [ -93.62, 42.21 ], [ -93.57, 42.21 ], [ -93.48, 42.21 ], [ -93.46, 42.21 ], [ -93.4, 42.21 ], [ -93.38, 42.21 ], [ -93.36, 42.21 ], [ -93.29, 42.21 ], [ -93.23, 42.21 ], [ -93.23, 42.17 ], [ -93.23, 42.15 ], [ -93.23, 42.14 ], [ -93.23, 42.12 ], [ -93.23, 42.01 ], [ -93.23, 41.98 ], [ -93.23, 41.91 ], [ -93.23, 41.9 ], [ -93.23, 41.88 ], [ -93.23, 41.87 ], [ -93.23, 41.86 ], [ -93.25, 41.86 ], [ -93.29, 41.86 ], [ -93.35, 41.86 ], [ -93.43, 41.86 ], [ -93.46, 41.86 ], [ -93.48, 41.86 ], [ -93.51, 41.86 ], [ -93.69, 41.86 ], [ -93.7, 41.86 ], [ -93.7, 41.87 ], [ -93.7, 41.95 ], [ -93.7, 42.01 ], [ -93.7, 42.03 ], [ -93.7, 42.05 ], [ -93.7, 42.11 ], [ -93.7, 42.12 ], [ -93.7, 42.18 ], [ -93.7, 42.21 ], [ -93.64, 42.21 ], [ -93.62, 42.21 ] ] ] } },
{ "type": "Feature", "properties": { "WFO": "DMX", "ISSUED": "201804140023", "EXPIRED": "201804140115", "INIT_ISS": "201804140023", "INIT_EXP": "201804140115", "PHENOM": "SV", "GTYPE": "C", "SIG": "W", "ETN": 9, "STATUS": "EXP", "NWS_UGC": "IAC079", "AREA_KM2": 1493.2093505859375, "UPDATED": "201804140109", "HV_NWSLI": null, "HV_SEV": null, "HV_CAUSE": null, "HV_REC": null, "EMERGENC": false, "POLY_BEG": null, "POLY_END": null, "WINDTAG": null, "HAILTAG": null, "TORNTAG": null, "DAMAGTAG": null, "PROD_ID": "201804140023-KDMX-WUUS53-SVRDMX", "FCSTER": "MF" }, "geometry": { "type": "Polygon", "coordinates": [ [ [ -93.95, 42.56 ], [ -93.91, 42.56 ], [ -93.9, 42.56 ], [ -93.79, 42.56 ], [ -93.77, 42.56 ], [ -93.75, 42.56 ], [ -93.73, 42.56 ], [ -93.63, 42.56 ], [ -93.62, 42.56 ], [ -93.6, 42.56 ], [ -93.52, 42.56 ], [ -93.5, 42.56 ], [ -93.5, 42.55 ], [ -93.5, 42.54 ], [ -93.5, 42.5 ], [ -93.5, 42.49 ], [ -93.5, 42.47 ], [ -93.46, 42.47 ], [ -93.46, 42.45 ], [ -93.46, 42.37 ], [ -93.46, 42.35 ], [ -93.46, 42.33 ], [ -93.46, 42.31 ], [ -93.46, 42.22 ], [ -93.46, 42.21 ], [ -93.48, 42.21 ], [ -93.57, 42.21 ], [ -93.62, 42.21 ], [ -93.64, 42.21 ], [ -93.7, 42.21 ], [ -93.72, 42.21 ], [ -93.93, 42.21 ], [ -93.93, 42.22 ], [ -93.93, 42.24 ], [ -93.93, 42.25 ], [ -93.93, 42.27 ], [ -93.93, 42.3 ], [ -93.93, 42.31 ], [ -93.93, 42.36 ], [ -93.93, 42.37 ], [ -93.93, 42.44 ], [ -93.93, 42.47 ], [ -93.94, 42.47 ], [ -93.97, 42.47 ], [ -93.97, 42.48 ], [ -93.97, 42.51 ], [ -93.97, 42.54 ], [ -93.97, 42.56 ], [ -93.95, 42.56 ] ] ] } },
{ "type": "Feature", "properties": { "WFO": "DMX", "ISSUED": "201804140023", "EXPIRED": "201804140115", "INIT_ISS": "201804140023", "INIT_EXP": "201804140115", "PHENOM": "SV", "GTYPE": "C", "SIG": "W", "ETN": 9, "STATUS": "EXP", "NWS_UGC": "IAC083", "AREA_KM2": 1473.6824951171875, "UPDATED": "201804140109", "HV_NWSLI": null, "HV_SEV": null, "HV_CAUSE": null, "HV_REC": null, "EMERGENC": false, "POLY_BEG": null, "POLY_END": null, "WINDTAG": null, "HAILTAG": null, "TORNTAG": null, "DAMAGTAG": null, "PROD_ID": "201804140023-KDMX-WUUS53-SVRDMX", "FCSTER": "MF" }, "geometry": { "type": "Polygon", "coordinates": [ [ [ -93.5, 42.56 ], [ -93.46, 42.56 ], [ -93.39, 42.56 ], [ -93.38, 42.56 ], [ -93.29, 42.56 ], [ -93.26, 42.56 ], [ -93.2, 42.56 ], [ -93.16, 42.56 ], [ -93.03, 42.56 ], [ -93.03, 42.5 ], [ -93.03, 42.49 ], [ -93.03, 42.47 ], [ -93.02, 42.47 ], [ -93.0, 42.47 ], [ -93.0, 42.46 ], [ -93.0, 42.41 ], [ -93.0, 42.38 ], [ -93.0, 42.3 ], [ -93.0, 42.28 ], [ -93.0, 42.22 ], [ -93.0, 42.21 ], [ -93.02, 42.21 ], [ -93.03, 42.21 ], [ -93.06, 42.21 ], [ -93.11, 42.21 ], [ -93.23, 42.21 ], [ -93.29, 42.21 ], [ -93.36, 42.21 ], [ -93.38, 42.21 ], [ -93.4, 42.21 ], [ -93.46, 42.21 ], [ -93.46, 42.22 ], [ -93.46, 42.31 ], [ -93.46, 42.33 ], [ -93.46, 42.35 ], [ -93.46, 42.37 ], [ -93.46, 42.45 ], [ -93.46, 42.47 ], [ -93.5, 42.47 ], [ -93.5, 42.49 ], [ -93.5, 42.5 ], [ -93.5, 42.54 ], [ -93.5, 42.55 ], [ -93.5, 42.56 ] ] ] } },
{ "type": "Feature", "properties": { "WFO": "DMX", "ISSUED": "201804140049", "EXPIRED": "201804140130", "INIT_ISS": "201804140049", "INIT_EXP": "201804140130", "PHENOM": "SV", "GTYPE": "C", "SIG": "W", "ETN": 10, "STATUS": "EXP", "NWS_UGC": "IAC121", "AREA_KM2": 1454.4071044921875, "UPDATED": "201804140133", "HV_NWSLI": null, "HV_SEV": null, "HV_CAUSE": null, "HV_REC": null, "EMERGENC": false, "POLY_BEG": null, "POLY_END": null, "WINDTAG": null, "HAILTAG": null, "TORNTAG": null, "DAMAGTAG": null, "PROD_ID": "201804140049-KDMX-WUUS53-SVRDMX", "FCSTER": "Cogil" }, "geometry": { "type": "Polygon", "coordinates": [ [ [ -93.79, 41.51 ], [ -93.79, 41.47 ], [ -93.79, 41.43 ], [ -93.79, 41.41 ], [ -93.79, 41.4 ], [ -93.79, 41.37 ], [ -93.79, 41.35 ], [ -93.79, 41.34 ], [ -93.79, 41.3 ], [ -93.79, 41.28 ], [ -93.79, 41.27 ], [ -93.79, 41.26 ], [ -93.79, 41.23 ], [ -93.79, 41.2 ], [ -93.79, 41.18 ], [ -93.79, 41.17 ], [ -93.79, 41.16 ], [ -93.8, 41.16 ], [ -93.81, 41.16 ], [ -93.85, 41.16 ], [ -93.86, 41.16 ], [ -93.88, 41.16 ], [ -93.9, 41.16 ], [ -93.94, 41.16 ], [ -94.01, 41.16 ], [ -94.15, 41.16 ], [ -94.17, 41.16 ], [ -94.18, 41.16 ], [ -94.22, 41.16 ], [ -94.24, 41.16 ], [ -94.24, 41.24 ], [ -94.24, 41.26 ], [ -94.24, 41.27 ], [ -94.24, 41.3 ], [ -94.24, 41.32 ], [ -94.24, 41.37 ], [ -94.24, 41.39 ], [ -94.24, 41.41 ], [ -94.24, 41.42 ], [ -94.24, 41.46 ], [ -94.24, 41.49 ], [ -94.24, 41.5 ], [ -94.19, 41.5 ], [ -94.13, 41.5 ], [ -94.05, 41.5 ], [ -94.0, 41.5 ], [ -93.94, 41.5 ], [ -93.9, 41.5 ], [ -93.88, 41.51 ], [ -93.87, 41.51 ], [ -93.86, 41.51 ], [ -93.84, 41.51 ], [ -93.82, 41.51 ], [ -93.8, 41.51 ], [ -93.79, 41.51 ] ] ] } },
{ "type": "Feature", "properties": { "WFO": "DMX", "ISSUED": "201804140049", "EXPIRED": "201804140130", "INIT_ISS": "201804140049", "INIT_EXP": "201804140130", "PHENOM": "SV", "GTYPE": "C", "SIG": "W", "ETN": 10, "STATUS": "EXP", "NWS_UGC": "IAC175", "AREA_KM2": 1101.6708984375, "UPDATED": "201804140133", "HV_NWSLI": null, "HV_SEV": null, "HV_CAUSE": null, "HV_REC": null, "EMERGENC": false, "POLY_BEG": null, "POLY_END": null, "WINDTAG": null, "HAILTAG": null, "TORNTAG": null, "DAMAGTAG": null, "PROD_ID": "201804140049-KDMX-WUUS53-SVRDMX", "FCSTER": "Cogil" }, "geometry": { "type": "Polygon", "coordinates": [ [ [ -94.24, 41.16 ], [ -94.22, 41.16 ], [ -94.18, 41.16 ], [ -94.17, 41.16 ], [ -94.15, 41.16 ], [ -94.01, 41.16 ], [ -94.01, 41.14 ], [ -94.01, 41.13 ], [ -94.01, 41.12 ], [ -94.01, 41.11 ], [ -94.01, 41.08 ], [ -94.01, 41.05 ], [ -94.01, 41.02 ], [ -94.01, 41.0 ], [ -94.01, 40.91 ], [ -94.01, 40.9 ], [ -94.07, 40.9 ], [ -94.1, 40.9 ], [ -94.11, 40.9 ], [ -94.19, 40.9 ], [ -94.21, 40.9 ], [ -94.24, 40.9 ], [ -94.27, 40.9 ], [ -94.31, 40.9 ], [ -94.46, 40.9 ], [ -94.47, 40.9 ], [ -94.47, 40.91 ], [ -94.47, 40.99 ], [ -94.47, 41.01 ], [ -94.47, 41.03 ], [ -94.47, 41.07 ], [ -94.47, 41.09 ], [ -94.47, 41.11 ], [ -94.47, 41.13 ], [ -94.47, 41.16 ], [ -94.46, 41.16 ], [ -94.38, 41.16 ], [ -94.24, 41.16 ] ] ] } },
{ "type": "Feature", "properties": { "WFO": "DMX", "ISSUED": "201804140049", "EXPIRED": "201804140130", "INIT_ISS": "201804140049", "INIT_EXP": "201804140130", "PHENOM": "SV", "GTYPE": "C", "SIG": "W", "ETN": 10, "STATUS": "EXP", "NWS_UGC": "IAC003", "AREA_KM2": 1100.447265625, "UPDATED": "201804140133", "HV_NWSLI": null, "HV_SEV": null, "HV_CAUSE": null, "HV_REC": null, "EMERGENC": false, "POLY_BEG": null, "POLY_END": null, "WINDTAG": null, "HAILTAG": null, "TORNTAG": null, "DAMAGTAG": null, "PROD_ID": "201804140049-KDMX-WUUS53-SVRDMX", "FCSTER": "Cogil" }, "geometry": { "type": "Polygon", "coordinates": [ [ [ -94.7, 41.16 ], [ -94.68, 41.16 ], [ -94.65, 41.16 ], [ -94.59, 41.16 ], [ -94.55, 41.16 ], [ -94.52, 41.16 ], [ -94.5, 41.16 ], [ -94.48, 41.16 ], [ -94.47, 41.16 ], [ -94.47, 41.13 ], [ -94.47, 41.11 ], [ -94.47, 41.09 ], [ -94.47, 41.07 ], [ -94.47, 41.03 ], [ -94.47, 41.01 ], [ -94.47, 40.99 ], [ -94.47, 40.91 ], [ -94.47, 40.9 ], [ -94.48, 40.9 ], [ -94.51, 40.9 ], [ -94.57, 40.9 ], [ -94.61, 40.9 ], [ -94.65, 40.9 ], [ -94.72, 40.9 ], [ -94.74, 40.9 ], [ -94.75, 40.9 ], [ -94.83, 40.9 ], [ -94.84, 40.9 ], [ -94.85, 40.9 ], [ -94.91, 40.9 ], [ -94.93, 40.9 ], [ -94.93, 40.98 ], [ -94.93, 41.0 ], [ -94.93, 41.02 ], [ -94.93, 41.03 ], [ -94.93, 41.12 ], [ -94.93, 41.14 ], [ -94.93, 41.16 ], [ -94.8, 41.16 ], [ -94.78, 41.16 ], [ -94.7, 41.16 ] ] ] } },
{ "type": "Feature", "properties": { "WFO": "DMX", "ISSUED": "201804140049", "EXPIRED": "201804140130", "INIT_ISS": "201804140049", "INIT_EXP": "201804140130", "PHENOM": "SV", "GTYPE": "C", "SIG": "W", "ETN": 10, "STATUS": "EXP", "NWS_UGC": "IAC001", "AREA_KM2": 1475.10888671875, "UPDATED": "201804140133", "HV_NWSLI": null, "HV_SEV": null, "HV_CAUSE": null, "HV_REC": null, "EMERGENC": false, "POLY_BEG": null, "POLY_END": null, "WINDTAG": null, "HAILTAG": null, "TORNTAG": null, "DAMAGTAG": null, "PROD_ID": "201804140049-KDMX-WUUS53-SVRDMX", "FCSTER": "Cogil" }, "geometry": { "type": "Polygon", "coordinates": [ [ [ -94.66, 41.5 ], [ -94.64, 41.5 ], [ -94.6, 41.5 ], [ -94.52, 41.5 ], [ -94.45, 41.5 ], [ -94.38, 41.5 ], [ -94.33, 41.5 ], [ -94.3, 41.5 ], [ -94.24, 41.5 ], [ -94.24, 41.49 ], [ -94.24, 41.46 ], [ -94.24, 41.42 ], [ -94.24, 41.41 ], [ -94.24, 41.39 ], [ -94.24, 41.37 ], [ -94.24, 41.32 ], [ -94.24, 41.3 ], [ -94.24, 41.27 ], [ -94.24, 41.26 ], [ -94.24, 41.24 ], [ -94.24, 41.16 ], [ -94.38, 41.16 ], [ -94.46, 41.16 ], [ -94.47, 41.16 ], [ -94.48, 41.16 ], [ -94.5, 41.16 ], [ -94.52, 41.16 ], [ -94.55, 41.16 ], [ -94.59, 41.16 ], [ -94.65, 41.16 ], [ -94.68, 41.16 ], [ -94.7, 41.16 ], [ -94.7, 41.17 ], [ -94.7, 41.24 ], [ -94.7, 41.25 ], [ -94.7, 41.32 ], [ -94.7, 41.38 ], [ -94.7, 41.41 ], [ -94.7, 41.42 ], [ -94.7, 41.46 ], [ -94.7, 41.5 ], [ -94.66, 41.5 ] ] ] } }
]
}
