{
"type": "FeatureCollection",
"name": "alerts_20180415_0500Z",
"crs": { "type": "name", "properties": { "name": "urn:ogc:def:crs:OGC:1.3:CRS84" } },
"features": [
{ "type": "Feature", "properties": { "WFO": "FSD", "ISSUED": "201804141040", "EXPIRED": "201804162100", "INIT_ISS": "201804141040", "INIT_EXP": "201804162100", "PHENOM": "FL", "GTYPE": "P", "SIG": "W", "ETN": 43, "STATUS": "NEW", "NWS_UGC": null, "AREA_KM2": 148.19608662808074, "UPDATED": "201804131441", "HV_NWSLI": "RAPI4", "HV_SEV": "1", "HV_CAUSE": "ER", "HV_REC": "NO", "EMERGENC": false, "POLY_BEG": "201804141040", "POLY_END": "201804140209", "WINDTAG": null, "HAILTAG": null, "TORNTAG": null, "DAMAGTAG": null, "PROD_ID": "201804131441-KFSD-WGUS43-FLWFSD", "FCSTER": null }, "geometry": { "type": "Polygon", "coordinates": [ [ [ -96.25, 43.5 ], [ -96.14, 43.5 ], [ -96.11, 43.38 ], [ -96.18, 43.31 ], [ -96.25, 43.34 ], [ -96.19, 43.41 ], [ -96.25, 43.5 ] ] ] } },
{ "type": "Feature", "properties": { "WFO": "FSD", "ISSUED": "201804141230", "EXPIRED": "201804151230", "INIT_ISS": "201804141230", "INIT_EXP": "201804151230", "PHENOM": "FL", "GTYPE": "P", "SIG": "W", "ETN": 48, "STATUS": "NEW", "NWS_UGC": null, "AREA_KM2": 143.70603420370196, "UPDATED": "201804141230", "HV_NWSLI": "MIFI4", "HV_SEV": "1", "HV_CAUSE": "ER", "HV_REC": "NO", "EMERGENC": false, "POLY_BEG": "201804141230", "POLY_END": "201804141536", "WINDTAG": null, "HAILTAG": null, "TORNTAG": null, "DAMAGTAG": null, "PROD_ID": "201804141230-KFSD-WGUS43-FLWFSD", "FCSTER": null }, "geometry": { "type": "Polygon", "coordinates": [ [ [ -95.33, 43.5 ], [ -95.26, 43.5 ], [ -95.19, 43.34 ], [ -95.16, 43.34 ], [ -95.17, 43.28 ], [ -95.24, 43.29 ], [ -95.33, 43.5 ] ] ] } },
{ "type": "Feature", "properties": { "WFO": "MPX", "ISSUED": "201804140000", "EXPIRED": "201804160500", "INIT_ISS": "201804130859", "INIT_EXP": "201804150600", "PHENOM": "WS", "GTYPE": "C", "SIG": "W", "ETN": 8, "STATUS": "EXP", "NWS_UGC": "MNZ053", "AREA_KM2": 1143.2257080078125, "UPDATED": "201804160457", "HV_NWSLI": null, "HV_SEV": null, "HV_CAUSE": null, "HV_REC": null, "EMERGENC": false, "POLY_BEG": null, "POLY_END": null, "WINDTAG": null, "HAILTAG": null, "TORNTAG": null, "DAMAGTAG": null, "PROD_ID": "201804130859-KMPX-WWUS43-WSWMPX", "FCSTER": null }, "geometry": { "type": "Polygon", "coordinates": [ [ [ -93.06, 45.73 ], [ -93.05, 45.73 ], [ -93.04, 45.73 ], [ -93.0, 45.73 ], [ -92.98, 45.73 ], [ -92.93, 45.73 ], [ -92.91, 45.73 ], [ -92.85, 45.73 ], [ -92.85, 45.72 ], [ -92.86, 45.72 ], [ -92.87, 45.72 ], [ -92.87, 45.71 ], [ -92.87, 45.7 ], [ -92.87, 45.69 ], [ -92.88, 45.69 ], [ -92.88, 45.68 ], [ -92.88, 45.67 ], [ -92.88, 45.66 ], [ -92.88, 45.65 ], [ -92.89, 45.65 ], [ -92.89, 45.64 ], [ -92.89, 45.63 ], [ -92.89, 45.62 ], [ -92.88, 45.61 ], [ -92.89, 45.6 ], [ -92.89, 45.59 ], [ -92.88, 45.59 ], [ -92.88, 45.58 ], [ -92.88, 45.57 ], [ -92.87, 45.57 ], [ -92.86, 45.57 ], [ -92.85, 45.57 ], [ -92.84, 45.57 ], [ -92.83, 45.56 ], [ -92.82, 45.56 ], [ -92.81, 45.56 ], [ -92.8, 45.56 ], [ -92.79, 45.57 ], [ -92.78, 45.57 ], [ -92.77, 45.57 ], [ -92.77, 45.56 ], [ -92.76, 45.56 ], [ -92.75, 45.55 ], [ -92.74, 45.55 ], [ -92.73, 45.54 ], [ -92.73, 45.53 ], [ -92.73, 45.52 ], [ -92.72, 45.51 ], [ -92.71, 45.5 ], [ -92.7, 45.49 ], [ -92.7, 45.48 ], [ -92.69, 45.48 ], [ -92.69, 45.47 ], [ -92.68, 45.47 ], [ -92.68, 45.46 ], [ -92.67, 45.46 ], [ -92.66, 45.46 ], [ -92.65, 45.46 ], [ -92.65, 45.45 ], [ -92.65, 45.44 ], [ -92.65, 45.43 ], [ -92.65, 45.42 ], [ -92.65, 45.41 ], [ -92.65, 45.4 ], [ -92.66, 45.4 ], [ -92.66, 45.39 ], [ -92.67, 45.39 ], [ -92.68, 45.38 ], [ -92.68, 45.37 ], [ -92.69, 45.37 ], [ -92.7, 45.36 ], [ -92.7, 45.35 ], [ -92.7, 45.34 ], [ -92.7, 45.33 ], [ -92.71, 45.33 ], [ -92.71, 45.32 ], [ -92.72, 45.31 ], [ -92.73, 45.31 ], [ -92.73, 45.3 ], [ -92.74, 45.3 ], [ -92.75, 45.3 ], [ -92.77, 45.3 ], [ -92.8, 45.3 ], [ -92.82, 45.3 ], [ -92.86, 45.3 ], [ -92.87, 45.3 ], [ -92.88, 45.3 ], [ -92.93, 45.3 ], [ -92.96, 45.3 ], [ -93.02, 45.3 ], [ -93.02, 45.33 ], [ -93.02, 45.34 ], [ -93.02, 45.38 ], [ -93.02, 45.39 ], [ -93.02, 45.41 ], [ -93.02, 45.44 ], [ -93.02, 45.45 ], [ -93.02, 45.47 ], [ -93.02, 45.49 ], [ -93.02, 45.5 ], [ -93.02, 45.56 ], [ -93.04, 45.56 ], [ -93.07, 45.56 ], [ -93.11, 45.56 ], [ -93.13, 45.56 ], [ -93.14, 45.56 ], [ -93.14, 45.57 ], [ -93.14, 45.58 ], [ -93.14, 45.59 ], [ -93.14, 45.61 ], [ -93.14, 45.62 ], [ -93.14, 45.7 ], [ -93.14, 45.72 ], [ -93.14, 45.73 ], [ -93.12, 45.73 ], [ -93.06, 45.73 ] ] ] } },
{ "type": "Feature", "properties": { "WFO": "MPX", "ISSUED": "201804140000", "EXPIRED": "201804160500", "INIT_ISS": "201804130859", "INIT_EXP": "201804150600", "PHENOM": "WS", "GTYPE": "C", "SIG": "W", "ETN": 8, "STATUS": "EXP", "NWS_UGC": "MNZ052", "AREA_KM2": 1167.6832275390625, "UPDATED": "201804160457", "HV_NWSLI": null, "HV_SEV": null, "HV_CAUSE": null, "HV_REC": null, "EMERGENC": false, "POLY_BEG": null, "POLY_END": null, "WINDTAG": null, "HAILTAG": null, "TORNTAG": null, "DAMAGTAG": null, "PROD_ID": "201804130859-KMPX-WWUS43-WSWMPX", "FCSTER": null }, "geometry": { "type": "Polygon", "coordinates": [ [ [ -93.39, 45.73 ], [ -93.37, 45.73 ], [ -93.33, 45.73 ], [ -93.3, 45.73 ], [ -93.25, 45.73 ], [ -93.23, 45.73 ], [ -93.2, 45.73 ], [ -93.18, 45.73 ], [ -93.14, 45.73 ], [ -93.14, 45.72 ], [ -93.14, 45.7 ], [ -93.14, 45.62 ], [ -93.14, 45.61 ], [ -93.14, 45.59 ], [ -93.14, 45.58 ], [ -93.14, 45.57 ], [ -93.14, 45.56 ], [ -93.13, 45.56 ], [ -93.11, 45.56 ], [ -93.07, 45.56 ], [ -93.04, 45.56 ], [ -93.02, 45.56 ], [ -93.02, 45.5 ], [ -93.02, 45.49 ], [ -93.02, 45.47 ], [ -93.02, 45.45 ], [ -93.02, 45.44 ], [ -93.02, 45.41 ], [ -93.03, 45.41 ], [ -93.05, 45.41 ], [ -93.07, 45.41 ], [ -93.08, 45.41 ], [ -93.09, 45.41 ], [ -93.13, 45.41 ], [ -93.14, 45.41 ], [ -93.16, 45.41 ], [ -93.23, 45.41 ], [ -93.25, 45.41 ], [ -93.27, 45.41 ], [ -93.3, 45.41 ], [ -93.36, 45.41 ], [ -93.43, 45.41 ], [ -93.45, 45.41 ], [ -93.47, 45.41 ], [ -93.49, 45.41 ], [ -93.51, 45.42 ], [ -93.51, 45.43 ], [ -93.51, 45.44 ], [ -93.51, 45.47 ], [ -93.51, 45.55 ], [ -93.51, 45.56 ], [ -93.51, 45.63 ], [ -93.51, 45.68 ], [ -93.51, 45.69 ], [ -93.51, 45.71 ], [ -93.51, 45.72 ], [ -93.51, 45.74 ], [ -93.5, 45.73 ], [ -93.47, 45.73 ], [ -93.39, 45.73 ] ] ] } },
{ "type": "Feature", "properties": { "WFO": "DLH", "ISSUED": "201804140900", "EXPIRED": "201804160000", "INIT_ISS": "201804132021", "INIT_EXP": "201804151500", "PHENOM": "LS", "GTYPE": "C", "SIG": "W", "ETN": 1, "STATUS": "EXP", "NWS_UGC": "MNZ037", "AREA_KM2": 4808.8994140625, "UPDATED": "201804152353", "HV_NWSLI": null, "HV_SEV": null, "HV_CAUSE": null, "HV_REC": null, "EMERGENC": false, "POLY_BEG": null, "POLY_END": null, "WINDTAG": null, "HAILTAG": null, "TORNTAG": null, "DAMAGTAG": null, "PROD_ID": "201804132021-KDLH-WHUS43-CFWDLH", "FCSTER": "Huyck" }, "geometry": { "type": "MultiPolygon", "coordinates": [ [ [ [ -92.29, 46.66 ], [ -92.29, 46.64 ], [ -92.29, 46.59 ], [ -92.29, 46.57 ], [ -92.29, 46.5 ], [ -92.29, 46.43 ], [ -92.29, 46.42 ], [ -92.31, 46.42 ], [ -92.37, 46.42 ], [ -92.49, 46.42 ], [ -92.5, 46.42 ], [ -92.55, 46.42 ], [ -92.64, 46.42 ], [ -92.73, 46.42 ], [ -92.76, 46.42 ], [ -92.77, 46.42 ], [ -92.8, 46.42 ], [ -92.82, 46.42 ], [ -92.86, 46.42 ], [ -92.87, 46.42 ], [ -92.88, 46.42 ], [ -92.89, 46.42 ], [ -92.96, 46.42 ], [ -93.05, 46.42 ], [ -93.06, 46.44 ], [ -93.06, 46.5 ], [ -93.06, 46.53 ], [ -93.06, 46.58 ], [ -93.05, 46.59 ], [ -93.06, 46.59 ], [ -93.06, 46.62 ], [ -93.06, 46.63 ], [ -93.06, 46.68 ], [ -93.06, 46.7 ], [ -93.06, 46.75 ], [ -93.06, 46.77 ], [ -93.06, 46.84 ], [ -93.06, 46.87 ], [ -93.06, 46.9 ], [ -93.06, 46.91 ], [ -93.06, 46.94 ], [ -93.06, 46.95 ], [ -93.06, 46.96 ], [ -93.06, 46.98 ], [ -93.06, 47.01 ], [ -93.06, 47.02 ], [ -93.06, 47.03 ], [ -92.69, 47.03 ], [ -92.24, 47.03 ], [ -92.07, 47.02 ], [ -91.99, 47.0 ], [ -91.98, 47.0 ], [ -91.91, 46.97 ], [ -91.83, 46.94 ], [ -91.81, 46.93 ], [ -91.82, 46.93 ], [ -91.83, 46.93 ], [ -91.84, 46.93 ], [ -91.84, 46.92 ], [ -91.85, 46.92 ], [ -91.85, 46.91 ], [ -91.86, 46.91 ], [ -91.87, 46.91 ], [ -91.88, 46.91 ], [ -91.89, 46.9 ], [ -91.91, 46.89 ], [ -91.91, 46.88 ], [ -91.92, 46.88 ], [ -91.94, 46.87 ], [ -91.95, 46.87 ], [ -91.97, 46.86 ], [ -91.98, 46.85 ], [ -91.99, 46.85 ], [ -91.99, 46.84 ], [ -92.0, 46.84 ], [ -92.01, 46.84 ], [ -92.01, 46.83 ], [ -92.02, 46.83 ], [ -92.03, 46.83 ], [ -92.03, 46.82 ], [ -92.04, 46.82 ], [ -92.05, 46.81 ], [ -92.06, 46.81 ], [ -92.06, 46.8 ], [ -92.07, 46.8 ], [ -92.08, 46.8 ], [ -92.09, 46.79 ], [ -92.09, 46.78 ], [ -92.1, 46.78 ], [ -92.1, 46.77 ], [ -92.1, 46.76 ], [ -92.09, 46.75 ], [ -92.1, 46.75 ], [ -92.11, 46.75 ], [ -92.11, 46.76 ], [ -92.12, 46.76 ], [ -92.13, 46.76 ], [ -92.12, 46.75 ], [ -92.13, 46.75 ], [ -92.13, 46.74 ], [ -92.14, 46.75 ], [ -92.15, 46.74 ], [ -92.16, 46.73 ], [ -92.16, 46.72 ], [ -92.17, 46.72 ], [ -92.17, 46.73 ], [ -92.18, 46.73 ], [ -92.18, 46.72 ], [ -92.19, 46.72 ], [ -92.2, 46.72 ], [ -92.2, 46.71 ], [ -92.21, 46.7 ], [ -92.2, 46.69 ], [ -92.21, 46.68 ], [ -92.2, 46.68 ], [ -92.19, 46.68 ], [ -92.2, 46.67 ], [ -92.21, 46.67 ], [ -92.21, 46.66 ], [ -92.22, 46.65 ], [ -92.23, 46.65 ], [ -92.24, 46.65 ], [ -92.25, 46.66 ], [ -92.26, 46.66 ], [ -92.27, 46.66 ], [ -92.28, 46.66 ], [ -92.29, 46.66 ] ] ], [ [ [ -92.09, 46.77 ], [ -92.08, 46.77 ], [ -92.08, 46.76 ], [ -92.09, 46.76 ], [ -92.09, 46.77 ] ] ], [ [ [ -92.07, 46.75 ], [ -92.06, 46.75 ], [ -92.06, 46.74 ], [ -92.07, 46.74 ], [ -92.07, 46.75 ] ] ], [ [ [ -92.05, 46.73 ], [ -92.03, 46.71 ], [ -92.04, 46.72 ], [ -92.05, 46.72 ], [ -92.05, 46.73 ] ] ], [ [ [ -92.16, 46.73 ], [ -92.15, 46.73 ], [ -92.15, 46.72 ], [ -92.16, 46.73 ] ] ], [ [ [ -92.21, 46.66 ], [ -92.2, 46.66 ], [ -92.21, 46.65 ], [ -92.21, 46.66 ] ] ], [ [ [ -92.25, 46.65 ], [ -92.26, 46.65 ], [ -92.26, 46.66 ], [ -92.25, 46.65 ] ] ] ] } },
{ "type": "Feature", "properties": { "WFO": "DLH", "ISSUED": "201804140900", "EXPIRED": "201804160000", "INIT_ISS": "201804132021", "INIT_EXP": "201804151500", "PHENOM": "LS", "GTYPE": "C", "SIG": "W", "ETN": 1, "STATUS": "EXP", "NWS_UGC": "MNZ020", "AREA_KM2": 1658.69580078125, "UPDATED": "201804152353", "HV_NWSLI": null, "HV_SEV": null, "HV_CAUSE": null, "HV_REC": null, "EMERGENC": false, "POLY_BEG": null, "POLY_END": null, "WINDTAG": null, "HAILTAG": null, "TORNTAG": null, "DAMAGTAG": null, "PROD_ID": "201804132021-KDLH-WHUS43-CFWDLH", "FCSTER": "Huyck" }, "geometry": { "type": "Polygon", "coordinates": [ [ [ -91.6, 47.06 ], [ -91.61, 47.06 ], [ -91.62, 47.06 ], [ -91.62, 47.05 ], [ -91.63, 47.05 ], [ -91.63, 47.04 ], [ -91.64, 47.04 ], [ -91.64, 47.03 ], [ -91.65, 47.03 ], [ -91.66, 47.03 ], [ -91.66, 47.02 ], [ -91.66, 47.01 ], [ -91.67, 47.01 ], [ -91.67, 47.02 ], [ -91.68, 47.02 ], [ -91.68, 47.01 ], [ -91.69, 47.01 ], [ -91.7, 47.01 ], [ -91.71, 47.0 ], [ -91.72, 47.0 ], [ -91.72, 46.99 ], [ -91.73, 46.99 ], [ -91.73, 46.98 ], [ -91.74, 46.98 ], [ -91.75, 46.98 ], [ -91.75, 46.97 ], [ -91.76, 46.97 ], [ -91.76, 46.96 ], [ -91.77, 46.96 ], [ -91.77, 46.95 ], [ -91.78, 46.95 ], [ -91.78, 46.94 ], [ -91.79, 46.94 ], [ -91.8, 46.94 ], [ -91.81, 46.93 ], [ -91.83, 46.94 ], [ -91.91, 46.97 ], [ -91.98, 47.0 ], [ -91.99, 47.0 ], [ -91.87, 47.1 ], [ -91.8, 47.15 ], [ -91.79, 47.15 ], [ -91.65, 47.25 ], [ -91.38, 47.42 ], [ -91.18, 47.61 ], [ -91.05, 47.68 ], [ -91.02, 47.7 ], [ -91.02, 47.69 ], [ -91.02, 47.67 ], [ -91.02, 47.66 ], [ -91.02, 47.62 ], [ -91.02, 47.6 ], [ -91.02, 47.59 ], [ -91.02, 47.52 ], [ -91.02, 47.5 ], [ -91.02, 47.46 ], [ -91.03, 47.46 ], [ -91.04, 47.46 ], [ -91.05, 47.46 ], [ -91.05, 47.45 ], [ -91.06, 47.45 ], [ -91.06, 47.44 ], [ -91.07, 47.44 ], [ -91.07, 47.43 ], [ -91.08, 47.43 ], [ -91.09, 47.42 ], [ -91.1, 47.41 ], [ -91.11, 47.41 ], [ -91.12, 47.4 ], [ -91.13, 47.4 ], [ -91.13, 47.39 ], [ -91.14, 47.39 ], [ -91.15, 47.38 ], [ -91.16, 47.38 ], [ -91.16, 47.37 ], [ -91.17, 47.37 ], [ -91.17, 47.36 ], [ -91.18, 47.36 ], [ -91.18, 47.35 ], [ -91.19, 47.35 ], [ -91.18, 47.34 ], [ -91.19, 47.34 ], [ -91.2, 47.34 ], [ -91.2, 47.33 ], [ -91.21, 47.33 ], [ -91.21, 47.32 ], [ -91.22, 47.32 ], [ -91.22, 47.31 ], [ -91.23, 47.31 ], [ -91.24, 47.31 ], [ -91.24, 47.3 ], [ -91.25, 47.3 ], [ -91.25, 47.29 ], [ -91.25, 47.28 ], [ -91.26, 47.28 ], [ -91.26, 47.29 ], [ -91.27, 47.28 ], [ -91.27, 47.27 ], [ -91.28, 47.27 ], [ -91.29, 47.27 ], [ -91.29, 47.26 ], [ -91.3, 47.26 ], [ -91.3, 47.25 ], [ -91.31, 47.25 ], [ -91.32, 47.25 ], [ -91.32, 47.24 ], [ -91.33, 47.24 ], [ -91.33, 47.23 ], [ -91.34, 47.23 ], [ -91.34, 47.22 ], [ -91.35, 47.22 ], [ -91.35, 47.21 ], [ -91.36, 47.21 ], [ -91.37, 47.21 ], [ -91.37, 47.2 ], [ -91.38, 47.2 ], [ -91.38, 47.19 ], [ -91.39, 47.19 ], [ -91.4, 47.19 ], [ -91.4, 47.18 ], [ -91.41, 47.18 ], [ -91.41, 47.17 ], [ -91.42, 47.17 ], [ -91.42, 47.16 ], [ -91.43, 47.17 ], [ -91.43, 47.16 ], [ -91.44, 47.16 ], [ -91.44, 47.15 ], [ -91.45, 47.15 ], [ -91.46, 47.14 ], [ -91.46, 47.13 ], [ -91.47, 47.13 ], [ -91.48, 47.13 ], [ -91.48, 47.12 ], [ -91.49, 47.12 ], [ -91.5, 47.12 ], [ -91.51, 47.12 ], [ -91.51, 47.11 ], [ -91.52, 47.11 ], [ -91.52, 47.1 ], [ -91.53, 47.1 ], [ -91.54, 47.1 ], [ -91.55, 47.1 ], [ -91.55, 47.09 ], [ -91.56, 47.09 ], [ -91.57, 47.09 ], [ -91.58, 47.09 ], [ -91.58, 47.08 ], [ -91.59, 47.07 ], [ -91.6, 47.06 ] ] ] } },
{ "type": "Feature", "properties": { "WFO": "ARX", "ISSUED": "201804141200", "EXPIRED": "201804160000", "INIT_ISS": "201804132104", "INIT_EXP": "201804160000", "PHENOM": "WW", "GTYPE": "C", "SIG": "Y", "ETN": 17, "STATUS": "EXP", "NWS_UGC": "IAZ010", "AREA_KM2": 1783.6578369140625, "UPDATED": "201804152359", "HV_NWSLI": null, "HV_SEV": null, "HV_CAUSE": null, "HV_REC": null, "EMERGENC": false, "POLY_BEG": null, "POLY_END": null, "WINDTAG": null, "HAILTAG": null, "TORNTAG": null, "DAMAGTAG": null, "PROD_ID": "201804132104-KARX-WWUS43-WSWARX", "FCSTER": "04/JM" }, "geometry": { "type": "Polygon", "coordinates": [ [ [ -91.78, 43.5 ], [ -91.74, 43.5 ], [ -91.73, 43.5 ], [ -91.71, 43.5 ], [ -91.7, 43.5 ], [ -91.63, 43.5 ], [ -91.62, 43.5 ], [ -91.61, 43.5 ], [ -91.61, 43.48 ], [ -91.61, 43.44 ], [ -91.61, 43.42 ], [ -91.61, 43.4 ], [ -91.61, 43.37 ], [ -91.61, 43.34 ], [ -91.6, 43.34 ], [ -91.6, 43.32 ], [ -91.6, 43.31 ], [ -91.6, 43.28 ], [ -91.6, 43.26 ], [ -91.6, 43.24 ], [ -91.6, 43.23 ], [ -91.6, 43.15 ], [ -91.61, 43.1 ], [ -91.61, 43.08 ], [ -91.62, 43.08 ], [ -91.65, 43.08 ], [ -91.67, 43.08 ], [ -91.68, 43.08 ], [ -91.72, 43.08 ], [ -91.77, 43.08 ], [ -91.79, 43.08 ], [ -91.86, 43.08 ], [ -91.92, 43.08 ], [ -91.99, 43.08 ], [ -92.08, 43.08 ], [ -92.08, 43.1 ], [ -92.08, 43.12 ], [ -92.08, 43.13 ], [ -92.08, 43.16 ], [ -92.08, 43.17 ], [ -92.08, 43.21 ], [ -92.08, 43.24 ], [ -92.08, 43.36 ], [ -92.08, 43.39 ], [ -92.08, 43.42 ], [ -92.08, 43.44 ], [ -92.08, 43.46 ], [ -92.08, 43.5 ], [ -92.06, 43.5 ], [ -91.99, 43.5 ], [ -91.83, 43.5 ], [ -91.81, 43.5 ], [ -91.78, 43.5 ] ] ] } },
{ "type": "Feature", "properties": { "WFO": "ARX", "ISSUED": "201804141200", "EXPIRED": "201804160000", "INIT_ISS": "201804132104", "INIT_EXP": "201804160000", "PHENOM": "WW", "GTYPE": "C", "SIG": "Y", "ETN": 17, "STATUS": "EXP", "NWS_UGC": "IAZ011", "AREA_KM2": 1702.9215087890625, "UPDATED": "201804152359", "HV_NWSLI": null, "HV_SEV": null, "HV_CAUSE": null, "HV_REC": null, "EMERGENC": false, "POLY_BEG": null, "POLY_END": null, "WINDTAG": null, "HAILTAG": null, "TORNTAG": null, "DAMAGTAG": null, "PROD_ID": "201804132104-KARX-WWUS43-WSWARX", "FCSTER": "04/JM" }, "geometry": { "type": "Polygon", "coordinates": [ [ [ -91.25, 43.5 ], [ -91.23, 43.5 ], [ -91.22, 43.5 ], [ -91.22, 43.49 ], [ -91.22, 43.48 ], [ -91.22, 43.47 ], [ -91.23, 43.46 ], [ -91.23, 43.45 ], [ -91.22, 43.44 ], [ -91.22, 43.43 ], [ -91.21, 43.43 ], [ -91.2, 43.42 ], [ -91.2, 43.41 ], [ -91.2, 43.4 ], [ -91.2, 43.39 ], [ -91.2, 43.38 ], [ -91.21, 43.37 ], [ -91.21, 43.36 ], [ -91.21, 43.35 ], [ -91.2, 43.35 ], [ -91.19, 43.35 ], [ -91.18, 43.35 ], [ -91.17, 43.34 ], [ -91.16, 43.34 ], [ -91.15, 43.33 ], [ -91.14, 43.33 ], [ -91.13, 43.33 ], [ -91.12, 43.32 ], [ -91.11, 43.31 ], [ -91.1, 43.31 ], [ -91.1, 43.3 ], [ -91.09, 43.3 ], [ -91.08, 43.29 ], [ -91.08, 43.28 ], [ -91.07, 43.27 ], [ -91.07, 43.26 ], [ -91.06, 43.26 ], [ -91.06, 43.25 ], [ -91.06, 43.24 ], [ -91.07, 43.24 ], [ -91.08, 43.23 ], [ -91.09, 43.22 ], [ -91.11, 43.21 ], [ -91.11, 43.2 ], [ -91.12, 43.2 ], [ -91.12, 43.19 ], [ -91.13, 43.17 ], [ -91.14, 43.17 ], [ -91.14, 43.16 ], [ -91.15, 43.15 ], [ -91.16, 43.14 ], [ -91.17, 43.14 ], [ -91.18, 43.13 ], [ -91.18, 43.12 ], [ -91.18, 43.11 ], [ -91.18, 43.1 ], [ -91.18, 43.09 ], [ -91.18, 43.08 ], [ -91.22, 43.08 ], [ -91.25, 43.08 ], [ -91.27, 43.08 ], [ -91.3, 43.08 ], [ -91.31, 43.08 ], [ -91.33, 43.08 ], [ -91.43, 43.08 ], [ -91.49, 43.08 ], [ -91.52, 43.08 ], [ -91.61, 43.08 ], [ -91.61, 43.1 ], [ -91.6, 43.15 ], [ -91.6, 43.23 ], [ -91.6, 43.24 ], [ -91.6, 43.26 ], [ -91.6, 43.28 ], [ -91.6, 43.31 ], [ -91.6, 43.32 ], [ -91.6, 43.34 ], [ -91.61, 43.34 ], [ -91.61, 43.37 ], [ -91.61, 43.4 ], [ -91.61, 43.42 ], [ -91.61, 43.44 ], [ -91.61, 43.48 ], [ -91.61, 43.5 ], [ -91.59, 43.5 ], [ -91.53, 43.5 ], [ -91.49, 43.5 ], [ -91.44, 43.5 ], [ -91.4, 43.5 ], [ -91.39, 43.5 ], [ -91.38, 43.5 ], [ -91.37, 43.5 ], [ -91.32, 43.5 ], [ -91.28, 43.5 ], [ -91.26, 43.5 ], [ -91.25, 43.5 ] ] ] } },
{ "type": "Feature", "properties": { "WFO": "DLH", "ISSUED": "201804141800", "EXPIRED": "201804160500", "INIT_ISS": "201804140900", "INIT_EXP": "201804160000", "PHENOM": "WS", "GTYPE": "C", "SIG": "W", "ETN": 12, "STATUS": "EXP", "NWS_UGC": "MNZ038", "AREA_KM2": 3706.325439453125, "UPDATED": "201804160505", "HV_NWSLI": null, "HV_SEV": null, "HV_CAUSE": null, "HV_REC": null, "EMERGENC": false, "POLY_BEG": null, "POLY_END": null, "WINDTAG": null, "HAILTAG": null, "TORNTAG": null, "DAMAGTAG": null, "PROD_ID": "201804140900-KDLH-WWUS43-WSWDLH", "FCSTER": "JTS" }, "geometry": { "type": "Polygon", "coordinates": [ [ [ -92.89, 46.42 ], [ -92.88, 46.42 ], [ -92.87, 46.42 ], [ -92.86, 46.42 ], [ -92.82, 46.42 ], [ -92.8, 46.42 ], [ -92.77, 46.42 ], [ -92.76, 46.42 ], [ -92.73, 46.42 ], [ -92.64, 46.42 ], [ -92.55, 46.42 ], [ -92.5, 46.42 ], [ -92.49, 46.42 ], [ -92.37, 46.42 ], [ -92.31, 46.42 ], [ -92.29, 46.42 ], [ -92.29, 46.32 ], [ -92.29, 46.31 ], [ -92.29, 46.3 ], [ -92.29, 46.28 ], [ -92.29, 46.25 ], [ -92.29, 46.23 ], [ -92.29, 46.19 ], [ -92.29, 46.16 ], [ -92.29, 46.11 ], [ -92.29, 46.1 ], [ -92.29, 46.08 ], [ -92.29, 46.07 ], [ -92.3, 46.07 ], [ -92.31, 46.07 ], [ -92.32, 46.07 ], [ -92.33, 46.07 ], [ -92.33, 46.06 ], [ -92.34, 46.06 ], [ -92.34, 46.05 ], [ -92.34, 46.04 ], [ -92.34, 46.03 ], [ -92.35, 46.03 ], [ -92.35, 46.02 ], [ -92.36, 46.01 ], [ -92.37, 46.01 ], [ -92.38, 46.02 ], [ -92.39, 46.02 ], [ -92.4, 46.02 ], [ -92.41, 46.03 ], [ -92.42, 46.03 ], [ -92.43, 46.02 ], [ -92.44, 46.02 ], [ -92.44, 46.01 ], [ -92.45, 46.01 ], [ -92.45, 46.0 ], [ -92.45, 45.99 ], [ -92.46, 45.99 ], [ -92.46, 45.98 ], [ -92.47, 45.97 ], [ -92.48, 45.97 ], [ -92.48, 45.98 ], [ -92.49, 45.98 ], [ -92.5, 45.98 ], [ -92.51, 45.98 ], [ -92.52, 45.98 ], [ -92.53, 45.98 ], [ -92.54, 45.98 ], [ -92.54, 45.97 ], [ -92.55, 45.97 ], [ -92.55, 45.96 ], [ -92.55, 45.95 ], [ -92.56, 45.95 ], [ -92.57, 45.95 ], [ -92.58, 45.95 ], [ -92.59, 45.94 ], [ -92.6, 45.94 ], [ -92.61, 45.94 ], [ -92.62, 45.93 ], [ -92.62, 45.94 ], [ -92.63, 45.93 ], [ -92.64, 45.93 ], [ -92.64, 45.92 ], [ -92.65, 45.92 ], [ -92.66, 45.92 ], [ -92.67, 45.92 ], [ -92.67, 45.91 ], [ -92.68, 45.91 ], [ -92.68, 45.9 ], [ -92.69, 45.9 ], [ -92.7, 45.9 ], [ -92.71, 45.9 ], [ -92.71, 45.89 ], [ -92.72, 45.89 ], [ -92.72, 45.88 ], [ -92.73, 45.88 ], [ -92.73, 45.87 ], [ -92.74, 45.87 ], [ -92.74, 45.86 ], [ -92.74, 45.85 ], [ -92.74, 45.84 ], [ -92.75, 45.84 ], [ -92.76, 45.84 ], [ -92.76, 45.83 ], [ -92.77, 45.83 ], [ -92.76, 45.82 ], [ -92.76, 45.81 ], [ -92.76, 45.8 ], [ -92.77, 45.8 ], [ -92.78, 45.79 ], [ -92.78, 45.78 ], [ -92.78, 45.77 ], [ -92.79, 45.76 ], [ -92.8, 45.75 ], [ -92.81, 45.75 ], [ -92.81, 45.74 ], [ -92.82, 45.74 ], [ -92.83, 45.74 ], [ -92.83, 45.73 ], [ -92.84, 45.73 ], [ -92.85, 45.73 ], [ -92.91, 45.73 ], [ -92.93, 45.73 ], [ -92.98, 45.73 ], [ -93.0, 45.73 ], [ -93.04, 45.73 ], [ -93.05, 45.73 ], [ -93.06, 45.73 ], [ -93.12, 45.73 ], [ -93.14, 45.73 ], [ -93.14, 45.74 ], [ -93.14, 45.75 ], [ -93.14, 45.79 ], [ -93.14, 45.85 ], [ -93.14, 45.87 ], [ -93.14, 45.9 ], [ -93.14, 45.92 ], [ -93.14, 45.93 ], [ -93.14, 45.96 ], [ -93.14, 45.98 ], [ -93.13, 45.98 ], [ -93.12, 45.98 ], [ -93.1, 45.98 ], [ -93.09, 45.98 ], [ -93.06, 45.98 ], [ -93.06, 46.01 ], [ -93.06, 46.05 ], [ -93.06, 46.07 ], [ -93.05, 46.14 ], [ -93.05, 46.15 ], [ -93.05, 46.16 ], [ -93.05, 46.17 ], [ -93.05, 46.18 ], [ -93.05, 46.23 ], [ -93.05, 46.25 ], [ -93.05, 46.32 ], [ -93.05, 46.34 ], [ -93.05, 46.37 ], [ -93.05, 46.39 ], [ -93.05, 46.42 ], [ -92.96, 46.42 ], [ -92.89, 46.42 ] ] ] } },
{ "type": "Feature", "properties": { "WFO": "ARX", "ISSUED": "201804141800", "EXPIRED": "201804160000", "INIT_ISS": "201804132104", "INIT_EXP": "201804160000", "PHENOM": "WW", "GTYPE": "C", "SIG": "Y", "ETN": 17, "STATUS": "EXP", "NWS_UGC": "IAZ029", "AREA_KM2": 1891.1092529296875, "UPDATED": "201804152359", "HV_NWSLI": null, "HV_SEV": null, "HV_CAUSE": null, "HV_REC": null, "EMERGENC": false, "POLY_BEG": null, "POLY_END": null, "WINDTAG": null, "HAILTAG": null, "TORNTAG": null, "DAMAGTAG": null, "PROD_ID": "201804132104-KARX-WWUS43-WSWARX", "FCSTER": "04/JM" }, "geometry": { "type": "Polygon", "coordinates": [ [ [ -92.08, 43.08 ], [ -91.99, 43.08 ], [ -91.92, 43.08 ], [ -91.86, 43.08 ], [ -91.79, 43.08 ], [ -91.77, 43.08 ], [ -91.72, 43.08 ], [ -91.68, 43.08 ], [ -91.67, 43.08 ], [ -91.65, 43.08 ], [ -91.62, 43.08 ], [ -91.61, 43.08 ], [ -91.61, 43.06 ], [ -91.61, 43.02 ], [ -91.61, 43.01 ], [ -91.61, 43.0 ], [ -91.61, 42.99 ], [ -91.61, 42.94 ], [ -91.61, 42.93 ], [ -91.61, 42.92 ], [ -91.61, 42.82 ], [ -91.61, 42.81 ], [ -91.61, 42.8 ], [ -91.61, 42.76 ], [ -91.61, 42.74 ], [ -91.61, 42.7 ], [ -91.61, 42.68 ], [ -91.61, 42.65 ], [ -91.61, 42.64 ], [ -91.64, 42.64 ], [ -91.69, 42.64 ], [ -91.71, 42.64 ], [ -91.75, 42.64 ], [ -91.81, 42.64 ], [ -91.82, 42.64 ], [ -91.85, 42.64 ], [ -91.88, 42.64 ], [ -91.89, 42.64 ], [ -91.9, 42.64 ], [ -91.91, 42.64 ], [ -91.93, 42.64 ], [ -91.94, 42.64 ], [ -91.95, 42.64 ], [ -91.96, 42.64 ], [ -92.0, 42.64 ], [ -92.08, 42.64 ], [ -92.08, 42.69 ], [ -92.08, 42.7 ], [ -92.08, 42.72 ], [ -92.08, 42.76 ], [ -92.08, 42.82 ], [ -92.08, 42.83 ], [ -92.08, 42.87 ], [ -92.08, 42.89 ], [ -92.08, 42.91 ], [ -92.08, 42.92 ], [ -92.08, 42.97 ], [ -92.08, 42.99 ], [ -92.08, 43.01 ], [ -92.08, 43.02 ], [ -92.08, 43.04 ], [ -92.08, 43.08 ] ] ] } },
{ "type": "Feature", "properties": { "WFO": "ARX", "ISSUED": "201804141800", "EXPIRED": "201804160000", "INIT_ISS": "201804132104", "INIT_EXP": "201804160000", "PHENOM": "WW", "GTYPE": "C", "SIG": "Y", "ETN": 17, "STATUS": "EXP", "NWS_UGC": "IAZ030", "AREA_KM2": 2049.746826171875, "UPDATED": "201804152359", "HV_NWSLI": null, "HV_SEV": null, "HV_CAUSE": null, "HV_REC": null, "EMERGENC": false, "POLY_BEG": null, "POLY_END": null, "WINDTAG": null, "HAILTAG": null, "TORNTAG": null, "DAMAGTAG": null, "PROD_ID": "201804132104-KARX-WWUS43-WSWARX", "FCSTER": "04/JM" }, "geometry": { "type": "Polygon", "coordinates": [ [ [ -91.52, 43.08 ], [ -91.49, 43.08 ], [ -91.43, 43.08 ], [ -91.33, 43.08 ], [ -91.31, 43.08 ], [ -91.3, 43.08 ], [ -91.27, 43.08 ], [ -91.25, 43.08 ], [ -91.22, 43.08 ], [ -91.18, 43.08 ], [ -91.18, 43.07 ], [ -91.18, 43.06 ], [ -91.18, 43.04 ], [ -91.17, 43.04 ], [ -91.17, 43.03 ], [ -91.17, 43.02 ], [ -91.16, 43.0 ], [ -91.16, 42.99 ], [ -91.16, 42.98 ], [ -91.15, 42.97 ], [ -91.15, 42.96 ], [ -91.15, 42.95 ], [ -91.15, 42.94 ], [ -91.15, 42.93 ], [ -91.14, 42.93 ], [ -91.14, 42.92 ], [ -91.15, 42.92 ], [ -91.15, 42.91 ], [ -91.14, 42.91 ], [ -91.14, 42.9 ], [ -91.13, 42.9 ], [ -91.12, 42.9 ], [ -91.11, 42.89 ], [ -91.1, 42.89 ], [ -91.1, 42.88 ], [ -91.1, 42.87 ], [ -91.1, 42.86 ], [ -91.09, 42.85 ], [ -91.09, 42.84 ], [ -91.1, 42.84 ], [ -91.09, 42.83 ], [ -91.08, 42.83 ], [ -91.08, 42.82 ], [ -91.08, 42.81 ], [ -91.08, 42.8 ], [ -91.07, 42.79 ], [ -91.07, 42.78 ], [ -91.07, 42.77 ], [ -91.06, 42.76 ], [ -91.07, 42.75 ], [ -91.06, 42.75 ], [ -91.05, 42.74 ], [ -91.04, 42.74 ], [ -91.03, 42.74 ], [ -91.03, 42.73 ], [ -91.03, 42.72 ], [ -91.02, 42.72 ], [ -91.01, 42.72 ], [ -91.0, 42.72 ], [ -90.99, 42.71 ], [ -90.99, 42.7 ], [ -90.98, 42.7 ], [ -90.97, 42.7 ], [ -90.97, 42.69 ], [ -90.96, 42.69 ], [ -90.95, 42.69 ], [ -90.95, 42.68 ], [ -90.94, 42.68 ], [ -90.93, 42.68 ], [ -90.92, 42.69 ], [ -90.92, 42.68 ], [ -90.91, 42.68 ], [ -90.9, 42.68 ], [ -90.9, 42.65 ], [ -90.97, 42.65 ], [ -91.01, 42.65 ], [ -91.03, 42.65 ], [ -91.04, 42.65 ], [ -91.13, 42.65 ], [ -91.21, 42.65 ], [ -91.23, 42.65 ], [ -91.28, 42.65 ], [ -91.38, 42.64 ], [ -91.41, 42.64 ], [ -91.42, 42.64 ], [ -91.43, 42.64 ], [ -91.45, 42.64 ], [ -91.46, 42.64 ], [ -91.47, 42.64 ], [ -91.49, 42.64 ], [ -91.54, 42.64 ], [ -91.55, 42.64 ], [ -91.61, 42.64 ], [ -91.61, 42.65 ], [ -91.61, 42.68 ], [ -91.61, 42.7 ], [ -91.61, 42.74 ], [ -91.61, 42.76 ], [ -91.61, 42.8 ], [ -91.61, 42.81 ], [ -91.61, 42.82 ], [ -91.61, 42.92 ], [ -91.61, 42.93 ], [ -91.61, 42.94 ], [ -91.61, 42.99 ], [ -91.61, 43.0 ], [ -91.61, 43.01 ], [ -91.61, 43.02 ], [ -91.61, 43.06 ], [ -91.61, 43.08 ], [ -91.52, 43.08 ] ] ] } },
{ "type": "Feature", "properties": { "WFO": "MPX", "ISSUED": "201804141800", "EXPIRED": "201804160500", "INIT_ISS": "201804132012", "INIT_EXP": "201804151200", "PHENOM": "WW", "GTYPE": "C", "SIG": "Y", "ETN": 18, "STATUS": "EXP", "NWS_UGC": "MNZ043", "AREA_KM2": 2979.83251953125, "UPDATED": "201804160457", "HV_NWSLI": null, "HV_SEV": null, "HV_CAUSE": null, "HV_REC": null, "EMERGENC": false, "POLY_BEG": null, "POLY_END": null, "WINDTAG": null, "HAILTAG": null, "TORNTAG": null, "DAMAGTAG": null, "PROD_ID": "201804132012-KMPX-WWUS43-WSWMPX", "FCSTER": "jrb" }, "geometry": { "type": "Polygon", "coordinates": [ [ [ -94.65, 46.34 ], [ -94.64, 46.34 ], [ -94.63, 46.34 ], [ -94.63, 46.33 ], [ -94.62, 46.33 ], [ -94.61, 46.32 ], [ -94.61, 46.33 ], [ -94.6, 46.33 ], [ -94.59, 46.33 ], [ -94.59, 46.32 ], [ -94.58, 46.32 ], [ -94.57, 46.32 ], [ -94.57, 46.31 ], [ -94.56, 46.31 ], [ -94.55, 46.31 ], [ -94.55, 46.3 ], [ -94.54, 46.3 ], [ -94.53, 46.3 ], [ -94.52, 46.31 ], [ -94.51, 46.31 ], [ -94.5, 46.31 ], [ -94.5, 46.32 ], [ -94.49, 46.31 ], [ -94.48, 46.32 ], [ -94.47, 46.32 ], [ -94.47, 46.33 ], [ -94.46, 46.33 ], [ -94.45, 46.33 ], [ -94.44, 46.33 ], [ -94.43, 46.33 ], [ -94.42, 46.33 ], [ -94.41, 46.33 ], [ -94.41, 46.32 ], [ -94.4, 46.32 ], [ -94.4, 46.31 ], [ -94.39, 46.31 ], [ -94.39, 46.3 ], [ -94.38, 46.31 ], [ -94.38, 46.3 ], [ -94.37, 46.3 ], [ -94.36, 46.3 ], [ -94.35, 46.3 ], [ -94.35, 46.29 ], [ -94.34, 46.29 ], [ -94.35, 46.28 ], [ -94.34, 46.28 ], [ -94.34, 46.27 ], [ -94.35, 46.27 ], [ -94.35, 46.26 ], [ -94.36, 46.25 ], [ -94.37, 46.25 ], [ -94.37, 46.24 ], [ -94.38, 46.24 ], [ -94.39, 46.24 ], [ -94.39, 46.23 ], [ -94.39, 46.22 ], [ -94.4, 46.21 ], [ -94.39, 46.21 ], [ -94.39, 46.2 ], [ -94.38, 46.19 ], [ -94.37, 46.19 ], [ -94.37, 46.18 ], [ -94.37, 46.17 ], [ -94.37, 46.16 ], [ -94.36, 46.16 ], [ -94.35, 46.16 ], [ -94.31, 46.16 ], [ -94.3, 46.16 ], [ -94.24, 46.16 ], [ -94.22, 46.16 ], [ -94.2, 46.16 ], [ -94.17, 46.16 ], [ -94.15, 46.16 ], [ -94.1, 46.16 ], [ -94.06, 46.16 ], [ -94.01, 46.16 ], [ -94.0, 46.16 ], [ -93.97, 46.16 ], [ -93.93, 46.16 ], [ -93.91, 46.16 ], [ -93.9, 46.16 ], [ -93.88, 46.16 ], [ -93.86, 46.16 ], [ -93.83, 46.16 ], [ -93.81, 46.16 ], [ -93.81, 46.15 ], [ -93.81, 46.14 ], [ -93.81, 46.12 ], [ -93.81, 46.08 ], [ -93.81, 46.03 ], [ -93.81, 45.98 ], [ -93.77, 45.98 ], [ -93.77, 45.95 ], [ -93.77, 45.94 ], [ -93.77, 45.92 ], [ -93.77, 45.91 ], [ -93.77, 45.88 ], [ -93.77, 45.86 ], [ -93.76, 45.82 ], [ -93.83, 45.82 ], [ -93.85, 45.82 ], [ -93.87, 45.82 ], [ -93.88, 45.82 ], [ -93.89, 45.82 ], [ -93.9, 45.82 ], [ -93.93, 45.82 ], [ -93.94, 45.82 ], [ -93.99, 45.82 ], [ -94.01, 45.82 ], [ -94.07, 45.82 ], [ -94.12, 45.82 ], [ -94.18, 45.82 ], [ -94.21, 45.82 ], [ -94.3, 45.82 ], [ -94.35, 45.82 ], [ -94.34, 45.81 ], [ -94.33, 45.8 ], [ -94.32, 45.8 ], [ -94.31, 45.8 ], [ -94.31, 45.79 ], [ -94.3, 45.79 ], [ -94.3, 45.78 ], [ -94.32, 45.78 ], [ -94.37, 45.78 ], [ -94.39, 45.78 ], [ -94.44, 45.78 ], [ -94.45, 45.78 ], [ -94.48, 45.78 ], [ -94.48, 45.77 ], [ -94.51, 45.77 ], [ -94.54, 45.77 ], [ -94.56, 45.77 ], [ -94.57, 45.77 ], [ -94.58, 45.77 ], [ -94.59, 45.77 ], [ -94.61, 45.77 ], [ -94.64, 45.77 ], [ -94.64, 45.81 ], [ -94.64, 45.85 ], [ -94.64, 45.86 ], [ -94.64, 45.87 ], [ -94.64, 45.89 ], [ -94.64, 45.9 ], [ -94.64, 45.91 ], [ -94.64, 45.92 ], [ -94.64, 45.93 ], [ -94.65, 45.93 ], [ -94.65, 45.96 ], [ -94.65, 46.0 ], [ -94.65, 46.02 ], [ -94.65, 46.05 ], [ -94.65, 46.06 ], [ -94.65, 46.09 ], [ -94.65, 46.14 ], [ -94.65, 46.16 ], [ -94.65, 46.17 ], [ -94.65, 46.19 ], [ -94.65, 46.24 ], [ -94.65, 46.25 ], [ -94.65, 46.28 ], [ -94.65, 46.3 ], [ -94.65, 46.32 ], [ -94.65, 46.34 ] ] ] } },
{ "type": "Feature", "properties": { "WFO": "ARX", "ISSUED": "201804141800", "EXPIRED": "201804160300", "INIT_ISS": "201804132104", "INIT_EXP": "201804151800", "PHENOM": "WS", "GTYPE": "C", "SIG": "W", "ETN": 8, "STATUS": "EXP", "NWS_UGC": "MNZ079", "AREA_KM2": 1421.1058349609375, "UPDATED": "201804160258", "HV_NWSLI": null, "HV_SEV": null, "HV_CAUSE": null, "HV_REC": null, "EMERGENC": false, "POLY_BEG": null, "POLY_END": null, "WINDTAG": null, "HAILTAG": null, "TORNTAG": null, "DAMAGTAG": null, "PROD_ID": "201804132104-KARX-WWUS43-WSWARX", "FCSTER": "04/JM" }, "geometry": { "type": "Polygon", "coordinates": [ [ [ -92.41, 44.46 ], [ -92.4, 44.46 ], [ -92.32, 44.45 ], [ -92.25, 44.45 ], [ -92.24, 44.45 ], [ -92.23, 44.45 ], [ -92.23, 44.44 ], [ -92.22, 44.44 ], [ -92.21, 44.44 ], [ -92.2, 44.43 ], [ -92.17, 44.43 ], [ -92.16, 44.43 ], [ -92.14, 44.42 ], [ -92.12, 44.42 ], [ -92.11, 44.42 ], [ -92.11, 44.41 ], [ -92.1, 44.41 ], [ -92.08, 44.41 ], [ -92.08, 44.4 ], [ -92.07, 44.4 ], [ -92.06, 44.4 ], [ -92.05, 44.4 ], [ -92.05, 44.39 ], [ -92.04, 44.39 ], [ -92.03, 44.39 ], [ -92.02, 44.38 ], [ -92.01, 44.38 ], [ -92.0, 44.38 ], [ -91.99, 44.37 ], [ -91.98, 44.37 ], [ -91.97, 44.37 ], [ -91.97, 44.36 ], [ -91.96, 44.36 ], [ -91.95, 44.35 ], [ -91.94, 44.34 ], [ -91.93, 44.34 ], [ -91.92, 44.33 ], [ -91.92, 44.32 ], [ -91.91, 44.31 ], [ -91.92, 44.3 ], [ -91.92, 44.29 ], [ -91.91, 44.28 ], [ -91.9, 44.28 ], [ -91.9, 44.27 ], [ -91.89, 44.26 ], [ -91.89, 44.25 ], [ -91.89, 44.24 ], [ -91.89, 44.23 ], [ -91.88, 44.22 ], [ -91.88, 44.21 ], [ -91.88, 44.2 ], [ -91.87, 44.2 ], [ -91.86, 44.19 ], [ -91.9, 44.19 ], [ -91.92, 44.19 ], [ -91.95, 44.19 ], [ -92.08, 44.19 ], [ -92.08, 44.18 ], [ -92.08, 44.15 ], [ -92.08, 44.13 ], [ -92.08, 44.12 ], [ -92.08, 44.11 ], [ -92.13, 44.11 ], [ -92.27, 44.11 ], [ -92.32, 44.11 ], [ -92.32, 44.19 ], [ -92.34, 44.19 ], [ -92.35, 44.19 ], [ -92.38, 44.19 ], [ -92.42, 44.19 ], [ -92.44, 44.19 ], [ -92.46, 44.19 ], [ -92.49, 44.19 ], [ -92.5, 44.19 ], [ -92.51, 44.19 ], [ -92.52, 44.19 ], [ -92.54, 44.19 ], [ -92.55, 44.19 ], [ -92.55, 44.27 ], [ -92.55, 44.29 ], [ -92.55, 44.31 ], [ -92.55, 44.33 ], [ -92.55, 44.37 ], [ -92.5, 44.37 ], [ -92.44, 44.37 ], [ -92.43, 44.37 ], [ -92.43, 44.45 ], [ -92.43, 44.46 ], [ -92.42, 44.46 ], [ -92.41, 44.46 ] ] ] } },
{ "type": "Feature", "properties": { "WFO": "ARX", "ISSUED": "201804141800", "EXPIRED": "201804160000", "INIT_ISS": "201804132104", "INIT_EXP": "201804151800", "PHENOM": "WS", "GTYPE": "C", "SIG": "W", "ETN": 8, "STATUS": "EXP", "NWS_UGC": "MNZ088", "AREA_KM2": 1658.4879150390625, "UPDATED": "201804152359", "HV_NWSLI": null, "HV_SEV": null, "HV_CAUSE": null, "HV_REC": null, "EMERGENC": false, "POLY_BEG": null, "POLY_END": null, "WINDTAG": null, "HAILTAG": null, "TORNTAG": null, "DAMAGTAG": null, "PROD_ID": "201804132104-KARX-WWUS43-WSWARX", "FCSTER": "04/JM" }, "geometry": { "type": "Polygon", "coordinates": [ [ [ -91.86, 44.19 ], [ -91.85, 44.19 ], [ -91.84, 44.18 ], [ -91.83, 44.18 ], [ -91.82, 44.16 ], [ -91.81, 44.16 ], [ -91.8, 44.15 ], [ -91.78, 44.15 ], [ -91.77, 44.15 ], [ -91.77, 44.14 ], [ -91.76, 44.14 ], [ -91.75, 44.14 ], [ -91.75, 44.13 ], [ -91.74, 44.13 ], [ -91.73, 44.13 ], [ -91.72, 44.13 ], [ -91.71, 44.12 ], [ -91.71, 44.11 ], [ -91.71, 44.1 ], [ -91.7, 44.1 ], [ -91.69, 44.1 ], [ -91.68, 44.1 ], [ -91.67, 44.09 ], [ -91.66, 44.08 ], [ -91.66, 44.07 ], [ -91.65, 44.07 ], [ -91.65, 44.06 ], [ -91.64, 44.06 ], [ -91.63, 44.06 ], [ -91.62, 44.05 ], [ -91.61, 44.05 ], [ -91.6, 44.04 ], [ -91.6, 44.03 ], [ -91.59, 44.03 ], [ -91.58, 44.03 ], [ -91.57, 44.03 ], [ -91.56, 44.03 ], [ -91.56, 44.02 ], [ -91.55, 44.02 ], [ -91.53, 44.02 ], [ -91.52, 44.02 ], [ -91.51, 44.02 ], [ -91.5, 44.02 ], [ -91.5, 44.01 ], [ -91.49, 44.01 ], [ -91.48, 44.01 ], [ -91.47, 44.01 ], [ -91.46, 44.01 ], [ -91.45, 44.01 ], [ -91.44, 44.0 ], [ -91.43, 44.0 ], [ -91.43, 43.99 ], [ -91.42, 43.98 ], [ -91.41, 43.97 ], [ -91.41, 43.96 ], [ -91.4, 43.96 ], [ -91.39, 43.96 ], [ -91.39, 43.95 ], [ -91.38, 43.94 ], [ -91.37, 43.94 ], [ -91.36, 43.93 ], [ -91.36, 43.92 ], [ -91.35, 43.92 ], [ -91.35, 43.91 ], [ -91.34, 43.91 ], [ -91.34, 43.9 ], [ -91.33, 43.9 ], [ -91.33, 43.89 ], [ -91.32, 43.89 ], [ -91.32, 43.88 ], [ -91.31, 43.88 ], [ -91.31, 43.87 ], [ -91.31, 43.86 ], [ -91.3, 43.86 ], [ -91.29, 43.85 ], [ -91.35, 43.85 ], [ -91.36, 43.85 ], [ -91.38, 43.85 ], [ -91.49, 43.85 ], [ -91.5, 43.85 ], [ -91.63, 43.85 ], [ -91.72, 43.85 ], [ -91.73, 43.85 ], [ -91.74, 43.85 ], [ -91.75, 43.85 ], [ -91.79, 43.85 ], [ -91.8, 43.85 ], [ -91.83, 43.85 ], [ -91.87, 43.85 ], [ -91.88, 43.85 ], [ -91.91, 43.85 ], [ -91.92, 43.85 ], [ -91.96, 43.85 ], [ -92.07, 43.85 ], [ -92.08, 43.85 ], [ -92.08, 43.89 ], [ -92.08, 43.93 ], [ -92.08, 43.95 ], [ -92.08, 43.98 ], [ -92.08, 44.01 ], [ -92.08, 44.02 ], [ -92.08, 44.03 ], [ -92.08, 44.05 ], [ -92.08, 44.11 ], [ -92.08, 44.12 ], [ -92.08, 44.13 ], [ -92.08, 44.15 ], [ -92.08, 44.18 ], [ -92.08, 44.19 ], [ -91.95, 44.19 ], [ -91.92, 44.19 ], [ -91.9, 44.19 ], [ -91.86, 44.19 ] ] ] } },
{ "type": "Feature", "properties": { "WFO": "ARX", "ISSUED": "201804141800", "EXPIRED": "201804160000", "INIT_ISS": "201804132104", "INIT_EXP": "201804160000", "PHENOM": "WW", "GTYPE": "C", "SIG": "Y", "ETN": 17, "STATUS": "EXP", "NWS_UGC": "IAZ019", "AREA_KM2": 1306.843017578125, "UPDATED": "201804152359", "HV_NWSLI": null, "HV_SEV": null, "HV_CAUSE": null, "HV_REC": null, "EMERGENC": false, "POLY_BEG": null, "POLY_END": null, "WINDTAG": null, "HAILTAG": null, "TORNTAG": null, "DAMAGTAG": null, "PROD_ID": "201804132104-KARX-WWUS43-WSWARX", "FCSTER": "04/JM" }, "geometry": { "type": "Polygon", "coordinates": [ [ [ -92.26, 43.21 ], [ -92.24, 43.21 ], [ -92.18, 43.21 ], [ -92.12, 43.21 ], [ -92.09, 43.21 ], [ -92.08, 43.21 ], [ -92.08, 43.17 ], [ -92.08, 43.16 ], [ -92.08, 43.13 ], [ -92.08, 43.12 ], [ -92.08, 43.1 ], [ -92.08, 43.08 ], [ -92.08, 43.04 ], [ -92.08, 43.02 ], [ -92.08, 43.01 ], [ -92.08, 42.99 ], [ -92.08, 42.97 ], [ -92.08, 42.92 ], [ -92.08, 42.91 ], [ -92.15, 42.91 ], [ -92.23, 42.91 ], [ -92.31, 42.91 ], [ -92.32, 42.91 ], [ -92.44, 42.91 ], [ -92.49, 42.91 ], [ -92.5, 42.91 ], [ -92.55, 42.91 ], [ -92.55, 42.92 ], [ -92.55, 42.96 ], [ -92.55, 42.97 ], [ -92.55, 43.0 ], [ -92.55, 43.01 ], [ -92.55, 43.12 ], [ -92.55, 43.17 ], [ -92.55, 43.18 ], [ -92.55, 43.21 ], [ -92.53, 43.21 ], [ -92.51, 43.21 ], [ -92.48, 43.21 ], [ -92.46, 43.21 ], [ -92.43, 43.21 ], [ -92.41, 43.21 ], [ -92.37, 43.21 ], [ -92.36, 43.21 ], [ -92.32, 43.21 ], [ -92.3, 43.21 ], [ -92.28, 43.21 ], [ -92.26, 43.21 ] ] ] } },
{ "type": "Feature", "properties": { "WFO": "ARX", "ISSUED": "201804142016", "EXPIRED": "201804160000", "INIT_ISS": "201804142016", "INIT_EXP": "201804160000", "PHENOM": "WS", "GTYPE": "C", "SIG": "W", "ETN": 8, "STATUS": "EXP", "NWS_UGC": "MNZ096", "AREA_KM2": 1470.706787109375, "UPDATED": "201804152359", "HV_NWSLI": null, "HV_SEV": null, "HV_CAUSE": null, "HV_REC": null, "EMERGENC": false, "POLY_BEG": null, "POLY_END": null, "WINDTAG": null, "HAILTAG": null, "TORNTAG": null, "DAMAGTAG": null, "PROD_ID": "201804142016-KARX-WWUS43-WSWARX", "FCSTER": "04" }, "geometry": { "type": "Polygon", "coordinates": [ [ [ -91.29, 43.85 ], [ -91.28, 43.84 ], [ -91.28, 43.83 ], [ -91.27, 43.82 ], [ -91.27, 43.81 ], [ -91.27, 43.8 ], [ -91.26, 43.8 ], [ -91.26, 43.79 ], [ -91.24, 43.77 ], [ -91.25, 43.77 ], [ -91.25, 43.75 ], [ -91.26, 43.75 ], [ -91.26, 43.74 ], [ -91.26, 43.73 ], [ -91.26, 43.72 ], [ -91.27, 43.71 ], [ -91.27, 43.7 ], [ -91.27, 43.69 ], [ -91.27, 43.68 ], [ -91.27, 43.67 ], [ -91.27, 43.65 ], [ -91.26, 43.65 ], [ -91.26, 43.64 ], [ -91.27, 43.63 ], [ -91.27, 43.62 ], [ -91.27, 43.61 ], [ -91.26, 43.61 ], [ -91.26, 43.6 ], [ -91.25, 43.6 ], [ -91.24, 43.59 ], [ -91.23, 43.59 ], [ -91.23, 43.58 ], [ -91.23, 43.57 ], [ -91.23, 43.56 ], [ -91.24, 43.55 ], [ -91.24, 43.54 ], [ -91.24, 43.53 ], [ -91.23, 43.53 ], [ -91.23, 43.52 ], [ -91.22, 43.52 ], [ -91.22, 43.51 ], [ -91.22, 43.5 ], [ -91.23, 43.5 ], [ -91.25, 43.5 ], [ -91.26, 43.5 ], [ -91.28, 43.5 ], [ -91.32, 43.5 ], [ -91.37, 43.5 ], [ -91.38, 43.5 ], [ -91.39, 43.5 ], [ -91.4, 43.5 ], [ -91.44, 43.5 ], [ -91.49, 43.5 ], [ -91.53, 43.5 ], [ -91.59, 43.5 ], [ -91.61, 43.5 ], [ -91.62, 43.5 ], [ -91.63, 43.5 ], [ -91.7, 43.5 ], [ -91.71, 43.5 ], [ -91.73, 43.5 ], [ -91.73, 43.51 ], [ -91.73, 43.52 ], [ -91.73, 43.58 ], [ -91.73, 43.6 ], [ -91.73, 43.62 ], [ -91.73, 43.64 ], [ -91.73, 43.68 ], [ -91.73, 43.74 ], [ -91.73, 43.79 ], [ -91.73, 43.84 ], [ -91.73, 43.85 ], [ -91.72, 43.85 ], [ -91.63, 43.85 ], [ -91.5, 43.85 ], [ -91.49, 43.85 ], [ -91.38, 43.85 ], [ -91.36, 43.85 ], [ -91.35, 43.85 ], [ -91.29, 43.85 ] ] ] } },
{ "type": "Feature", "properties": { "WFO": "MPX", "ISSUED": "201804142022", "EXPIRED": "201804150600", "INIT_ISS": "201804142022", "INIT_EXP": "201804150600", "PHENOM": "WW", "GTYPE": "C", "SIG": "Y", "ETN": 18, "STATUS": "CON", "NWS_UGC": "MNZ055", "AREA_KM2": 1944.1646728515625, "UPDATED": "201804150034", "HV_NWSLI": null, "HV_SEV": null, "HV_CAUSE": null, "HV_REC": null, "EMERGENC": false, "POLY_BEG": null, "POLY_END": null, "WINDTAG": null, "HAILTAG": null, "TORNTAG": null, "DAMAGTAG": null, "PROD_ID": "201804142022-KMPX-WWUS43-WSWMPX", "FCSTER": "jrb" }, "geometry": { "type": "Polygon", "coordinates": [ [ [ -95.38, 45.41 ], [ -95.37, 45.41 ], [ -95.36, 45.41 ], [ -95.34, 45.41 ], [ -95.3, 45.41 ], [ -95.26, 45.41 ], [ -95.25, 45.4 ], [ -95.26, 45.37 ], [ -95.26, 45.33 ], [ -95.26, 45.31 ], [ -95.25, 45.29 ], [ -95.25, 45.25 ], [ -95.26, 45.24 ], [ -95.25, 45.24 ], [ -95.25, 45.23 ], [ -95.25, 45.22 ], [ -95.25, 45.21 ], [ -95.25, 45.2 ], [ -95.25, 45.18 ], [ -95.25, 45.15 ], [ -95.37, 45.15 ], [ -95.51, 45.15 ], [ -95.53, 45.15 ], [ -95.59, 45.15 ], [ -95.6, 45.15 ], [ -95.64, 45.15 ], [ -95.7, 45.15 ], [ -95.76, 45.15 ], [ -95.78, 45.15 ], [ -95.86, 45.15 ], [ -95.9, 45.15 ], [ -95.92, 45.15 ], [ -95.94, 45.15 ], [ -95.98, 45.15 ], [ -96.03, 45.15 ], [ -96.04, 45.15 ], [ -96.04, 45.16 ], [ -96.05, 45.16 ], [ -96.06, 45.16 ], [ -96.07, 45.16 ], [ -96.08, 45.17 ], [ -96.09, 45.17 ], [ -96.1, 45.17 ], [ -96.1, 45.18 ], [ -96.1, 45.21 ], [ -96.1, 45.22 ], [ -96.1, 45.24 ], [ -96.12, 45.24 ], [ -96.12, 45.25 ], [ -96.12, 45.3 ], [ -96.12, 45.32 ], [ -96.12, 45.33 ], [ -96.12, 45.34 ], [ -96.12, 45.35 ], [ -96.12, 45.36 ], [ -96.12, 45.39 ], [ -96.12, 45.4 ], [ -96.12, 45.41 ], [ -96.1, 45.41 ], [ -96.0, 45.41 ], [ -95.98, 45.41 ], [ -95.88, 45.41 ], [ -95.85, 45.41 ], [ -95.77, 45.41 ], [ -95.75, 45.41 ], [ -95.64, 45.41 ], [ -95.52, 45.41 ], [ -95.5, 45.41 ], [ -95.45, 45.41 ], [ -95.4, 45.41 ], [ -95.38, 45.41 ] ] ] } },
{ "type": "Feature", "properties": { "WFO": "MPX", "ISSUED": "201804142022", "EXPIRED": "201804150600", "INIT_ISS": "201804142022", "INIT_EXP": "201804150600", "PHENOM": "WW", "GTYPE": "C", "SIG": "Y", "ETN": 18, "STATUS": "CON", "NWS_UGC": "MNZ048", "AREA_KM2": 1853.3970947265625, "UPDATED": "201804150034", "HV_NWSLI": null, "HV_SEV": null, "HV_CAUSE": null, "HV_REC": null, "EMERGENC": false, "POLY_BEG": null, "POLY_END": null, "WINDTAG": null, "HAILTAG": null, "TORNTAG": null, "DAMAGTAG": null, "PROD_ID": "201804142022-KMPX-WWUS43-WSWMPX", "FCSTER": "jrb" }, "geometry": { "type": "Polygon", "coordinates": [ [ [ -95.66, 45.76 ], [ -95.65, 45.76 ], [ -95.64, 45.76 ], [ -95.62, 45.76 ], [ -95.61, 45.76 ], [ -95.52, 45.76 ], [ -95.51, 45.76 ], [ -95.5, 45.76 ], [ -95.47, 45.76 ], [ -95.45, 45.76 ], [ -95.42, 45.76 ], [ -95.39, 45.76 ], [ -95.37, 45.76 ], [ -95.28, 45.76 ], [ -95.24, 45.76 ], [ -95.21, 45.76 ], [ -95.17, 45.76 ], [ -95.16, 45.76 ], [ -95.14, 45.76 ], [ -95.14, 45.72 ], [ -95.14, 45.67 ], [ -95.14, 45.64 ], [ -95.14, 45.6 ], [ -95.14, 45.59 ], [ -95.13, 45.59 ], [ -95.13, 45.56 ], [ -95.13, 45.55 ], [ -95.13, 45.51 ], [ -95.13, 45.47 ], [ -95.13, 45.46 ], [ -95.13, 45.41 ], [ -95.22, 45.41 ], [ -95.26, 45.41 ], [ -95.3, 45.41 ], [ -95.34, 45.41 ], [ -95.36, 45.41 ], [ -95.37, 45.41 ], [ -95.38, 45.41 ], [ -95.4, 45.41 ], [ -95.45, 45.41 ], [ -95.5, 45.41 ], [ -95.52, 45.41 ], [ -95.64, 45.41 ], [ -95.75, 45.41 ], [ -95.75, 45.47 ], [ -95.75, 45.52 ], [ -95.75, 45.54 ], [ -95.75, 45.57 ], [ -95.75, 45.59 ], [ -95.76, 45.59 ], [ -95.76, 45.68 ], [ -95.76, 45.71 ], [ -95.76, 45.75 ], [ -95.76, 45.76 ], [ -95.66, 45.76 ] ] ] } },
{ "type": "Feature", "properties": { "WFO": "MPX", "ISSUED": "201804142022", "EXPIRED": "201804160500", "INIT_ISS": "201804142022", "INIT_EXP": "201804151800", "PHENOM": "WW", "GTYPE": "C", "SIG": "Y", "ETN": 18, "STATUS": "EXP", "NWS_UGC": "MNZ050", "AREA_KM2": 1066.925537109375, "UPDATED": "201804160457", "HV_NWSLI": null, "HV_SEV": null, "HV_CAUSE": null, "HV_REC": null, "EMERGENC": false, "POLY_BEG": null, "POLY_END": null, "WINDTAG": null, "HAILTAG": null, "TORNTAG": null, "DAMAGTAG": null, "PROD_ID": "201804142022-KMPX-WWUS43-WSWMPX", "FCSTER": "jrb" }, "geometry": { "type": "Polygon", "coordinates": [ [ [ -94.27, 45.76 ], [ -94.27, 45.77 ], [ -94.27, 45.78 ], [ -94.28, 45.78 ], [ -94.29, 45.78 ], [ -94.3, 45.78 ], [ -94.3, 45.79 ], [ -94.31, 45.79 ], [ -94.31, 45.8 ], [ -94.32, 45.8 ], [ -94.33, 45.8 ], [ -94.34, 45.81 ], [ -94.35, 45.82 ], [ -94.3, 45.82 ], [ -94.21, 45.82 ], [ -94.18, 45.82 ], [ -94.12, 45.82 ], [ -94.07, 45.82 ], [ -94.01, 45.82 ], [ -93.99, 45.82 ], [ -93.94, 45.82 ], [ -93.93, 45.82 ], [ -93.9, 45.82 ], [ -93.89, 45.82 ], [ -93.88, 45.82 ], [ -93.87, 45.82 ], [ -93.85, 45.82 ], [ -93.83, 45.82 ], [ -93.76, 45.82 ], [ -93.76, 45.81 ], [ -93.76, 45.77 ], [ -93.76, 45.76 ], [ -93.76, 45.74 ], [ -93.76, 45.73 ], [ -93.76, 45.71 ], [ -93.76, 45.66 ], [ -93.76, 45.63 ], [ -93.76, 45.62 ], [ -93.76, 45.58 ], [ -93.76, 45.56 ], [ -93.8, 45.56 ], [ -93.82, 45.56 ], [ -93.88, 45.56 ], [ -93.9, 45.56 ], [ -93.93, 45.56 ], [ -93.98, 45.56 ], [ -94.0, 45.56 ], [ -94.01, 45.56 ], [ -94.12, 45.56 ], [ -94.13, 45.56 ], [ -94.15, 45.56 ], [ -94.16, 45.56 ], [ -94.16, 45.57 ], [ -94.17, 45.57 ], [ -94.17, 45.58 ], [ -94.17, 45.59 ], [ -94.18, 45.59 ], [ -94.19, 45.6 ], [ -94.2, 45.61 ], [ -94.2, 45.62 ], [ -94.2, 45.63 ], [ -94.2, 45.64 ], [ -94.2, 45.65 ], [ -94.2, 45.66 ], [ -94.2, 45.67 ], [ -94.19, 45.67 ], [ -94.18, 45.68 ], [ -94.19, 45.68 ], [ -94.2, 45.68 ], [ -94.21, 45.69 ], [ -94.21, 45.7 ], [ -94.22, 45.7 ], [ -94.22, 45.71 ], [ -94.22, 45.72 ], [ -94.21, 45.72 ], [ -94.22, 45.73 ], [ -94.23, 45.73 ], [ -94.24, 45.73 ], [ -94.25, 45.74 ], [ -94.26, 45.74 ], [ -94.26, 45.75 ], [ -94.27, 45.75 ], [ -94.27, 45.76 ] ] ] } },
{ "type": "Feature", "properties": { "WFO": "MPX", "ISSUED": "201804142022", "EXPIRED": "201804150600", "INIT_ISS": "201804142022", "INIT_EXP": "201804150600", "PHENOM": "WW", "GTYPE": "C", "SIG": "Y", "ETN": 18, "STATUS": "CON", "NWS_UGC": "MNZ049", "AREA_KM2": 3591.442138671875, "UPDATED": "201804150034", "HV_NWSLI": null, "HV_SEV": null, "HV_CAUSE": null, "HV_REC": null, "EMERGENC": false, "POLY_BEG": null, "POLY_END": null, "WINDTAG": null, "HAILTAG": null, "TORNTAG": null, "DAMAGTAG": null, "PROD_ID": "201804142022-KMPX-WWUS43-WSWMPX", "FCSTER": "jrb" }, "geometry": { "type": "Polygon", "coordinates": [ [ [ -94.27, 45.76 ], [ -94.27, 45.75 ], [ -94.26, 45.75 ], [ -94.26, 45.74 ], [ -94.25, 45.74 ], [ -94.24, 45.73 ], [ -94.23, 45.73 ], [ -94.22, 45.73 ], [ -94.21, 45.72 ], [ -94.22, 45.72 ], [ -94.22, 45.71 ], [ -94.22, 45.7 ], [ -94.21, 45.7 ], [ -94.21, 45.69 ], [ -94.2, 45.68 ], [ -94.19, 45.68 ], [ -94.18, 45.68 ], [ -94.19, 45.67 ], [ -94.2, 45.67 ], [ -94.2, 45.66 ], [ -94.2, 45.65 ], [ -94.2, 45.64 ], [ -94.2, 45.63 ], [ -94.2, 45.62 ], [ -94.2, 45.61 ], [ -94.19, 45.6 ], [ -94.18, 45.59 ], [ -94.17, 45.59 ], [ -94.17, 45.58 ], [ -94.17, 45.57 ], [ -94.16, 45.57 ], [ -94.16, 45.56 ], [ -94.15, 45.56 ], [ -94.15, 45.55 ], [ -94.15, 45.54 ], [ -94.15, 45.53 ], [ -94.15, 45.52 ], [ -94.14, 45.52 ], [ -94.14, 45.51 ], [ -94.14, 45.5 ], [ -94.14, 45.49 ], [ -94.13, 45.49 ], [ -94.13, 45.48 ], [ -94.12, 45.48 ], [ -94.11, 45.48 ], [ -94.11, 45.47 ], [ -94.1, 45.47 ], [ -94.1, 45.46 ], [ -94.1, 45.45 ], [ -94.09, 45.45 ], [ -94.08, 45.45 ], [ -94.08, 45.44 ], [ -94.07, 45.44 ], [ -94.07, 45.43 ], [ -94.06, 45.43 ], [ -94.05, 45.44 ], [ -94.05, 45.43 ], [ -94.05, 45.42 ], [ -94.06, 45.42 ], [ -94.06, 45.41 ], [ -94.07, 45.41 ], [ -94.07, 45.4 ], [ -94.07, 45.39 ], [ -94.08, 45.39 ], [ -94.08, 45.38 ], [ -94.09, 45.37 ], [ -94.08, 45.37 ], [ -94.08, 45.36 ], [ -94.09, 45.36 ], [ -94.09, 45.35 ], [ -94.09, 45.34 ], [ -94.1, 45.34 ], [ -94.11, 45.34 ], [ -94.11, 45.33 ], [ -94.12, 45.33 ], [ -94.14, 45.32 ], [ -94.16, 45.3 ], [ -94.17, 45.3 ], [ -94.18, 45.3 ], [ -94.18, 45.31 ], [ -94.19, 45.32 ], [ -94.2, 45.32 ], [ -94.21, 45.32 ], [ -94.22, 45.32 ], [ -94.22, 45.31 ], [ -94.23, 45.31 ], [ -94.24, 45.31 ], [ -94.25, 45.31 ], [ -94.26, 45.31 ], [ -94.26, 45.3 ], [ -94.26, 45.28 ], [ -94.29, 45.28 ], [ -94.31, 45.28 ], [ -94.32, 45.28 ], [ -94.36, 45.28 ], [ -94.38, 45.28 ], [ -94.38, 45.32 ], [ -94.38, 45.33 ], [ -94.43, 45.33 ], [ -94.51, 45.33 ], [ -94.53, 45.33 ], [ -94.59, 45.33 ], [ -94.61, 45.33 ], [ -94.64, 45.33 ], [ -94.71, 45.33 ], [ -94.74, 45.33 ], [ -94.76, 45.33 ], [ -94.76, 45.36 ], [ -94.76, 45.39 ], [ -94.76, 45.41 ], [ -94.88, 45.41 ], [ -94.94, 45.41 ], [ -95.0, 45.41 ], [ -95.03, 45.41 ], [ -95.04, 45.41 ], [ -95.07, 45.41 ], [ -95.11, 45.41 ], [ -95.12, 45.41 ], [ -95.13, 45.41 ], [ -95.13, 45.46 ], [ -95.13, 45.47 ], [ -95.13, 45.51 ], [ -95.13, 45.55 ], [ -95.13, 45.56 ], [ -95.13, 45.59 ], [ -95.14, 45.59 ], [ -95.14, 45.6 ], [ -95.14, 45.64 ], [ -95.14, 45.67 ], [ -95.14, 45.72 ], [ -95.14, 45.76 ], [ -95.14, 45.77 ], [ -95.04, 45.77 ], [ -95.02, 45.77 ], [ -95.0, 45.77 ], [ -94.99, 45.77 ], [ -94.98, 45.77 ], [ -94.96, 45.77 ], [ -94.94, 45.77 ], [ -94.91, 45.77 ], [ -94.89, 45.77 ], [ -94.88, 45.77 ], [ -94.86, 45.77 ], [ -94.83, 45.77 ], [ -94.81, 45.77 ], [ -94.71, 45.77 ], [ -94.68, 45.77 ], [ -94.65, 45.77 ], [ -94.64, 45.77 ], [ -94.61, 45.77 ], [ -94.59, 45.77 ], [ -94.58, 45.77 ], [ -94.57, 45.77 ], [ -94.56, 45.77 ], [ -94.54, 45.77 ], [ -94.51, 45.77 ], [ -94.48, 45.77 ], [ -94.48, 45.78 ], [ -94.45, 45.78 ], [ -94.44, 45.78 ], [ -94.39, 45.78 ], [ -94.37, 45.78 ], [ -94.32, 45.78 ], [ -94.29, 45.78 ], [ -94.27, 45.78 ], [ -94.27, 45.77 ], [ -94.27, 45.76 ] ] ] } },
{ "type": "Feature", "properties": { "WFO": "MPX", "ISSUED": "201804142022", "EXPIRED": "201804160500", "INIT_ISS": "201804142022", "INIT_EXP": "201804151800", "PHENOM": "WW", "GTYPE": "C", "SIG": "Y", "ETN": 18, "STATUS": "EXP", "NWS_UGC": "MNZ044", "AREA_KM2": 1761.3701171875, "UPDATED": "201804160457", "HV_NWSLI": null, "HV_SEV": null, "HV_CAUSE": null, "HV_REC": null, "EMERGENC": false, "POLY_BEG": null, "POLY_END": null, "WINDTAG": null, "HAILTAG": null, "TORNTAG": null, "DAMAGTAG": null, "PROD_ID": "201804142022-KMPX-WWUS43-WSWMPX", "FCSTER": "jrb" }, "geometry": { "type": "Polygon", "coordinates": [ [ [ -93.43, 46.15 ], [ -93.43, 46.14 ], [ -93.43, 46.12 ], [ -93.43, 46.11 ], [ -93.43, 46.09 ], [ -93.43, 46.06 ], [ -93.43, 46.05 ], [ -93.43, 46.01 ], [ -93.43, 45.98 ], [ -93.44, 45.98 ], [ -93.45, 45.98 ], [ -93.47, 45.98 ], [ -93.52, 45.98 ], [ -93.52, 45.97 ], [ -93.52, 45.95 ], [ -93.52, 45.92 ], [ -93.52, 45.89 ], [ -93.52, 45.87 ], [ -93.52, 45.85 ], [ -93.52, 45.82 ], [ -93.52, 45.8 ], [ -93.51, 45.78 ], [ -93.51, 45.76 ], [ -93.51, 45.75 ], [ -93.51, 45.74 ], [ -93.51, 45.72 ], [ -93.51, 45.71 ], [ -93.51, 45.69 ], [ -93.51, 45.68 ], [ -93.51, 45.63 ], [ -93.51, 45.56 ], [ -93.52, 45.56 ], [ -93.58, 45.56 ], [ -93.59, 45.56 ], [ -93.62, 45.56 ], [ -93.65, 45.56 ], [ -93.68, 45.56 ], [ -93.76, 45.56 ], [ -93.76, 45.58 ], [ -93.76, 45.62 ], [ -93.76, 45.63 ], [ -93.76, 45.66 ], [ -93.76, 45.71 ], [ -93.76, 45.73 ], [ -93.76, 45.74 ], [ -93.76, 45.76 ], [ -93.76, 45.77 ], [ -93.76, 45.81 ], [ -93.76, 45.82 ], [ -93.77, 45.86 ], [ -93.77, 45.88 ], [ -93.77, 45.91 ], [ -93.77, 45.92 ], [ -93.77, 45.94 ], [ -93.77, 45.95 ], [ -93.77, 45.98 ], [ -93.81, 45.98 ], [ -93.81, 46.03 ], [ -93.81, 46.08 ], [ -93.81, 46.12 ], [ -93.81, 46.14 ], [ -93.81, 46.15 ], [ -93.81, 46.16 ], [ -93.81, 46.18 ], [ -93.81, 46.2 ], [ -93.81, 46.24 ], [ -93.8, 46.24 ], [ -93.79, 46.24 ], [ -93.77, 46.24 ], [ -93.53, 46.25 ], [ -93.48, 46.25 ], [ -93.45, 46.25 ], [ -93.44, 46.25 ], [ -93.43, 46.25 ], [ -93.43, 46.22 ], [ -93.43, 46.21 ], [ -93.43, 46.2 ], [ -93.43, 46.18 ], [ -93.43, 46.16 ], [ -93.43, 46.15 ] ] ] } },
{ "type": "Feature", "properties": { "WFO": "MPX", "ISSUED": "201804142022", "EXPIRED": "201804150843", "INIT_ISS": "201804142022", "INIT_EXP": "201804151800", "PHENOM": "WW", "GTYPE": "C", "SIG": "Y", "ETN": 18, "STATUS": "UPG", "NWS_UGC": "MNZ045", "AREA_KM2": 1378.047607421875, "UPDATED": "201804150843", "HV_NWSLI": null, "HV_SEV": null, "HV_CAUSE": null, "HV_REC": null, "EMERGENC": false, "POLY_BEG": null, "POLY_END": null, "WINDTAG": null, "HAILTAG": null, "TORNTAG": null, "DAMAGTAG": null, "PROD_ID": "201804142022-KMPX-WWUS43-WSWMPX", "FCSTER": "jrb" }, "geometry": { "type": "Polygon", "coordinates": [ [ [ -93.2, 46.16 ], [ -93.18, 46.16 ], [ -93.14, 46.16 ], [ -93.13, 46.16 ], [ -93.11, 46.16 ], [ -93.09, 46.16 ], [ -93.06, 46.16 ], [ -93.05, 46.16 ], [ -93.05, 46.15 ], [ -93.05, 46.14 ], [ -93.06, 46.07 ], [ -93.06, 46.05 ], [ -93.06, 46.01 ], [ -93.06, 45.98 ], [ -93.09, 45.98 ], [ -93.1, 45.98 ], [ -93.12, 45.98 ], [ -93.13, 45.98 ], [ -93.14, 45.98 ], [ -93.14, 45.96 ], [ -93.14, 45.93 ], [ -93.14, 45.92 ], [ -93.14, 45.9 ], [ -93.14, 45.87 ], [ -93.14, 45.85 ], [ -93.14, 45.79 ], [ -93.14, 45.75 ], [ -93.14, 45.74 ], [ -93.14, 45.73 ], [ -93.18, 45.73 ], [ -93.2, 45.73 ], [ -93.23, 45.73 ], [ -93.25, 45.73 ], [ -93.3, 45.73 ], [ -93.33, 45.73 ], [ -93.37, 45.73 ], [ -93.39, 45.73 ], [ -93.47, 45.73 ], [ -93.5, 45.73 ], [ -93.51, 45.74 ], [ -93.51, 45.75 ], [ -93.51, 45.76 ], [ -93.51, 45.78 ], [ -93.52, 45.8 ], [ -93.52, 45.82 ], [ -93.52, 45.85 ], [ -93.52, 45.87 ], [ -93.52, 45.89 ], [ -93.52, 45.92 ], [ -93.52, 45.95 ], [ -93.52, 45.97 ], [ -93.52, 45.98 ], [ -93.47, 45.98 ], [ -93.45, 45.98 ], [ -93.44, 45.98 ], [ -93.43, 45.98 ], [ -93.43, 46.01 ], [ -93.43, 46.05 ], [ -93.43, 46.06 ], [ -93.43, 46.09 ], [ -93.43, 46.11 ], [ -93.43, 46.12 ], [ -93.43, 46.14 ], [ -93.43, 46.15 ], [ -93.41, 46.15 ], [ -93.39, 46.16 ], [ -93.35, 46.16 ], [ -93.32, 46.16 ], [ -93.3, 46.16 ], [ -93.29, 46.16 ], [ -93.2, 46.16 ] ] ] } },
{ "type": "Feature", "properties": { "WFO": "DLH", "ISSUED": "201804150000", "EXPIRED": "201804160500", "INIT_ISS": "201804140900", "INIT_EXP": "201804160000", "PHENOM": "WW", "GTYPE": "C", "SIG": "Y", "ETN": 18, "STATUS": "EXP", "NWS_UGC": "MNZ036", "AREA_KM2": 2706.731201171875, "UPDATED": "201804160505", "HV_NWSLI": null, "HV_SEV": null, "HV_CAUSE": null, "HV_REC": null, "EMERGENC": false, "POLY_BEG": null, "POLY_END": null, "WINDTAG": null, "HAILTAG": null, "TORNTAG": null, "DAMAGTAG": null, "PROD_ID": "201804140900-KDLH-WWUS43-WSWDLH", "FCSTER": "JTS" }, "geometry": { "type": "Polygon", "coordinates": [ [ [ -93.05, 46.23 ], [ -93.05, 46.18 ], [ -93.05, 46.17 ], [ -93.05, 46.16 ], [ -93.06, 46.16 ], [ -93.09, 46.16 ], [ -93.11, 46.16 ], [ -93.13, 46.16 ], [ -93.14, 46.16 ], [ -93.18, 46.16 ], [ -93.2, 46.16 ], [ -93.29, 46.16 ], [ -93.3, 46.16 ], [ -93.32, 46.16 ], [ -93.35, 46.16 ], [ -93.39, 46.16 ], [ -93.41, 46.15 ], [ -93.43, 46.15 ], [ -93.43, 46.16 ], [ -93.43, 46.18 ], [ -93.43, 46.2 ], [ -93.43, 46.21 ], [ -93.43, 46.22 ], [ -93.43, 46.25 ], [ -93.44, 46.25 ], [ -93.45, 46.25 ], [ -93.48, 46.25 ], [ -93.53, 46.25 ], [ -93.77, 46.24 ], [ -93.79, 46.24 ], [ -93.8, 46.24 ], [ -93.8, 46.25 ], [ -93.81, 46.25 ], [ -93.81, 46.36 ], [ -93.81, 46.41 ], [ -93.81, 46.43 ], [ -93.81, 46.5 ], [ -93.81, 46.52 ], [ -93.81, 46.53 ], [ -93.81, 46.54 ], [ -93.81, 46.56 ], [ -93.81, 46.58 ], [ -93.8, 46.59 ], [ -93.79, 46.59 ], [ -93.78, 46.59 ], [ -93.78, 46.63 ], [ -93.06, 46.62 ], [ -93.06, 46.59 ], [ -93.05, 46.59 ], [ -93.06, 46.58 ], [ -93.06, 46.53 ], [ -93.06, 46.5 ], [ -93.06, 46.44 ], [ -93.05, 46.42 ], [ -93.05, 46.39 ], [ -93.05, 46.37 ], [ -93.05, 46.34 ], [ -93.05, 46.32 ], [ -93.05, 46.25 ], [ -93.05, 46.23 ] ] ] } },
{ "type": "Feature", "properties": { "WFO": "DLH", "ISSUED": "201804150000", "EXPIRED": "201804161200", "INIT_ISS": "201804141918", "INIT_EXP": "201804161200", "PHENOM": "WS", "GTYPE": "C", "SIG": "W", "ETN": 12, "STATUS": "EXP", "NWS_UGC": "MNZ037", "AREA_KM2": 4808.8994140625, "UPDATED": "201804161203", "HV_NWSLI": null, "HV_SEV": null, "HV_CAUSE": null, "HV_REC": null, "EMERGENC": false, "POLY_BEG": null, "POLY_END": null, "WINDTAG": null, "HAILTAG": null, "TORNTAG": null, "DAMAGTAG": null, "PROD_ID": "201804141918-KDLH-WWUS43-WSWDLH", "FCSTER": null }, "geometry": { "type": "MultiPolygon", "coordinates": [ [ [ [ -92.29, 46.66 ], [ -92.29, 46.64 ], [ -92.29, 46.59 ], [ -92.29, 46.57 ], [ -92.29, 46.5 ], [ -92.29, 46.43 ], [ -92.29, 46.42 ], [ -92.31, 46.42 ], [ -92.37, 46.42 ], [ -92.49, 46.42 ], [ -92.5, 46.42 ], [ -92.55, 46.42 ], [ -92.64, 46.42 ], [ -92.73, 46.42 ], [ -92.76, 46.42 ], [ -92.77, 46.42 ], [ -92.8, 46.42 ], [ -92.82, 46.42 ], [ -92.86, 46.42 ], [ -92.87, 46.42 ], [ -92.88, 46.42 ], [ -92.89, 46.42 ], [ -92.96, 46.42 ], [ -93.05, 46.42 ], [ -93.06, 46.44 ], [ -93.06, 46.5 ], [ -93.06, 46.53 ], [ -93.06, 46.58 ], [ -93.05, 46.59 ], [ -93.06, 46.59 ], [ -93.06, 46.62 ], [ -93.06, 46.63 ], [ -93.06, 46.68 ], [ -93.06, 46.7 ], [ -93.06, 46.75 ], [ -93.06, 46.77 ], [ -93.06, 46.84 ], [ -93.06, 46.87 ], [ -93.06, 46.9 ], [ -93.06, 46.91 ], [ -93.06, 46.94 ], [ -93.06, 46.95 ], [ -93.06, 46.96 ], [ -93.06, 46.98 ], [ -93.06, 47.01 ], [ -93.06, 47.02 ], [ -93.06, 47.03 ], [ -92.69, 47.03 ], [ -92.24, 47.03 ], [ -92.07, 47.02 ], [ -91.99, 47.0 ], [ -91.98, 47.0 ], [ -91.91, 46.97 ], [ -91.83, 46.94 ], [ -91.81, 46.93 ], [ -91.82, 46.93 ], [ -91.83, 46.93 ], [ -91.84, 46.93 ], [ -91.84, 46.92 ], [ -91.85, 46.92 ], [ -91.85, 46.91 ], [ -91.86, 46.91 ], [ -91.87, 46.91 ], [ -91.88, 46.91 ], [ -91.89, 46.9 ], [ -91.91, 46.89 ], [ -91.91, 46.88 ], [ -91.92, 46.88 ], [ -91.94, 46.87 ], [ -91.95, 46.87 ], [ -91.97, 46.86 ], [ -91.98, 46.85 ], [ -91.99, 46.85 ], [ -91.99, 46.84 ], [ -92.0, 46.84 ], [ -92.01, 46.84 ], [ -92.01, 46.83 ], [ -92.02, 46.83 ], [ -92.03, 46.83 ], [ -92.03, 46.82 ], [ -92.04, 46.82 ], [ -92.05, 46.81 ], [ -92.06, 46.81 ], [ -92.06, 46.8 ], [ -92.07, 46.8 ], [ -92.08, 46.8 ], [ -92.09, 46.79 ], [ -92.09, 46.78 ], [ -92.1, 46.78 ], [ -92.1, 46.77 ], [ -92.1, 46.76 ], [ -92.09, 46.75 ], [ -92.1, 46.75 ], [ -92.11, 46.75 ], [ -92.11, 46.76 ], [ -92.12, 46.76 ], [ -92.13, 46.76 ], [ -92.12, 46.75 ], [ -92.13, 46.75 ], [ -92.13, 46.74 ], [ -92.14, 46.75 ], [ -92.15, 46.74 ], [ -92.16, 46.73 ], [ -92.16, 46.72 ], [ -92.17, 46.72 ], [ -92.17, 46.73 ], [ -92.18, 46.73 ], [ -92.18, 46.72 ], [ -92.19, 46.72 ], [ -92.2, 46.72 ], [ -92.2, 46.71 ], [ -92.21, 46.7 ], [ -92.2, 46.69 ], [ -92.21, 46.68 ], [ -92.2, 46.68 ], [ -92.19, 46.68 ], [ -92.2, 46.67 ], [ -92.21, 46.67 ], [ -92.21, 46.66 ], [ -92.22, 46.65 ], [ -92.23, 46.65 ], [ -92.24, 46.65 ], [ -92.25, 46.66 ], [ -92.26, 46.66 ], [ -92.27, 46.66 ], [ -92.28, 46.66 ], [ -92.29, 46.66 ] ] ], [ [ [ -92.09, 46.77 ], [ -92.08, 46.77 ], [ -92.08, 46.76 ], [ -92.09, 46.76 ], [ -92.09, 46.77 ] ] ], [ [ [ -92.07, 46.75 ], [ -92.06, 46.75 ], [ -92.06, 46.74 ], [ -92.07, 46.74 ], [ -92.07, 46.75 ] ] ], [ [ [ -92.05, 46.73 ], [ -92.03, 46.71 ], [ -92.04, 46.72 ], [ -92.05, 46.72 ], [ -92.05, 46.73 ] ] ], [ [ [ -92.16, 46.73 ], [ -92.15, 46.73 ], [ -92.15, 46.72 ], [ -92.16, 46.73 ] ] ], [ [ [ -92.21, 46.66 ], [ -92.2, 46.66 ], [ -92.21, 46.65 ], [ -92.21, 46.66 ] ] ], [ [ [ -92.25, 46.65 ], [ -92.26, 46.65 ], [ -92.26, 46.66 ], [ -92.25, 46.65 ] ] ] ] } },
{ "type": "Feature", "properties": { "WFO": "ABR", "ISSUED": "201804150000", "EXPIRED": "201804151800", "INIT_ISS": "201804141749", "INIT_EXP": "201804150600", "PHENOM": "WW", "GTYPE": "C", "SIG": "Y", "ETN": 18, "STATUS": "EXP", "NWS_UGC": "SDZ023", "AREA_KM2": 1645.3052978515625, "UPDATED": "201804151804", "HV_NWSLI": null, "HV_SEV": null, "HV_CAUSE": null, "HV_REC": null, "EMERGENC": false, "POLY_BEG": null, "POLY_END": null, "WINDTAG": null, "HAILTAG": null, "TORNTAG": null, "DAMAGTAG": null, "PROD_ID": "201804141749-KABR-WWUS43-WSWABR", "FCSTER": "KF" }, "geometry": { "type": "Polygon", "coordinates": [ [ [ -96.45, 44.81 ], [ -96.45, 44.8 ], [ -96.45, 44.79 ], [ -96.45, 44.77 ], [ -96.45, 44.75 ], [ -96.45, 44.72 ], [ -96.45, 44.7 ], [ -96.45, 44.65 ], [ -96.45, 44.63 ], [ -96.45, 44.62 ], [ -96.45, 44.59 ], [ -96.45, 44.55 ], [ -96.45, 44.54 ], [ -96.5, 44.54 ], [ -96.52, 44.54 ], [ -96.57, 44.54 ], [ -96.62, 44.54 ], [ -96.89, 44.54 ], [ -96.89, 44.58 ], [ -96.89, 44.62 ], [ -96.89, 44.63 ], [ -96.88, 44.68 ], [ -96.88, 44.72 ], [ -96.88, 44.74 ], [ -96.88, 44.75 ], [ -96.88, 44.8 ], [ -96.88, 44.88 ], [ -96.88, 44.89 ], [ -96.88, 44.9 ], [ -96.88, 44.96 ], [ -96.88, 44.98 ], [ -96.81, 44.98 ], [ -96.8, 44.98 ], [ -96.79, 44.98 ], [ -96.76, 44.98 ], [ -96.75, 44.98 ], [ -96.74, 44.98 ], [ -96.7, 44.98 ], [ -96.68, 44.98 ], [ -96.66, 44.98 ], [ -96.64, 44.98 ], [ -96.53, 44.98 ], [ -96.5, 44.98 ], [ -96.45, 44.98 ], [ -96.45, 44.97 ], [ -96.45, 44.96 ], [ -96.45, 44.94 ], [ -96.45, 44.92 ], [ -96.45, 44.89 ], [ -96.45, 44.87 ], [ -96.45, 44.81 ] ] ] } },
{ "type": "Feature", "properties": { "WFO": "ABR", "ISSUED": "201804150000", "EXPIRED": "201804151800", "INIT_ISS": "201804142355", "INIT_EXP": "201804150600", "PHENOM": "WW", "GTYPE": "C", "SIG": "Y", "ETN": 18, "STATUS": "EXP", "NWS_UGC": "SDZ021", "AREA_KM2": 1777.7216796875, "UPDATED": "201804151804", "HV_NWSLI": null, "HV_SEV": null, "HV_CAUSE": null, "HV_REC": null, "EMERGENC": false, "POLY_BEG": null, "POLY_END": null, "WINDTAG": null, "HAILTAG": null, "TORNTAG": null, "DAMAGTAG": null, "PROD_ID": "201804142355-KABR-WWUS43-WSWABR", "FCSTER": null }, "geometry": { "type": "Polygon", "coordinates": [ [ [ -96.47, 45.33 ], [ -96.47, 45.32 ], [ -96.46, 45.31 ], [ -96.46, 45.3 ], [ -96.45, 45.3 ], [ -96.45, 45.29 ], [ -96.45, 45.28 ], [ -96.45, 45.27 ], [ -96.45, 45.25 ], [ -96.45, 45.24 ], [ -96.45, 45.2 ], [ -96.45, 45.14 ], [ -96.45, 45.09 ], [ -96.45, 45.04 ], [ -96.45, 45.02 ], [ -96.45, 45.01 ], [ -96.45, 45.0 ], [ -96.45, 44.98 ], [ -96.5, 44.98 ], [ -96.53, 44.98 ], [ -96.64, 44.98 ], [ -96.66, 44.98 ], [ -96.68, 44.98 ], [ -96.7, 44.98 ], [ -96.74, 44.98 ], [ -96.75, 44.98 ], [ -96.76, 44.98 ], [ -96.79, 44.98 ], [ -96.8, 44.98 ], [ -96.81, 44.98 ], [ -96.88, 44.98 ], [ -96.88, 45.0 ], [ -96.88, 45.01 ], [ -96.88, 45.04 ], [ -96.88, 45.13 ], [ -96.88, 45.15 ], [ -96.92, 45.15 ], [ -96.99, 45.15 ], [ -97.0, 45.15 ], [ -97.02, 45.15 ], [ -97.05, 45.15 ], [ -97.08, 45.15 ], [ -97.09, 45.15 ], [ -97.12, 45.15 ], [ -97.16, 45.15 ], [ -97.18, 45.15 ], [ -97.23, 45.15 ], [ -97.23, 45.17 ], [ -97.23, 45.25 ], [ -97.23, 45.3 ], [ -97.18, 45.3 ], [ -97.02, 45.3 ], [ -97.01, 45.3 ], [ -96.99, 45.33 ], [ -96.94, 45.33 ], [ -96.9, 45.33 ], [ -96.88, 45.33 ], [ -96.75, 45.33 ], [ -96.72, 45.33 ], [ -96.69, 45.33 ], [ -96.62, 45.33 ], [ -96.58, 45.33 ], [ -96.56, 45.33 ], [ -96.49, 45.33 ], [ -96.48, 45.33 ], [ -96.47, 45.33 ] ] ] } },
{ "type": "Feature", "properties": { "WFO": "ABR", "ISSUED": "201804150000", "EXPIRED": "201804151800", "INIT_ISS": "201804142355", "INIT_EXP": "201804150600", "PHENOM": "WW", "GTYPE": "C", "SIG": "Y", "ETN": 18, "STATUS": "EXP", "NWS_UGC": "MNZ046", "AREA_KM2": 1364.0831298828125, "UPDATED": "201804151804", "HV_NWSLI": null, "HV_SEV": null, "HV_CAUSE": null, "HV_REC": null, "EMERGENC": false, "POLY_BEG": null, "POLY_END": null, "WINDTAG": null, "HAILTAG": null, "TORNTAG": null, "DAMAGTAG": null, "PROD_ID": "201804142355-KABR-WWUS43-WSWABR", "FCSTER": null }, "geometry": { "type": "Polygon", "coordinates": [ [ [ -96.74, 45.59 ], [ -96.66, 45.59 ], [ -96.61, 45.59 ], [ -96.57, 45.59 ], [ -96.55, 45.59 ], [ -96.5, 45.59 ], [ -96.49, 45.59 ], [ -96.46, 45.59 ], [ -96.37, 45.59 ], [ -96.34, 45.59 ], [ -96.3, 45.59 ], [ -96.28, 45.59 ], [ -96.25, 45.59 ], [ -96.24, 45.59 ], [ -96.24, 45.52 ], [ -96.24, 45.51 ], [ -96.24, 45.46 ], [ -96.24, 45.41 ], [ -96.18, 45.41 ], [ -96.12, 45.41 ], [ -96.12, 45.4 ], [ -96.12, 45.39 ], [ -96.12, 45.36 ], [ -96.12, 45.35 ], [ -96.12, 45.34 ], [ -96.12, 45.33 ], [ -96.12, 45.32 ], [ -96.12, 45.3 ], [ -96.12, 45.25 ], [ -96.12, 45.24 ], [ -96.1, 45.24 ], [ -96.1, 45.22 ], [ -96.1, 45.21 ], [ -96.1, 45.18 ], [ -96.11, 45.18 ], [ -96.11, 45.19 ], [ -96.12, 45.19 ], [ -96.14, 45.2 ], [ -96.14, 45.19 ], [ -96.15, 45.19 ], [ -96.16, 45.19 ], [ -96.17, 45.19 ], [ -96.18, 45.2 ], [ -96.19, 45.2 ], [ -96.2, 45.2 ], [ -96.2, 45.21 ], [ -96.21, 45.21 ], [ -96.22, 45.22 ], [ -96.23, 45.22 ], [ -96.24, 45.22 ], [ -96.25, 45.22 ], [ -96.26, 45.22 ], [ -96.27, 45.22 ], [ -96.28, 45.23 ], [ -96.28, 45.24 ], [ -96.29, 45.24 ], [ -96.28, 45.25 ], [ -96.29, 45.25 ], [ -96.3, 45.25 ], [ -96.31, 45.25 ], [ -96.32, 45.25 ], [ -96.33, 45.25 ], [ -96.34, 45.26 ], [ -96.35, 45.26 ], [ -96.36, 45.26 ], [ -96.37, 45.26 ], [ -96.38, 45.26 ], [ -96.4, 45.26 ], [ -96.41, 45.26 ], [ -96.42, 45.26 ], [ -96.42, 45.27 ], [ -96.43, 45.27 ], [ -96.44, 45.27 ], [ -96.45, 45.27 ], [ -96.45, 45.28 ], [ -96.45, 45.29 ], [ -96.45, 45.3 ], [ -96.46, 45.3 ], [ -96.46, 45.31 ], [ -96.47, 45.32 ], [ -96.47, 45.33 ], [ -96.48, 45.34 ], [ -96.48, 45.35 ], [ -96.49, 45.35 ], [ -96.49, 45.36 ], [ -96.5, 45.37 ], [ -96.51, 45.37 ], [ -96.52, 45.37 ], [ -96.52, 45.38 ], [ -96.53, 45.38 ], [ -96.54, 45.38 ], [ -96.55, 45.38 ], [ -96.56, 45.39 ], [ -96.57, 45.39 ], [ -96.58, 45.39 ], [ -96.58, 45.4 ], [ -96.6, 45.4 ], [ -96.61, 45.41 ], [ -96.62, 45.41 ], [ -96.63, 45.41 ], [ -96.64, 45.41 ], [ -96.65, 45.41 ], [ -96.66, 45.41 ], [ -96.67, 45.41 ], [ -96.68, 45.41 ], [ -96.69, 45.42 ], [ -96.7, 45.42 ], [ -96.7, 45.43 ], [ -96.71, 45.43 ], [ -96.71, 45.44 ], [ -96.72, 45.45 ], [ -96.73, 45.45 ], [ -96.73, 45.46 ], [ -96.74, 45.47 ], [ -96.74, 45.48 ], [ -96.74, 45.49 ], [ -96.75, 45.49 ], [ -96.75, 45.5 ], [ -96.76, 45.51 ], [ -96.76, 45.52 ], [ -96.77, 45.52 ], [ -96.77, 45.53 ], [ -96.78, 45.53 ], [ -96.78, 45.54 ], [ -96.79, 45.55 ], [ -96.8, 45.55 ], [ -96.8, 45.56 ], [ -96.81, 45.56 ], [ -96.83, 45.59 ], [ -96.77, 45.59 ], [ -96.74, 45.59 ] ] ] } },
{ "type": "Feature", "properties": { "WFO": "DLH", "ISSUED": "201804150145", "EXPIRED": "201804160500", "INIT_ISS": "201804150145", "INIT_EXP": "201804160000", "PHENOM": "WW", "GTYPE": "C", "SIG": "Y", "ETN": 18, "STATUS": "EXP", "NWS_UGC": "MNZ035", "AREA_KM2": 2447.59619140625, "UPDATED": "201804160505", "HV_NWSLI": null, "HV_SEV": null, "HV_CAUSE": null, "HV_REC": null, "EMERGENC": false, "POLY_BEG": null, "POLY_END": null, "WINDTAG": null, "HAILTAG": null, "TORNTAG": null, "DAMAGTAG": null, "PROD_ID": "201804150145-KDLH-WWUS43-WSWDLH", "FCSTER": null }, "geometry": { "type": "Polygon", "coordinates": [ [ [ -93.65, 47.03 ], [ -93.63, 47.03 ], [ -93.59, 47.03 ], [ -93.58, 47.03 ], [ -93.57, 47.03 ], [ -93.56, 47.03 ], [ -93.42, 47.03 ], [ -93.32, 47.03 ], [ -93.28, 47.03 ], [ -93.26, 47.03 ], [ -93.25, 47.03 ], [ -93.21, 47.03 ], [ -93.19, 47.03 ], [ -93.17, 47.03 ], [ -93.12, 47.03 ], [ -93.1, 47.03 ], [ -93.09, 47.03 ], [ -93.08, 47.03 ], [ -93.06, 47.03 ], [ -93.06, 47.02 ], [ -93.06, 47.01 ], [ -93.06, 46.98 ], [ -93.06, 46.96 ], [ -93.06, 46.95 ], [ -93.06, 46.94 ], [ -93.06, 46.91 ], [ -93.06, 46.9 ], [ -93.06, 46.87 ], [ -93.06, 46.84 ], [ -93.06, 46.77 ], [ -93.06, 46.75 ], [ -93.06, 46.7 ], [ -93.06, 46.68 ], [ -93.06, 46.63 ], [ -93.06, 46.62 ], [ -93.78, 46.63 ], [ -93.78, 46.66 ], [ -93.78, 46.75 ], [ -93.78, 46.76 ], [ -93.78, 46.8 ], [ -93.78, 46.85 ], [ -93.78, 46.86 ], [ -93.78, 46.87 ], [ -93.77, 46.93 ], [ -93.78, 46.94 ], [ -93.78, 46.95 ], [ -93.77, 46.99 ], [ -93.77, 47.0 ], [ -93.78, 47.02 ], [ -93.78, 47.03 ], [ -93.73, 47.03 ], [ -93.65, 47.03 ] ] ] } },
{ "type": "Feature", "properties": { "WFO": "DLH", "ISSUED": "201804150145", "EXPIRED": "201804160500", "INIT_ISS": "201804150145", "INIT_EXP": "201804160000", "PHENOM": "WW", "GTYPE": "C", "SIG": "Y", "ETN": 18, "STATUS": "EXP", "NWS_UGC": "MNZ034", "AREA_KM2": 2987.676513671875, "UPDATED": "201804160505", "HV_NWSLI": null, "HV_SEV": null, "HV_CAUSE": null, "HV_REC": null, "EMERGENC": false, "POLY_BEG": null, "POLY_END": null, "WINDTAG": null, "HAILTAG": null, "TORNTAG": null, "DAMAGTAG": null, "PROD_ID": "201804150145-KDLH-WWUS43-WSWDLH", "FCSTER": null }, "geometry": { "type": "Polygon", "coordinates": [ [ [ -93.78, 46.8 ], [ -93.78, 46.76 ], [ -93.78, 46.75 ], [ -93.78, 46.66 ], [ -93.78, 46.63 ], [ -93.78, 46.59 ], [ -93.79, 46.59 ], [ -93.8, 46.59 ], [ -93.81, 46.58 ], [ -93.81, 46.56 ], [ -93.81, 46.54 ], [ -93.81, 46.53 ], [ -93.81, 46.52 ], [ -93.81, 46.5 ], [ -93.81, 46.43 ], [ -93.81, 46.41 ], [ -93.81, 46.36 ], [ -93.81, 46.25 ], [ -93.8, 46.25 ], [ -93.8, 46.24 ], [ -93.81, 46.24 ], [ -93.81, 46.2 ], [ -93.81, 46.18 ], [ -93.81, 46.16 ], [ -93.83, 46.16 ], [ -93.86, 46.16 ], [ -93.88, 46.16 ], [ -93.9, 46.16 ], [ -93.91, 46.16 ], [ -93.93, 46.16 ], [ -93.97, 46.16 ], [ -94.0, 46.16 ], [ -94.01, 46.16 ], [ -94.06, 46.16 ], [ -94.1, 46.16 ], [ -94.15, 46.16 ], [ -94.17, 46.16 ], [ -94.2, 46.16 ], [ -94.22, 46.16 ], [ -94.24, 46.16 ], [ -94.3, 46.16 ], [ -94.31, 46.16 ], [ -94.35, 46.16 ], [ -94.36, 46.16 ], [ -94.37, 46.16 ], [ -94.37, 46.17 ], [ -94.37, 46.18 ], [ -94.37, 46.19 ], [ -94.38, 46.19 ], [ -94.39, 46.2 ], [ -94.39, 46.21 ], [ -94.4, 46.21 ], [ -94.39, 46.22 ], [ -94.39, 46.23 ], [ -94.39, 46.24 ], [ -94.38, 46.24 ], [ -94.37, 46.24 ], [ -94.37, 46.25 ], [ -94.36, 46.25 ], [ -94.35, 46.26 ], [ -94.35, 46.27 ], [ -94.34, 46.27 ], [ -94.34, 46.28 ], [ -94.33, 46.28 ], [ -94.33, 46.29 ], [ -94.33, 46.33 ], [ -94.33, 46.38 ], [ -94.33, 46.41 ], [ -94.33, 46.44 ], [ -94.33, 46.46 ], [ -94.33, 46.48 ], [ -94.33, 46.49 ], [ -94.33, 46.5 ], [ -94.33, 46.53 ], [ -94.33, 46.55 ], [ -94.33, 46.56 ], [ -94.33, 46.57 ], [ -94.33, 46.59 ], [ -94.33, 46.61 ], [ -94.33, 46.63 ], [ -94.35, 46.63 ], [ -94.35, 46.66 ], [ -94.35, 46.67 ], [ -94.35, 46.68 ], [ -94.35, 46.69 ], [ -94.35, 46.72 ], [ -94.34, 46.73 ], [ -94.34, 46.74 ], [ -94.34, 46.76 ], [ -94.34, 46.77 ], [ -94.34, 46.78 ], [ -94.34, 46.8 ], [ -94.34, 46.81 ], [ -94.3, 46.81 ], [ -94.28, 46.81 ], [ -94.25, 46.81 ], [ -94.24, 46.81 ], [ -94.16, 46.8 ], [ -94.11, 46.8 ], [ -94.09, 46.8 ], [ -94.03, 46.8 ], [ -94.01, 46.8 ], [ -93.89, 46.8 ], [ -93.78, 46.8 ] ] ] } },
{ "type": "Feature", "properties": { "WFO": "DVN", "ISSUED": "201804150300", "EXPIRED": "201804160000", "INIT_ISS": "201804140851", "INIT_EXP": "201804160000", "PHENOM": "WW", "GTYPE": "C", "SIG": "Y", "ETN": 27, "STATUS": "EXP", "NWS_UGC": "IAZ042", "AREA_KM2": 1594.415771484375, "UPDATED": "201804152346", "HV_NWSLI": null, "HV_SEV": null, "HV_CAUSE": null, "HV_REC": null, "EMERGENC": false, "POLY_BEG": null, "POLY_END": null, "WINDTAG": null, "HAILTAG": null, "TORNTAG": null, "DAMAGTAG": null, "PROD_ID": "201804140851-KDVN-WWUS43-WSWDVN", "FCSTER": "12/05" }, "geometry": { "type": "Polygon", "coordinates": [ [ [ -90.75, 42.65 ], [ -90.74, 42.65 ], [ -90.73, 42.64 ], [ -90.72, 42.64 ], [ -90.71, 42.64 ], [ -90.71, 42.63 ], [ -90.7, 42.63 ], [ -90.7, 42.62 ], [ -90.69, 42.61 ], [ -90.69, 42.6 ], [ -90.69, 42.59 ], [ -90.68, 42.58 ], [ -90.67, 42.58 ], [ -90.66, 42.57 ], [ -90.66, 42.56 ], [ -90.65, 42.55 ], [ -90.65, 42.54 ], [ -90.64, 42.54 ], [ -90.64, 42.53 ], [ -90.64, 42.52 ], [ -90.64, 42.51 ], [ -90.65, 42.5 ], [ -90.66, 42.49 ], [ -90.66, 42.48 ], [ -90.65, 42.48 ], [ -90.65, 42.47 ], [ -90.64, 42.47 ], [ -90.62, 42.46 ], [ -90.61, 42.45 ], [ -90.6, 42.45 ], [ -90.59, 42.45 ], [ -90.58, 42.44 ], [ -90.57, 42.44 ], [ -90.56, 42.44 ], [ -90.56, 42.43 ], [ -90.56, 42.42 ], [ -90.55, 42.42 ], [ -90.55, 42.41 ], [ -90.54, 42.41 ], [ -90.52, 42.4 ], [ -90.51, 42.4 ], [ -90.5, 42.4 ], [ -90.49, 42.39 ], [ -90.49, 42.38 ], [ -90.5, 42.38 ], [ -90.66, 42.38 ], [ -90.67, 42.36 ], [ -90.67, 42.34 ], [ -90.67, 42.29 ], [ -90.73, 42.3 ], [ -90.75, 42.29 ], [ -90.76, 42.3 ], [ -90.79, 42.29 ], [ -90.81, 42.3 ], [ -90.86, 42.29 ], [ -90.9, 42.3 ], [ -90.94, 42.3 ], [ -90.96, 42.3 ], [ -90.98, 42.3 ], [ -91.0, 42.3 ], [ -91.01, 42.3 ], [ -91.05, 42.3 ], [ -91.12, 42.3 ], [ -91.13, 42.3 ], [ -91.13, 42.45 ], [ -91.13, 42.47 ], [ -91.13, 42.49 ], [ -91.13, 42.5 ], [ -91.13, 42.55 ], [ -91.13, 42.59 ], [ -91.13, 42.62 ], [ -91.13, 42.63 ], [ -91.13, 42.65 ], [ -91.04, 42.65 ], [ -91.03, 42.65 ], [ -91.01, 42.65 ], [ -90.97, 42.65 ], [ -90.9, 42.65 ], [ -90.9, 42.68 ], [ -90.89, 42.67 ], [ -90.87, 42.67 ], [ -90.86, 42.67 ], [ -90.85, 42.66 ], [ -90.84, 42.66 ], [ -90.83, 42.66 ], [ -90.82, 42.66 ], [ -90.81, 42.66 ], [ -90.8, 42.66 ], [ -90.79, 42.65 ], [ -90.78, 42.65 ], [ -90.77, 42.65 ], [ -90.76, 42.65 ], [ -90.75, 42.65 ] ] ] } },
{ "type": "Feature", "properties": { "WFO": "DVN", "ISSUED": "201804150300", "EXPIRED": "201804160000", "INIT_ISS": "201804140851", "INIT_EXP": "201804160000", "PHENOM": "WW", "GTYPE": "C", "SIG": "Y", "ETN": 27, "STATUS": "EXP", "NWS_UGC": "IAZ041", "AREA_KM2": 1497.22705078125, "UPDATED": "201804152346", "HV_NWSLI": null, "HV_SEV": null, "HV_CAUSE": null, "HV_REC": null, "EMERGENC": false, "POLY_BEG": null, "POLY_END": null, "WINDTAG": null, "HAILTAG": null, "TORNTAG": null, "DAMAGTAG": null, "PROD_ID": "201804140851-KDVN-WWUS43-WSWDVN", "FCSTER": "12/05" }, "geometry": { "type": "Polygon", "coordinates": [ [ [ -91.13, 42.65 ], [ -91.13, 42.63 ], [ -91.13, 42.62 ], [ -91.13, 42.59 ], [ -91.13, 42.55 ], [ -91.13, 42.5 ], [ -91.13, 42.49 ], [ -91.13, 42.47 ], [ -91.13, 42.45 ], [ -91.13, 42.3 ], [ -91.21, 42.3 ], [ -91.25, 42.3 ], [ -91.26, 42.3 ], [ -91.27, 42.3 ], [ -91.3, 42.3 ], [ -91.31, 42.3 ], [ -91.32, 42.3 ], [ -91.36, 42.3 ], [ -91.38, 42.3 ], [ -91.4, 42.3 ], [ -91.46, 42.3 ], [ -91.48, 42.3 ], [ -91.6, 42.3 ], [ -91.6, 42.32 ], [ -91.6, 42.38 ], [ -91.6, 42.43 ], [ -91.6, 42.44 ], [ -91.6, 42.47 ], [ -91.61, 42.47 ], [ -91.61, 42.48 ], [ -91.61, 42.53 ], [ -91.61, 42.57 ], [ -91.61, 42.59 ], [ -91.61, 42.6 ], [ -91.61, 42.64 ], [ -91.55, 42.64 ], [ -91.54, 42.64 ], [ -91.49, 42.64 ], [ -91.47, 42.64 ], [ -91.46, 42.64 ], [ -91.45, 42.64 ], [ -91.43, 42.64 ], [ -91.42, 42.64 ], [ -91.41, 42.64 ], [ -91.38, 42.64 ], [ -91.28, 42.65 ], [ -91.23, 42.65 ], [ -91.21, 42.65 ], [ -91.13, 42.65 ] ] ] } },
{ "type": "Feature", "properties": { "WFO": "DVN", "ISSUED": "201804150300", "EXPIRED": "201804160000", "INIT_ISS": "201804140851", "INIT_EXP": "201804160000", "PHENOM": "WW", "GTYPE": "C", "SIG": "Y", "ETN": 27, "STATUS": "EXP", "NWS_UGC": "IAZ040", "AREA_KM2": 1482.56787109375, "UPDATED": "201804152346", "HV_NWSLI": null, "HV_SEV": null, "HV_CAUSE": null, "HV_REC": null, "EMERGENC": false, "POLY_BEG": null, "POLY_END": null, "WINDTAG": null, "HAILTAG": null, "TORNTAG": null, "DAMAGTAG": null, "PROD_ID": "201804140851-KDVN-WWUS43-WSWDVN", "FCSTER": "12/05" }, "geometry": { "type": "Polygon", "coordinates": [ [ [ -91.61, 42.64 ], [ -91.61, 42.6 ], [ -91.61, 42.59 ], [ -91.61, 42.57 ], [ -91.61, 42.53 ], [ -91.61, 42.48 ], [ -91.61, 42.47 ], [ -91.6, 42.47 ], [ -91.6, 42.44 ], [ -91.6, 42.43 ], [ -91.6, 42.38 ], [ -91.6, 42.32 ], [ -91.6, 42.3 ], [ -91.68, 42.3 ], [ -91.71, 42.3 ], [ -91.77, 42.3 ], [ -91.78, 42.3 ], [ -91.83, 42.3 ], [ -91.95, 42.3 ], [ -91.98, 42.3 ], [ -92.0, 42.3 ], [ -92.06, 42.3 ], [ -92.06, 42.32 ], [ -92.06, 42.37 ], [ -92.06, 42.38 ], [ -92.06, 42.45 ], [ -92.06, 42.46 ], [ -92.06, 42.47 ], [ -92.08, 42.47 ], [ -92.08, 42.5 ], [ -92.08, 42.51 ], [ -92.08, 42.57 ], [ -92.08, 42.61 ], [ -92.08, 42.64 ], [ -92.0, 42.64 ], [ -91.96, 42.64 ], [ -91.95, 42.64 ], [ -91.94, 42.64 ], [ -91.93, 42.64 ], [ -91.91, 42.64 ], [ -91.9, 42.64 ], [ -91.89, 42.64 ], [ -91.88, 42.64 ], [ -91.85, 42.64 ], [ -91.82, 42.64 ], [ -91.81, 42.64 ], [ -91.75, 42.64 ], [ -91.71, 42.64 ], [ -91.69, 42.64 ], [ -91.64, 42.64 ], [ -91.61, 42.64 ] ] ] } }
]
}
